,Centre,Addresse,Quartier,Lat,Lon,NOM
0,Aire de repos 8e Avenue,"Boulevard Saint-Joseph, Montréal",Lachine,45.4411418,-73.6513683,Lachine
1,Bassin de la Brunante,"2476, rue des Harfangs, Montréal",Saint-Laurent,45.5104208,-73.7072845,Saint-Laurent
2,Belvédère Camillien-Houde,"Voie Camillien-Houde, Montréal",Ville-Marie,45.5132965,-73.5916535,Ville-Marie
3,Belvédère du Chemin-Qui-Marche,"1000 Rue de la Commune Est, Montréal",Ville-Marie,45.5137258,-73.5480087,Ville-Marie
4,Belvédère du parc-nature de la Pointe-aux-Prairies,"12300, boulevard Gouin Est, Montréal",Rivière-des-Prairies–Pointe-aux-Trembles,45.68594012554065,-73.52706663820013,Rivière-des-Prairies-Pointe-aux-Trembles
5,Belvédère du parc-nature du Bois-de-L'Île-Bizard,"2115 chemin du Bord-du-Lac, Montréal",L'Île-Bizard–Sainte-Geneviève,45.5133196,-73.8971675,L'Île-Bizard-Sainte-Geneviève
6,Belvédère du parc René-Lévesque,"398, chemin du Canal, Montréal",Lachine,45.4292864,-73.6699118,Lachine
7,Belvédère Kondiaronk,"1196, voie Camillien-Houde, Montréal",Ville-Marie,45.5089096595513,-73.59097514614436,Ville-Marie
8,Belvédère Léo-Ayotte,"Rue Roy Est, Montréal",Le Plateau-Mont-Royal,45.515882,-73.5755018,Le Plateau-Mont-Royal
9,Belvédère Terry-Fox,"5700, rue Saint-Jacques, Montréal",Côte-des-Neiges–Notre-Dame-de-Grâce,45.46649155,-73.60928361513658,Côte-des-Neiges-Notre-Dame-de-Grâce
10,Belvédères du parc de Dieppe,"3400, avenue Pierre-Dupuy, Montréal",Ville-Marie,45.5026432,-73.5439462,Ville-Marie
11,Belvédères du parc des Rapides,"7770, boulevard LaSalle, Montréal",LaSalle,45.4262383,-73.5961642,LaSalle
12,Belvédères du parc Frédéric-Back,"2345, rue Jarry Est, Montréal",Villeray–Saint-Michel–Parc-Extension,45.5585435,-73.6161107,Villeray-Saint-Michel-Parc-Extension
13,Belvédères du parc-nature de l'Île-de-la-Visitation,"2425 Boulevard Gouin Est, Montréal",Ahuntsic-Cartierville,45.57849616056338,-73.65591692253521,Ahuntsic-Cartierville
14,Belvédères du parc-nature du Bois-de-Liesse,"9432, boulevard Gouin Ouest, Montréal","Pierrefonds-Roxboro, Saint-Laurent",45.5074518,-73.76265,Pierrefonds-Roxboro
15,Boisé du parc Marcel-Laurin,"Angle des boulevards Poirier et Cavendish, Montréal",Saint-Laurent,,,
16,Boisé Saint-Conrad,"Avenue Guy et avenue Chaumont, Montréal",Anjou,,,
17,Butte de glissade du parc des Rapides,"7770, boulevard LaSalle, Montréal",LaSalle,45.4262383,-73.5961642,LaSalle
18,Butte de glissade du parc Hayward,"Avenue Orchard, Montréal",LaSalle,45.4227349,-73.6475287,LaSalle
19,Butte de glissade du terrain de la mairie d'arrondissement de LaSalle,"55, avenue Dupras, Montréal",LaSalle,45.4273901,-73.6623174,LaSalle
20,Cabane à sucre du parc-nature du Cap-Saint-Jacques,"202 Chemin du Cap-Saint-Jacques, Montréal",Pierrefonds-Roxboro,45.4613528,-73.9205258,Pierrefonds-Roxboro
21,Carré d'Hibernia,"2333, rue Mullins, Montréal",Le Sud-Ouest,45.4788706535412,-73.56401847962488,Le Sud-Ouest
22,Chalet d'accueil des Champs du parc-nature du Bois-de-Liesse,"3555, rue Douglas-B.-Floreani, Montréal",Saint-Laurent,45.4994946,-73.7676556,Saint-Laurent
23,Chalet d'accueil du parc-nature de l'Île-de-la-Visitation,"2425 Boulevard Gouin Est, Montréal",Ahuntsic-Cartierville,45.57849616056338,-73.65591692253521,Ahuntsic-Cartierville
24,Chalet d'accueil du parc-nature du Bois-de-L'Île-Bizard,"2115, chemin du Bord-du-Lac, Montréal",L'Île-Bizard–Sainte-Geneviève,45.5133196,-73.8971675,L'Île-Bizard-Sainte-Geneviève
25,Chalet d'accueil du parc-nature du Cap-Saint-Jacques,"20099, boulevard Gouin Ouest, Montréal",Pierrefonds-Roxboro,45.4610271,-73.9205207,Pierrefonds-Roxboro
26,Chalet du Mont-Royal,"1196 Voie Camillien-Houde, Montréal",Ville-Marie,45.5089096595513,-73.59097514614436,Ville-Marie
27,Chalet du parc Aimé-Caron,"700, rue Muir, Montréal",Saint-Laurent,45.5211834,-73.6713278,Saint-Laurent
28,Chalet du Parc Aimé-Léonard,"4975 Boul. Gouin E, Montréal",Montréal-Nord,,,
29,Chalet du parc Alexander,"14899, rue Oakwood, Montréal",Pierrefonds-Roxboro,45.47494590931249,-73.8558238070867,Pierrefonds-Roxboro
30,Chalet du parc Alexis-Nihon,"2999, rue Badeaux, Montréal",Saint-Laurent,45.4972255,-73.6894491,Saint-Laurent
31,Chalet du parc Anderson,"Rue Fox, Montréal",Pierrefonds-Roxboro,45.4996277,-73.8463559,Pierrefonds-Roxboro
32,Chalet du parc André-Laurendeau,"8361, avenue André-Laurendeau, Montréal",Anjou,45.6043808,-73.571237,Anjou
33,Chalet du parc Armand-Bombardier,"12535, boulevard Armand-Bombardier, Montréal",Rivière-des-Prairies–Pointe-aux-Trembles,45.6330871,-73.5913113,Rivière-des-Prairies-Pointe-aux-Trembles
34,Chalet du parc Arthur-Therrien,"3750, boulevard Gaétan-Laberge, Montréal",Verdun,45.4647823,-73.5627,Verdun
35,Chalet du parc Baldwin,"4355 Fullum, Montréal",Le Plateau-Mont-Royal,45.5365886,-73.5680103,Le Plateau-Mont-Royal
36,Chalet du parc Beaubien,"6633, 6e Avenue, Montréal",Rosemont–La Petite-Patrie,45.5534327,-73.5922784,Rosemont-La Petite-Patrie
37,Chalet du parc Beaubien - Outremont,"461, chemin de la Côte-Sainte-Catherine, Montréal",Outremont,45.51489,-73.6085193,Outremont
38,Chalet du parc Beauclerk,"1855, avenue Émile-Legrand, Montréal",Mercier–Hochelaga-Maisonneuve,45.5811828,-73.5217204,Mercier-Hochelaga-Maisonneuve
39,Chalet du parc Beaulac,"1145, rue Elizabeth, Montréal",Saint-Laurent,45.5194452,-73.6786465,Saint-Laurent
40,Chalet du parc Benny,"Avenue Benny, Montréal",Côte-des-Neiges–Notre-Dame-de-Grâce,45.4671762,-73.6319912,Côte-des-Neiges-Notre-Dame-de-Grâce
41,Chalet du parc Beurling,"6001, rue Beurling, Montréal",Verdun,45.4480795,-73.5838389,Verdun
42,Chalet du parc Bourbonnière,"2800, rue Cazeneuve, Montréal",Saint-Laurent,45.5026938,-73.7024685,Saint-Laurent
43,Chalet du parc Campbell-Ouest,"1990, rue de Maricourt, Montréal",Le Sud-Ouest,45.45817415437506,-73.59135712854328,Le Sud-Ouest
44,Chalet du parc Carignan,"4100, rue Provost, Montréal",Lachine,45.4420053,-73.7010692,Lachine
45,Chalet du parc Chamberland,"800, rue Dorais, Montréal",Saint-Laurent,45.5037241,-73.6901641,Saint-Laurent
46,Chalet du parc Champdoré,"2400, rue Champdoré, Montréal",Villeray–Saint-Michel–Parc-Extension,45.5757428,-73.6314602,Villeray-Saint-Michel-Parc-Extension
47,Chalet du parc Charles-S.-Campbell,"1250-1296, rue De Champlain, Montréal",Ville-Marie,,,
48,Chalet du parc Chénier,"5555, avenue de l'Aréna, Montréal",Anjou,45.6027258,-73.5438688,Anjou
49,Chalet du parc Clémentine-De La Rousselière,"14080, rue Notre-Dame Est, Montréal",Rivière-des-Prairies–Pointe-aux-Trembles,45.5858544,-73.5078805,Mercier-Hochelaga-Maisonneuve
50,Chalet du parc Coffee,"7330, rue Coffee, Montréal",Côte-des-Neiges–Notre-Dame-de-Grâce,45.4559311,-73.6390711,Côte-des-Neiges-Notre-Dame-de-Grâce
51,Chalet du parc Cousineau,"1740, avenue O'Brien, Montréal",Saint-Laurent,45.5208944,-73.6889195,Saint-Laurent
52,Chalet du parc Dalbé-Viau,"Rue Esther-Blondin et rue Duff Court, Montréal",Lachine,,,
53,Chalet du parc Daniel-Johnson,"1500, boulevard du Tricentenaire, Montréal",Rivière-des-Prairies–Pointe-aux-Trembles,45.6499733,-73.4927775,Rivière-des-Prairies-Pointe-aux-Trembles
54,Chalet du parc de Dieppe,"34, avenue Pierre-Dupuy, Montréal",Ville-Marie,45.5078761,-73.5291631,Ville-Marie
55,Chalet du parc de l'école secondaire de la Pointe-aux-Trembles,"15180, rue Sherbrooke Est, Montréal",Rivière-des-Prairies–Pointe-aux-Trembles,45.5531551,-73.5548571,Rosemont-La Petite-Patrie
56,Chalet du parc de l'Ukraine,"6043, 12e Avenue, Montréal",Rosemont–La Petite-Patrie,45.4258953,-73.6026479,LaSalle
57,Chalet du parc de la Cité-Jardin,"5222, boulevard Rosemont, Montréal",Rosemont–La Petite-Patrie,45.5721987,-73.563388,Rosemont-La Petite-Patrie
58,Chalet du parc de la Confédération,"6262 Avenue Fielding, Montréal",Côte-des-Neiges–Notre-Dame-de-Grâce,45.47233625,-73.63944554731941,Côte-des-Neiges-Notre-Dame-de-Grâce
59,Chalet du parc de la Louisiane,"4644, rue Beaubien Est, Montréal",Rosemont–La Petite-Patrie,45.5688992,-73.5740666,Rosemont-La Petite-Patrie
60,Chalet du parc de la Promenade-Bellerive,"8 300, rue Bellerive, Montréal",Mercier–Hochelaga-Maisonneuve,45.5961388,-73.510002,Mercier-Hochelaga-Maisonneuve
61,Chalet du parc de la Reine-Élisabeth,"rue Penniston, Montréal",Verdun,45.4395481,-73.5916701,Verdun
62,Chalet du parc de la Rive-Boisée,"307, chemin de la Rive-Boisée, Montréal",Pierrefonds-Roxboro,45.49702522643161,-73.85212605765484,Pierrefonds-Roxboro
63,Chalet du parc de la Savane et Centre communautaire,"5111, rue Paré, Montréal",Côte-des-Neiges–Notre-Dame-de-Grâce,45.4857537,-73.6743386,Côte-des-Neiges-Notre-Dame-de-Grâce
64,Chalet du parc De La Vérendrye,"5900, rue Drake, Montréal",Le Sud-Ouest,45.4589717,-73.5815697,Le Sud-Ouest
65,Chalet du parc de Louisbourg,"5455, rue de Louisbourg, Montréal",Ahuntsic-Cartierville,45.5289435,-73.7059696,Ahuntsic-Cartierville
66,Chalet du parc De Normanville,"7480, rue De Normanville, Montréal",Villeray–Saint-Michel–Parc-Extension,45.54552837311828,-73.61457552365592,Villeray-Saint-Michel-Parc-Extension
67,Chalet du parc de Peterborough,"8400, boulevard de Châteauneuf, Montréal",Anjou,45.6114756,-73.5556838,Anjou
68,Chalet du parc de Roxboro,"10, 11e Rue, Montréal",Pierrefonds-Roxboro,45.5051794,-73.8030817,Pierrefonds-Roxboro
69,Chalet du parc de Sienne,"4151, 53e Rue, Montréal",Villeray–Saint-Michel–Parc-Extension,45.5821863,-73.6261744,Villeray-Saint-Michel-Parc-Extension
70,Chalet du parc de Spalding,"7901, avenue Spalding, Montréal",Anjou,45.6024592,-73.5523232,Anjou
71,Chalet du parc de Talcy,"8151, avenue de Talcy, Montréal",Anjou,45.6090245,-73.558751,Anjou
72,Chalet du parc de Turin,"7205, rue Chambord, Montréal",Villeray–Saint-Michel–Parc-Extension,45.5447748,-73.6101543,Villeray-Saint-Michel-Parc-Extension
73,Chalet du parc de Verdelles,"8441, place de Verdelles, Montréal",Anjou,45.6079549,-73.5493924,Anjou
74,Chalet du parc de Versailles,"13207, rue Desjardins, Montréal",Pierrefonds-Roxboro,45.5118201,-73.8473676,Pierrefonds-Roxboro
75,Chalet du parc Decelles,"845, rue Roy, Montréal",Saint-Laurent,45.5141086,-73.6786261,Saint-Laurent
76,Chalet du parc des Anciens-Combattants,"155, rue Rose , Montréal",Pierrefonds-Roxboro,45.5087595,-73.7833349,Pierrefonds-Roxboro
77,Chalet du parc des Roseraies,"7070, avenue de la Nantaise, Montréal",Anjou,45.5933175,-73.5560569,Anjou
78,Chalet du parc des Vétérans,"1655, avenue Papineau, Montréal",Ville-Marie,45.52390952105263,-73.55495934035088,Ville-Marie
79,Chalet du parc Dixie,"695, 54e Avenue, Montréal",Lachine,45.44348,-73.7180735,Lachine
80,Chalet du parc Dollard-Morin,"11750, rue La Valinière, Montréal",Rivière-des-Prairies–Pointe-aux-Trembles,45.6278549,-73.5927167,Rivière-des-Prairies-Pointe-aux-Trembles
81,Chalet du parc du Bocage,"Avenue du Bocage, Montréal",Anjou,45.5926019,-73.5509567,Anjou
82,Chalet du parc du Bois-Franc,"2145, rue du Chinook, Montréal",Saint-Laurent,45.5146427,-73.7131242,Saint-Laurent
83,Chalet du parc du Pélican,"2590, rue Masson, Montréal",Rosemont–La Petite-Patrie,45.5451252,-73.5765343,Rosemont-La Petite-Patrie
84,Chalet du parc du Père-Marquette,"1555, rue des Carrières, Montréal",Rosemont–La Petite-Patrie,45.5386165,-73.5885782,Rosemont-La Petite-Patrie
85,Chalet du parc Étienne-Desmarteau,"rue Beaubien Est, Montréal",Rosemont–La Petite-Patrie,45.5357782,-73.6033946,Rosemont-La Petite-Patrie
86,Chalet du parc Eugène-Dostie - Pavillon Vincent-Lecavalier,"488, montée de l'Église, Montréal",L'Île-Bizard–Sainte-Geneviève,45.48939010218377,-73.88264818829383,L'Île-Bizard-Sainte-Geneviève
87,Chalet du parc François-Perrault,"7525, rue François-Perrault, Montréal",Villeray–Saint-Michel–Parc-Extension,45.5624595,-73.60057385,Villeray-Saint-Michel-Parc-Extension
88,Chalet du parc Gary-Longhi,"7645, 20e Avenue, Montréal",Villeray–Saint-Michel–Parc-Extension,45.56787085,-73.59904185721797,Villeray-Saint-Michel-Parc-Extension
89,Chalet du parc George-Springate,"4788, rue Richmond, Montréal",Pierrefonds-Roxboro,45.4920195,-73.843509,Pierrefonds-Roxboro
90,Chalet du parc Georges-Saint-Pierre,"999, avenue Oxford, Montréal",Côte-des-Neiges–Notre-Dame-de-Grâce,45.4685681,-73.6079398,Côte-des-Neiges-Notre-Dame-de-Grâce
91,Chalet du parc Gohier,"730, rue Buchanan, Montréal",Saint-Laurent,45.5090109,-73.6814752,Saint-Laurent
92,Chalet du parc Hans-Selye,"7521, Avenue André-Ampère, Montréal",Rivière-des-Prairies–Pointe-aux-Trembles,45.6309811629452,-73.60113247017148,Rivière-des-Prairies-Pointe-aux-Trembles
93,Chalet du parc Hartenstein,"1505, rue Cardinal, Montréal",Saint-Laurent,45.5160559,-73.6900114,Saint-Laurent
94,Chalet du parc Houde,"378, rue Gratton, Montréal",Saint-Laurent,45.4816734,-73.8608947,Pierrefonds-Roxboro
95,Chalet du parc Howard,"8505, avenue De L'Épée, Montréal",Villeray–Saint-Michel–Parc-Extension,45.533273,-73.641962,Villeray-Saint-Michel-Parc-Extension
96,Chalet du parc Ignace-Bourget,"5925, avenue de Montmagny, Montréal",Le Sud-Ouest,45.4579503,-73.6042162,Le Sud-Ouest
97,Chalet du parc Jarry,"Rue Jarry Ouest, Montréal",Villeray–Saint-Michel–Parc-Extension,45.537985,-73.6317961,Villeray-Saint-Michel-Parc-Extension
98,Chalet du parc Jean-Brillant - Côte-des-Neiges–Notre-Dame-de-Grâce,"5252, avenue Decelles, Montréal",Côte-des-Neiges–Notre-Dame-de-Grâce,45.5016065,-73.6275705,Côte-des-Neiges-Notre-Dame-de-Grâce
99,Chalet du parc Jeanne-Mance,"4422, avenue de l'Esplanade, Montréal",Le Plateau-Mont-Royal,45.5177321,-73.58681530000001,Le Plateau-Mont-Royal
100,Chalet du parc John F.-Kennedy,"Avenue Outremont, Montréal",Outremont,45.517565,-73.6057208,Outremont
101,Chalet du parc Jonathan-Wilson,"3245, boulevard Chèvremont, Montréal",L'Île-Bizard–Sainte-Geneviève,45.5057311,-73.8629112,L'Île-Bizard-Sainte-Geneviève
102,Chalet du parc Joseph-Paré,"43e Avenue, Montréal",Rosemont–La Petite-Patrie,45.4183222,-73.6191356,LaSalle
103,Chalet du parc Joyce,"650, avenue Rockland, Montréal",Outremont,45.515283971428566,-73.61437147142857,Outremont
104,Chalet du parc Kirkland,"123, rue Léo-Pétrin, Montréal",Lachine,45.4466295,-73.6479952,Lachine
105,Chalet du parc Lacordaire,"11160, boulevard Lacordaire, Montréal",Montréal-Nord,45.6041001,-73.6174649,Montréal-Nord
106,Chalet du parc Lafond,"3500, avenue Laurier Est, Montréal",Rosemont–La Petite-Patrie,45.5521213,-73.5699362,Rosemont-La Petite-Patrie
107,Chalet du parc LaSalle,"801, rue Saint-Antoine, Montréal",Lachine,45.4397027,-73.697109,Lachine
108,Chalet du parc Le Carignan,"11481, avenue P.-M.-Favier, Montréal",Montréal-Nord,45.6093388,-73.6157397,Montréal-Nord
109,Chalet du parc Léon-Provancher,"5576, boulevard Pie-IX, Montréal",Rosemont–La Petite-Patrie,45.55971555058823,-73.57104541058824,Rosemont-La Petite-Patrie
110,Chalet du parc Louis-Cyr,"167, rue Saint-Ferdinand, Montréal",Le Sud-Ouest,45.4753259,-73.5828076,Le Sud-Ouest
111,Chalet du parc Louise-Deschênes,"5, 3e Rue, Montréal",Pierrefonds-Roxboro,45.5148461,-73.8136017,Pierrefonds-Roxboro
112,Chalet du parc Loyola,"4877, avenue Doherty, Montréal",Côte-des-Neiges–Notre-Dame-de-Grâce,45.4610545,-73.6479012,Côte-des-Neiges-Notre-Dame-de-Grâce
113,Chalet du parc Lucie-Bruneau,"7051, avenue de l'Alsace, Montréal",Anjou,45.6036608,-73.5825274,Anjou
114,Chalet du parc Macdonald,"5335, avenue Clanranald, Montréal",Côte-des-Neiges–Notre-Dame-de-Grâce,45.48385145,-73.63618654999999,Côte-des-Neiges-Notre-Dame-de-Grâce
115,Chalet du parc Mackenzie-King,"4907, avenue Saint-Kevin, Montréal",Côte-des-Neiges–Notre-Dame-de-Grâce,45.48965415,-73.63292629320819,Côte-des-Neiges-Notre-Dame-de-Grâce
116,Chalet du parc Maisonneuve,"4365, rue Sherbrooke Est, Montréal",Rosemont–La Petite-Patrie,45.55896664478707,-73.55464972797775,Rosemont-La Petite-Patrie
117,Chalet du parc Marcel-Laurin,"2345, boulevard Thimens, Montréal",Saint-Laurent,45.5079871,-73.70119532827582,Saint-Laurent
118,Chalet du parc Marie-Claire-Daveluy,"12180, avenue Jean-Yves-Bigras, Montréal",Rivière-des-Prairies–Pointe-aux-Trembles,45.6490698,-73.5684006,Rivière-des-Prairies-Pointe-aux-Trembles
119,Chalet du parc Marlborough,"2305, rue Beauzèle, Montréal",Saint-Laurent,45.5223451,-73.719727,Saint-Laurent
120,Chalet du parc Martin-Luther-King,"avenue de Kent, Montréal",Côte-des-Neiges–Notre-Dame-de-Grâce,45.5032817,-73.6313952,Côte-des-Neiges-Notre-Dame-de-Grâce
121,Chalet du parc Maurice-Cullen,"4770, chemin Circle, Montréal",Côte-des-Neiges–Notre-Dame-de-Grâce,45.4834934,-73.6200331,Côte-des-Neiges-Notre-Dame-de-Grâce
122,Chalet du parc Ménard - Montréal-Nord,"3781, place Ménard, Montréal",Montréal-Nord,45.5869715,-73.6397725,Montréal-Nord
123,Chalet du parc Montcalm - Rosemont–La Petite-Patrie,"6855 avenue Papineau, Montréal",Rosemont–La Petite-Patrie,45.5458499125,-73.60209781249999,Rosemont-La Petite-Patrie
124,Chalet du parc Monty,"12357, avenue Monty, Montréal",Montréal-Nord,45.620836807317076,-73.62039041951219,Montréal-Nord
125,Chalet du parc Nicolas-Tillemont,"7833, avenue des Érables, Montréal",Villeray–Saint-Michel–Parc-Extension,45.5540231,-73.6115754,Villeray-Saint-Michel-Parc-Extension
126,Chalet du parc Noël-Nord,"2900, rue Baker, Montréal",Saint-Laurent,45.518006,-73.7285795,Saint-Laurent
127,Chalet du parc Noël-Sud,"302, rue Biret, Montréal",Saint-Laurent,45.5144834,-73.7270792,Saint-Laurent
128,Chalet du parc Oscar,"10660, boulevard Saint-Michel, Montréal",Montréal-Nord,45.58202938,-73.64763232,Montréal-Nord
129,Chalet du parc Oscar-Peterson,"810, rue Chatham, Montréal",Le Sud-Ouest,45.4894614,-73.575003,Le Sud-Ouest
130,Chalet du parc Ottawa,"10400, avenue de Belleville, Montréal",Montréal-Nord,45.581939399999996,-73.64229353880937,Montréal-Nord
131,Chalet du parc Outremont,"1172, avenue Saint-Viateur, Montréal",Outremont,45.5194013,-73.6047222,Outremont
132,Chalet du parc Painter,"260, rue Marcotte, Montréal",Saint-Laurent,45.5286235,-73.6774723,Saint-Laurent
133,Chalet du parc Pasquale-Gattuso,"11770, place Gilles-Trottier, Montréal",Rivière-des-Prairies–Pointe-aux-Trembles,45.6367066,-73.5754161,Rivière-des-Prairies-Pointe-aux-Trembles
134,Chalet du parc Percy-Walters,"40, avenue McGregor, Montréal",Ville-Marie,45.4990405,-73.5851904,Ville-Marie
135,Chalet du parc Petit,"1600, rue Poirier, Montréal",Saint-Laurent,45.5201621,-73.6960403,Saint-Laurent
136,Chalet du parc Philippe-Laheurte,"3035, avenue Ernest-Hemingway, Montréal",Saint-Laurent,45.50734442727273,-73.7167622090909,Saint-Laurent
137,Chalet du parc Pierre-Blanchet,"12279, avenue Pierre-Blanchet, Montréal",Rivière-des-Prairies–Pointe-aux-Trembles,45.6299064,-73.6066391,Rivière-des-Prairies-Pointe-aux-Trembles
138,Chalet du parc Pilon,"11135, avenue des Récollets, Montréal",Montréal-Nord,45.5924882,-73.6421731,Montréal-Nord
139,Chalet du parc Poirier,"900, rue Trudeau, Montréal",Saint-Laurent,45.5140984,-73.6632797,Saint-Laurent
140,Chalet du parc Pratt,"1801, avenue Lajoie, Montréal",Outremont,45.5136505,-73.6171757,Outremont
141,Chalet du parc Raymond-Préfontaine,"3150, rue Hochelaga, Montréal",Mercier–Hochelaga-Maisonneuve,45.5908213,-73.5258067,Mercier-Hochelaga-Maisonneuve
142,Chalet du parc René-Goupil,"8670, 25e Avenue, Montréal",Villeray–Saint-Michel–Parc-Extension,45.577649066666666,-73.61138724999999,Villeray-Saint-Michel-Parc-Extension
143,Chalet du parc René-Masson,"9175, boulevard Perras, Montréal",Rivière-des-Prairies–Pointe-aux-Trembles,45.6515845,-73.57788754596211,Rivière-des-Prairies-Pointe-aux-Trembles
144,Chalet du parc Richelieu,"1979, 40e Avenue, Montréal",Rivière-des-Prairies–Pointe-aux-Trembles,45.4401948,-73.7010249,Lachine
145,Chalet du parc Riverdale," 5060, boulevard des Sources, Montréal",Pierrefonds-Roxboro,45.509288600000005,-73.82409330949113,Pierrefonds-Roxboro
146,Chalet du parc Roger-Rousseau,"7501, avenue Rondeau, Montréal",Anjou,45.6159526,-73.550939,Anjou
147,Chalet du parc Rosemary-Brown,"6665, avenue McLynn, Montréal",Côte-des-Neiges–Notre-Dame-de-Grâce,45.4898948,-73.64798625,Côte-des-Neiges-Notre-Dame-de-Grâce
148,Chalet du parc Rosemont,"5625, rue D'Iberville, Montréal",Rosemont–La Petite-Patrie,45.5443941,-73.5810989,Rosemont-La Petite-Patrie
149,Chalet du parc Sabrevois,"10110, avenue des Récollets, Montréal",Montréal-Nord,45.5834125,-73.6327977,Montréal-Nord
150,Chalet du parc Saint-Gabriel,"2355, rue Mullins, Montréal",Le Sud-Ouest,45.4782704,-73.565019,Le Sud-Ouest
151,Chalet du parc Saint-Jean-Baptiste,"1050, boulevard Saint-Jean-Baptiste, Montréal",Rivière-des-Prairies–Pointe-aux-Trembles,45.6414302,-73.50012858333334,Rivière-des-Prairies-Pointe-aux-Trembles
152,Chalet du parc Saint-Joseph,"9909, 68e Avenue, Montréal",Rivière-des-Prairies–Pointe-aux-Trembles,45.4185917,-73.6273674,LaSalle
153,Chalet du parc Saint-Laurent,"11614, avenue Salk, Montréal",Montréal-Nord,45.6064452,-73.6290272,Montréal-Nord
154,Chalet du parc Saint-Laurent - Arr. Saint-Laurent,"Rue Poirier, Montréal",Saint-Laurent,45.5187344,-73.6983366,Saint-Laurent
155,Chalet du parc Saint-Viateur,"530, avenue Querbes, Montréal",Outremont,45.52100166,-73.60600112,Outremont
156,Chalet du parc Saint-Victor,"9175, rue Hochelaga, Montréal",Mercier–Hochelaga-Maisonneuve,45.6071275,-73.5169242,Mercier-Hochelaga-Maisonneuve
157,Chalet du parc Sainte-Bernadette,"6825, 16e Avenue, Montréal",Rosemont–La Petite-Patrie,45.5602763,-73.5885682,Rosemont-La Petite-Patrie
158,Chalet du parc Sainte-Lucie,"9093, 16e Avenue, Montréal",Villeray–Saint-Michel–Parc-Extension,45.5745474,-73.6250635,Villeray-Saint-Michel-Parc-Extension
159,Chalet du parc Sainte-Yvette,"8950, 10e avenue, Montréal",Villeray–Saint-Michel–Parc-Extension,45.5697428,-73.6252584,Villeray-Saint-Michel-Parc-Extension
160,Chalet du parc Samuel-Morse,"12100, avenue François-Larocque, Montréal",Rivière-des-Prairies–Pointe-aux-Trembles,45.6391293,-73.5842651,Rivière-des-Prairies-Pointe-aux-Trembles
161,Chalet du parc Sauvé,"11440, avenue Éthier, Montréal",Montréal-Nord,45.5997791,-73.6354184,Montréal-Nord
162,Chalet du parc Sir-Wilfrid-Laurier,"1115, avenue Laurier Est, Montréal",Le Plateau-Mont-Royal,45.5311632,-73.5860164,Le Plateau-Mont-Royal
163,Chalet du parc Tardif,"6455, rue Tardif, Montréal",Montréal-Nord,45.61777,-73.6158266,Montréal-Nord
164,Chalet du parc Thorndale,"Rue Thorndale, Montréal",Pierrefonds-Roxboro,45.4737612,-73.8605234,Pierrefonds-Roxboro
165,Chalet du parc Toussaint-Louverture,"127, boulevard De Maisonneuve Est, Montréal",Ville-Marie,45.5160877,-73.5603048,Ville-Marie
166,Chalet du parc Van Horne,"4900, avenue Van Horne, Montréal",Côte-des-Neiges–Notre-Dame-de-Grâce,45.5123446,-73.6222659,Côte-des-Neiges-Notre-Dame-de-Grâce
167,Chalet du parc Vinet,"550, rue Vinet, Montréal",Le Sud-Ouest,45.4839162,-73.575239,Le Sud-Ouest
168,Chalet du parc Walter-Stewart,"2455, rue Larivière, Montréal",Ville-Marie,45.5232599,-73.5630054,Ville-Marie
169,Chalet du parc Warren-Allmand (Somerled),"4800, avenue de Hampton, Montréal",Côte-des-Neiges–Notre-Dame-de-Grâce,,,
170,Chalet du parc William-Bowie,"Au coin des rues Field et Patricia, Montréal",Côte-des-Neiges–Notre-Dame-de-Grâce,,,
171,Chalet du parc William-Hurst,"6230, rue de Terrebonne, Montréal",Côte-des-Neiges–Notre-Dame-de-Grâce,45.4703763,-73.6317409,Côte-des-Neiges-Notre-Dame-de-Grâce
172,Chalet du parc Willibrord,"1018, rue Willibrord, Montréal",Verdun,45.4596322,-73.5760723,Verdun
173,Chalet Héritage du parc-nature de la Pointe-aux-Prairies,"14905, rue Sherbrooke Est, Montréal",Rivière-des-Prairies–Pointe-aux-Trembles,45.6825409,-73.5006631,Rivière-des-Prairies-Pointe-aux-Trembles
174,Chalet Jean-Paul II du parc Jarry,"7920, boulevard Saint-Laurent, Montréal",Villeray–Saint-Michel–Parc-Extension,45.537762,-73.62885326640128,Villeray-Saint-Michel-Parc-Extension
175,Château Gohier du parc-nature du Cap-Saint-Jacques,"20099, boulevard Gouin Ouest, Montréal",Pierrefonds-Roxboro,45.4610271,-73.9205207,Pierrefonds-Roxboro
176,Courts de tennis du parc Jeanne-Mance,"4422, avenue de l'Esplanade, Montréal",Le Plateau-Mont-Royal,45.5177321,-73.58681530000001,Le Plateau-Mont-Royal
177,Domaine Saint-Paul,"boulevard de la Forêt, Montréal",Verdun,45.4606315,-73.5516285,Verdun
178,Entrée de ville Bonaventure,"Rue Nazareth, Montréal",Ville-Marie,45.4949878,-73.5541203,Ville-Marie
179,Espace Boyer,"Rue Boyer, Montréal",Rosemont–La Petite-Patrie,45.5341607,-73.5957816,Rosemont-La Petite-Patrie
180,Espace Faubourg Québec,"12, rue de la Porte-de-Québec, Montréal",Ville-Marie,,,
181,Espace Parthenais-Larivière,"Rue Parthenais, Montréal",Ville-Marie,45.5722228,-73.6492882,Ahuntsic-Cartierville
182,Espace Pierre-Bourgault,"Rue Plessis, Montréal",Ville-Marie,45.5218296,-73.5571127,Ville-Marie
183,Esplanade Tranquille,"Rue Clark, Montréal",Ville-Marie,45.5164504,-73.5799557,Le Plateau-Mont-Royal
184,Ferme écologique du parc-nature du Cap-Saint-Jacques,"183, chemin Cap-Saint-Jacques, Montréal",Pierrefonds-Roxboro,45.471663449999994,-73.93546129954127,Pierrefonds-Roxboro
185,Grande passerelle du parc-nature du Bois-de-L'Île-Bizard,"2115 chemin du Bord-du-Lac, Montréal",L'Île-Bizard–Sainte-Geneviève,45.5133196,-73.8971675,L'Île-Bizard-Sainte-Geneviève
186,Île de Roxboro,"2115 chemin du Bord-du-Lac, Montréal",Pierrefonds-Roxboro,45.5133196,-73.8971675,L'Île-Bizard-Sainte-Geneviève
187,Jardin botanique de Montréal,"4101, rue Sherbrooke Est, Montréal",Rosemont–La Petite-Patrie,45.5564364,-73.5546338,Rosemont-La Petite-Patrie
188,Jardin communautaire Ahuntsic,"10374, rue Sackville, Montréal",Ahuntsic-Cartierville,45.5782347,-73.6489576,Ahuntsic-Cartierville
189,Jardin communautaire Arc-en-sol,"Rue Arcand, Montréal",Mercier–Hochelaga-Maisonneuve,45.5832299,-73.5353272,Mercier-Hochelaga-Maisonneuve
190,Jardin communautaire Arthur-Péloquin,"8115, rue Arthur-Péloquin, Montréal",Saint-Léonard,45.5801069,-73.6017877,Saint-Léonard
191,Jardin communautaire Babylone,"Avenue Ball, Montréal",Villeray–Saint-Michel–Parc-Extension,45.5273115,-73.6343939,Villeray-Saint-Michel-Parc-Extension
192,Jardin communautaire BP Tétreaultville,"Rue Aubry et rue de Marseille, Montréal",Mercier–Hochelaga-Maisonneuve,,,
193,Jardin communautaire Cabrini-annexe,"Rue Cabrini et boulevard Rosemont, Montréal",Mercier–Hochelaga-Maisonneuve,,,
194,Jardin communautaire Cardinal,"Rue Cardinal et rue Tassé, Montréal",Saint-Laurent,,,
195,Jardin communautaire Centre-Sud,"Rue Alexandre-DeSève et rue La Fontaine, Montréal",Ville-Marie,,,
196,Jardin communautaire Champdoré,"9400, avenue Charton, Montréal",Villeray–Saint-Michel–Parc-Extension,45.5682724,-73.6496553,Ahuntsic-Cartierville
197,Jardin communautaire Châteaufort,"Avenue Van Horne et avenue de Darlington, Montréal",Côte-des-Neiges–Notre-Dame-de-Grâce,,,
198,Jardin communautaire Christ-Roi,"Rue Frémont, Montréal",Ahuntsic-Cartierville,45.5518803,-73.6525454,Ahuntsic-Cartierville
199,Jardin communautaire Clément-Jetté Nord,"549 Rue Joffre, Montréal",Mercier–Hochelaga-Maisonneuve,45.6012048,-73.5136025,Mercier-Hochelaga-Maisonneuve
200,Jardin communautaire Couture,"4855, boulevard Couture, Montréal",Saint-Léonard,45.6015516,-73.6041167,Saint-Léonard
201,Jardin communautaire de la Savane,"Avenue Mountain Sights, Montréal",Côte-des-Neiges–Notre-Dame-de-Grâce,45.4878901,-73.634918,Côte-des-Neiges-Notre-Dame-de-Grâce
202,Jardin communautaire de Lille,"9400, avenue Bruchésie, Montréal",Villeray–Saint-Michel–Parc-Extension,,,
203,Jardin communautaire De Lorimier,"Rue Gilford et avenue De Lorimier, Montréal",Le Plateau-Mont-Royal,,,
204,Jardin communautaire De Normanville,"7955, rue De Normanville, Montréal",Villeray–Saint-Michel–Parc-Extension,45.5491605,-73.6227332,Villeray-Saint-Michel-Parc-Extension
205,Jardin communautaire des 50 citoyens,"Rue Alexandre-DeSève entre rue la Fontaine et rue Ontario E., Montréal",Ville-Marie,,,
206,Jardin communautaire des Belles-Roses,"89e Avenue et boulevard Gouin Est, Montréal",Rivière-des-Prairies–Pointe-aux-Trembles,,,
207,Jardin communautaire des Habitations Jeanne-Mance,"Boulevard De Maisonneuve Est, Montréal",Ville-Marie,45.5154393,-73.5609652,Ville-Marie
208,Jardin communautaire des Seigneurs,"Rue des Seigneurs et rue Saint-Jacques, Montréal",Le Sud-Ouest,,,
209,Jardin communautaire Deschamps,"Rue Deschamps, près de la rue De Salaberry, Montréal",Ahuntsic-Cartierville,,,
210,Jardin communautaire du parc Adrien-D.-Archambault,"Boulevard de la Forêt, Montréal",Verdun,45.4606315,-73.5516285,Verdun
211,Jardin communautaire du parc Alexis-Nihon,"2999, rue Badeaux, Montréal",Saint-Laurent,45.4972255,-73.6894491,Saint-Laurent
212,Jardin communautaire du parc André Laurendeau,"8361, avenue André-Laurendeau, Montréal",Anjou,45.6043808,-73.571237,Anjou
213,Jardin communautaire du parc Angrignon,"Boulevard des Trinitaires et rue Lacroix, Montréal",Le Sud-Ouest,,,
214,Jardin communautaire du parc Baldwin,"Rue Fullum, Montréal",Le Plateau-Mont-Royal,45.5263356,-73.5459243,Ville-Marie
215,Jardin communautaire du parc Bourbonnière,"2800, rue Cazeneuve, Montréal",Saint-Laurent,45.5026938,-73.7024685,Saint-Laurent
216,Jardin communautaire du parc de Spalding,"7901, avenue Spalding, Montréal",Anjou,45.6024592,-73.5523232,Anjou
217,Jardin communautaire du parc des Roseraies,"7070, avenue de la Nantaise, Montréal",Anjou,45.5933175,-73.5560569,Anjou
218,Jardin communautaire du parc du Père-Marquette,"Rue de Bellechasse, Montréal",Rosemont–La Petite-Patrie,45.536488,-73.5983082,Rosemont-La Petite-Patrie
219,Jardin communautaire du parc Dupéré,"Rue Saint-Donat et rue de Forbin-Janson, Montréal",Mercier–Hochelaga-Maisonneuve,,,
220,Jardin communautaire du parc Hartenstein,"1505, rue Cardinal, Montréal",Saint-Laurent,45.5160559,-73.6900114,Saint-Laurent
221,Jardin communautaire du parc Lucien-Caron,"Boulevard Gaetan Laberge, Montréal",Verdun,45.4706043,-73.5618401,Verdun
222,Jardin communautaire du parc Noël-Nord,"2900, rue Baker, Montréal",Saint-Laurent,45.518006,-73.7285795,Saint-Laurent
223,Jardin communautaire du parc Oscar,"10660, boulevard Saint-Michel, Montréal",Montréal-Nord,45.58202938,-73.64763232,Montréal-Nord
224,Jardin communautaire du parc Richelieu,"40e Avenue & Rue Forsyth, Montréal",Rivière-des-Prairies–Pointe-aux-Trembles,,,
225,Jardin communautaire du parc Roger-Rousseau,"7501, avenue Rondeau, Montréal",Anjou,45.6159526,-73.550939,Anjou
226,Jardin communautaire du parc Roman-Zytynsky,"1420, rue Quenneville, Montréal",Saint-Laurent,45.5288059,-73.6784261,Saint-Laurent
227,Jardin communautaire du parc Saint-Laurent,"845, rue Poirier, Montréal",Saint-Laurent,45.5264681,-73.6867105,Saint-Laurent
228,Jardin communautaire du parc Tardif,"6455, rue Tardif, Montréal",Montréal-Nord,45.61777,-73.6158266,Montréal-Nord
229,Jardin communautaire du parc Woodland,"Attenant au centre d'hébergement du Manoir-de-Verdun, Montréal",Verdun,,,
230,Jardin communautaire Étienne-Desmarteau,"18e Avenue et rue de Bellechasse, Montréal",Rosemont–La Petite-Patrie,,,
231,Jardin communautaire Faubourg Saint-Laurent,"Rue Saint-Dominique, Montréal",Ville-Marie,45.5373594,-73.6234484,Villeray-Saint-Michel-Parc-Extension
232,Jardin communautaire Georges-Vanier,"Rues Saint-Jacques et Jean-D'Estrées, Montréal",Ville-Marie,,,
233,Jardin communautaire Gérard-Legault,"Rue Dudemaine, près de la rue Michel-Sarrazin, Montréal",Ahuntsic-Cartierville,,,
234,Jardin communautaire Jacques-Charbonneau,"6605 Rue Cabrini, Montréal",Mercier–Hochelaga-Maisonneuve,45.580978,-73.5648764,Mercier-Hochelaga-Maisonneuve
235,Jardin communautaire jardins de l'Institut,"Rue de Marseille et rue du Trianon, Montréal",Mercier–Hochelaga-Maisonneuve,,,
236,Jardin communautaire L'Églantier,"31e Avenue et boulevard Rosemont, Montréal",Rosemont–La Petite-Patrie,,,
237,Jardin communautaire La Mennais,"Rue Beaubien Est et rue Drolet, Montréal",Rosemont–La Petite-Patrie,,,
238,Jardin communautaire Laurier,"12e Avenue, Montréal",Rosemont–La Petite-Patrie,45.4258953,-73.6026479,LaSalle
239,Jardin communautaire Le Goupillier,"Au coin du boulevard Pie-IX et de la rue J-B-Martineau, Montréal",Villeray–Saint-Michel–Parc-Extension,,,
240,Jardin communautaire Le Michelois,"8615, boulevard Saint-Michel, Montréal",Villeray–Saint-Michel–Parc-Extension,45.56802816808511,-73.6187668148936,Villeray-Saint-Michel-Parc-Extension
241,Jardin communautaire Les Arpents Verts,"Rue la Galissonnière, Montréal",Rivière-des-Prairies–Pointe-aux-Trembles,45.6644658,-73.5516141,Rivière-des-Prairies-Pointe-aux-Trembles
242,Jardin communautaire les bons voisins,"Rue Turgeon et rue Sainte-Émilie, Montréal",Le Sud-Ouest,,,
243,Jardin communautaire les petites-pousses,"321, rue des Érables, Montréal",Lachine,45.44394133333333,-73.65270483333333,Lachine
244,Jardin communautaire Maisonneuve,"Avenue Létourneux et rue de Rouen, Montréal",Mercier–Hochelaga-Maisonneuve,,,
245,Jardin communautaire Marcelin-Wilson,"11301, boulevard de l'Acadie, Montréal",Ahuntsic-Cartierville,45.5359993,-73.6842383,Ahuntsic-Cartierville
246,Jardin communautaire Marseille,"Rue Du Quesne et rue de Marseille, Montréal",Mercier–Hochelaga-Maisonneuve,,,
247,Jardin communautaire Médéric-Martin,"Avenue Gascon, entre les rues de Rouen et Ontario Est, Montréal",Ville-Marie,,,
248,Jardin communautaire Mile End,"Avenue Henri-Julien, Montréal",Le Plateau-Mont-Royal,45.5379137,-73.6181735,Villeray-Saint-Michel-Parc-Extension
249,Jardin communautaire Monsabré,"Rue Monsabré et rue de Toulouse, Montréal",Mercier–Hochelaga-Maisonneuve,,,
250,Jardin communautaire Notre-Dame,"Avenue de l'Aréna, Montréal",Anjou,45.6024657,-73.5421911,Anjou
251,Jardin communautaire Notre-Dame-de-Grâce,"Avenue Royal, Montréal",Côte-des-Neiges–Notre-Dame-de-Grâce,45.4688073,-73.6194966,Côte-des-Neiges-Notre-Dame-de-Grâce
252,Jardin communautaire Panet,"Rue Panet, entre les rues La Fontaine et Ontario Est, Montréal",Ville-Marie,,,
253,Jardin communautaire Petite-Bourgogne,"2247 Rue Quesnel, Montréal",Le Sud-Ouest,45.48722004166667,-73.57564402083334,Le Sud-Ouest
254,Jardin communautaire Pierre-Bernard,"Boulevard Pierre-Bernard et rue Bisaillon, Montréal",Mercier–Hochelaga-Maisonneuve,,,
255,Jardin communautaire Pierre-Lacroix,"Rues Lorraine et Parent, Montréal",Rivière-des-Prairies–Pointe-aux-Trembles,,,
256,Jardin communautaire Pierre-Lapointe,"10555, rue Lajeunesse, Montréal",Ahuntsic-Cartierville,45.5543627,-73.664899,Ahuntsic-Cartierville
257,Jardin communautaire Pointe-Verte,"Rue Knox, Montréal",Le Sud-Ouest,45.4767601,-73.5646388,Le Sud-Ouest
258,Jardin communautaire Pré-Carré,"4235, rue Viau, Montréal",Rosemont–La Petite-Patrie,45.5662826,-73.5567852,Rosemont-La Petite-Patrie
259,Jardin communautaire Réal-Gareau,"Rue Sherbrooke et 4e Avenue, Montréal",Lachine,,,
260,Jardin communautaire Remembrance,"Rue Remembrance et 32e Avenue, Montréal",Lachine,,,
261,Jardin communautaire Rencontres,"Avenue Notre-Dame-de-Grâce et rue Botrel, Montréal",Côte-des-Neiges–Notre-Dame-de-Grâce,,,
262,Jardin communautaire Rivard,"Rue Rivard, Montréal",Le Plateau-Mont-Royal,45.5267227,-73.5873734,Le Plateau-Mont-Royal
263,Jardin communautaire Robert-Mitchell,"Rue Crevier, Montréal",Saint-Laurent,45.5158615,-73.6914982,Saint-Laurent
264,Jardin communautaire Rosemont,"30e Avenue et boulevard Rosemont, Montréal",Rosemont–La Petite-Patrie,,,
265,Jardin communautaire Saint-André,"Rue Labrecque, entre les rues Ontario Est et Sherbrooke Est, Montréal",Ville-Marie,,,
266,Jardin communautaire Saint-Eusèbe,"Rues Dufresne et Larivière, Montréal",Ville-Marie,,,
267,Jardin communautaire Saint-Marc,"1ere Avenue, Montréal",Rosemont–La Petite-Patrie,45.4462938,-73.6685695,Lachine
268,Jardin communautaire Saint-Raymond,"Chemin Upper-Lachine et avenue d'Oxford, Montréal",Côte-des-Neiges–Notre-Dame-de-Grâce,,,
269,Jardin communautaire Saint-Sulpice," avenues Émile-Journault et André-Grasset, Montréal",Ahuntsic-Cartierville,,,
270,Jardin communautaire Sainte-Catherine,"Rue Saint-Thimothée, Montréal",Ville-Marie,,,
271,Jardin communautaire Sainte-Maria-Goretti,"94e Avenue et de la terrasse Sainte-Maria-Goretti, Montréal",Rivière-des-Prairies–Pointe-aux-Trembles,,,
272,Jardin communautaire Sainte-Marie,"Rue La Fontaine, entre les rues Fullum et Dufresne, Montréal",Ville-Marie,,,
273,Jardin communautaire Sainte-Marthe,"Boulevard Armand-Bombardier et boulevard Perras, Montréal",Rivière-des-Prairies–Pointe-aux-Trembles,45.6384619,-73.5969446,Rivière-des-Prairies-Pointe-aux-Trembles
274,Jardin communautaire Sault-au-Récollet,"2425, boulevard Gouin Est, près de la rue du Pressoir, Montréal",Ahuntsic-Cartierville,,,
275,Jardin communautaire super jardin,"545, avenue Sainte-Croix, Montréal",Saint-Laurent,45.5126592,-73.6740676,Saint-Laurent
276,Jardin communautaire Versailles,"Rue Saint-Antoine Ouest et rue de Versailles, Montréal",Ville-Marie,,,
277,Jardin communautaire Villeray,"8000, avenue Christophe-Colomb, Montréal",Villeray–Saint-Michel–Parc-Extension,45.5482176,-73.6251365,Villeray-Saint-Michel-Parc-Extension
278,Jardin du Petit Monde à Bicyclette,"3819, avenue Calixa-Lavallée, Montréal",Le Plateau-Mont-Royal,45.5270684,-73.5693956,Le Plateau-Mont-Royal
279,Jardin Marcelle-Gauvreau,"Angle de l'avenue Laurier Est et du boulevard Pie-IX, Montréal",Rosemont–La Petite-Patrie,,,
280,Jardins communautaires Charles-Nagy,"Société d’horticulture de LaSalle, Montréal",LaSalle,,,
281,Jardins communautaires des Rapides,"Société d’horticulture des Rapides, Montréal",LaSalle,,,
282,Jeux d'eau du parc Dollard-Morin,"11750, rue La Valinière, Montréal",Rivière-des-Prairies–Pointe-aux-Trembles,45.6278549,-73.5927167,Rivière-des-Prairies-Pointe-aux-Trembles
283,Le Bouquiniste,"Angle du boulevard Henri-Bourassa Est et de l'avenue Oscar, Montréal","Ahuntsic-Cartierville, Montréal-Nord",,,
284,Le Champ-de-Mars,"Rue Saint-Antoine Eest, Montréal",Ville-Marie,,,
285,Le Parterre,"Rue Clark, Montréal",Ville-Marie,45.5164504,-73.5799557,Le Plateau-Mont-Royal
286,Maison du Meunier du parc-nature de l'Île-de-la-Visitation,"10897, rue du Pont, Montréal",Ahuntsic-Cartierville,45.5751447,-73.66259,Ahuntsic-Cartierville
287,Maison du Pressoir du parc-nature de l'Île-de-la-Visitation,"10865, rue du Pressoir, Montréal",Ahuntsic-Cartierville,45.5757245,-73.6599155,Ahuntsic-Cartierville
288,Maison Pitfield du parc-nature du Bois-de-Liesse,"9432, boulevard Gouin Ouest, Montréal",Pierrefonds-Roxboro,45.5074518,-73.76265,Pierrefonds-Roxboro
289,Maison Smith du parc du Mont-Royal,"1260, chemin Remembrance, Montréal",Ville-Marie,45.5015608,-73.593052,Ville-Marie
290,Mini-parc de la 7e Avenue,"7e Avenue, Montréal",Lachine,45.4297288,-73.5988381,LaSalle
291,Mini-parc de la 8e Avenue,"8e Avenue, Montréal",Lachine,45.4294274,-73.6013452,LaSalle
292,Mini-parc Durocher,"Avenue Durocher, Montréal",Outremont,45.5246151,-73.6119863,Outremont
293,Mini-parc Querbes,"Avenue Querbes, Montréal",Outremont,45.534324,-73.6420185,Villeray-Saint-Michel-Parc-Extension
294,Miniparc Antonino-Spada,"Rue Antonino-Spada, Montréal",Saint-Léonard,45.5907031,-73.616839,Saint-Léonard
295,Miniparc Chopin,"Rue Chopin, Montréal",Saint-Léonard,45.4405308,-73.6311836,LaSalle
296,Miniparc de Ségur,"Rue de Ségur, Montréal",Saint-Léonard,45.5922426,-73.6130071,Saint-Léonard
297,Miniparc Deschambault,"Rue Deschambault, Montréal",Saint-Léonard,45.5947746,-73.6065847,Saint-Léonard
298,Miniparc Giovanni-Caboto,"8995, rue Léonard, Montréal",Saint-Léonard,45.6026795390535,-73.59707385646931,Saint-Léonard
299,Miniparc Glandelet,"Rue Glandelet, Montréal",Saint-Léonard,45.5884781,-73.602676,Saint-Léonard
300,Parc Aubry / De Teck,"3098, rue Aubry, Montréal",Mercier–Hochelaga-Maisonneuve,45.6091483,-73.5227403,Mercier-Hochelaga-Maisonneuve
301,Parc Avila-Vidal,"11565, rue Jean-Massé, Montréal",Ahuntsic-Cartierville,45.5330765,-73.7005523,Ahuntsic-Cartierville
302,Parc Azellus-Denis,"788, rue de Castelnau Est, Montréal",Villeray–Saint-Michel–Parc-Extension,45.5410576,-73.6155187,Villeray-Saint-Michel-Parc-Extension
303,Parc Baldwin,"4355, rue Fullum, Montréal",Le Plateau-Mont-Royal,45.5365886,-73.5680103,Le Plateau-Mont-Royal
304,Parc Basile-Routhier,"10905, rue Basile-Routhier, Montréal",Ahuntsic-Cartierville,45.5574804,-73.6726728,Ahuntsic-Cartierville
305,Parc Bastien-Lavigne,"Entre les rues Bastien et Lavigne, Montréal",L'Île-Bizard–Sainte-Geneviève,,,
306,Parc Beatty,"5650, boulevard LaSalle, Montréal",Verdun,45.450513,-73.5680188,Verdun
307,Parc Beaubien,"6633, 6e Avenue, Montréal",Rosemont–La Petite-Patrie,45.5534327,-73.5922784,Rosemont-La Petite-Patrie
308,Parc Beaubien - Outremont,"461, chemin de la Côte-Sainte-Catherine, Montréal",Outremont,45.51489,-73.6085193,Outremont
309,Parc Beauclerk,"1855, avenue Émile-Legrand, Montréal",Mercier–Hochelaga-Maisonneuve,45.5811828,-73.5217204,Mercier-Hochelaga-Maisonneuve
310,Parc Beaudet,"650, boulevard Décarie, Montréal",Saint-Laurent,45.480482,-73.6214843,Côte-des-Neiges-Notre-Dame-de-Grâce
311,Parc Beaulac,"1145, rue Elizabeth, Montréal",Saint-Laurent,45.5194452,-73.6786465,Saint-Laurent
312,Parc Beaumont-De-L'Épée,"555, avenue Beaumont, Montréal",Villeray–Saint-Michel–Parc-Extension,45.5273067,-73.6197794,Villeray-Saint-Michel-Parc-Extension
313,Parc Beausoleil,"Rue Beausoleil/rue Beaudoin, Montréal",Rivière-des-Prairies–Pointe-aux-Trembles,,,
314,Parc Bélair,"7035 2e Avenue, Montréal",Villeray–Saint-Michel–Parc-Extension,45.5543947,-73.5967734,Villeray-Saint-Michel-Parc-Extension
315,Parc Bélanger,"Sur la rue Cardinal, au nord du boulevard de la Côte-Vertu, Montréal",Saint-Laurent,,,
316,Parc Bélanger / De Chateaubriand,"542, rue Bélanger, Montréal",Rosemont–La Petite-Patrie,45.5384031,-73.6106386,Rosemont-La Petite-Patrie
317,Parc Belmont,"12624, rue Odette-Oligny, Montréal",Ahuntsic-Cartierville,45.53233663528002,-73.72544297989602,Ahuntsic-Cartierville
318,Parc Benny,"Avenue Benny, Montréal",Côte-des-Neiges–Notre-Dame-de-Grâce,45.4671762,-73.6319912,Côte-des-Neiges-Notre-Dame-de-Grâce
319,Parc Berri-Saint-Joseph,"Angle Berri et Saint-Joseph, Montréal",Le Plateau-Mont-Royal,,,
320,Parc Berthe-Louard,"9355, avenue De Galinée, Montréal",Ahuntsic-Cartierville,45.55944715,-73.64289697830372,Ahuntsic-Cartierville
321,Parc Berthier,"Rue Berthier, Montréal",Ville-Marie,45.5228225,-73.5622464,Ville-Marie
322,Parc Beurling,"6001, rue Beurling, Montréal",Verdun,45.4480795,-73.5838389,Verdun
323,Parc Bibeau,"Rue Bibeau, Montréal",Pierrefonds-Roxboro,45.4653262,-73.8858923,Pierrefonds-Roxboro
324,Parc Birnam,"Rue Birnam, Montréal",Villeray–Saint-Michel–Parc-Extension,45.52821,-73.6375336,Villeray-Saint-Michel-Parc-Extension
325,Parc Blaise-Closse,"Place Blaise, Montréal",L'Île-Bizard–Sainte-Geneviève,45.49426484999999,-73.87328316016173,L'Île-Bizard-Sainte-Geneviève
326,Parc Blanche-Lamontagne,"Avenue Casgrain, Montréal",Villeray–Saint-Michel–Parc-Extension,45.5268231,-73.597239,Le Plateau-Mont-Royal
327,Parc Bloomfield,"7060 avenue Bloomfield, Montréal",Villeray–Saint-Michel–Parc-Extension,45.5272335,-73.6238956,Villeray-Saint-Michel-Parc-Extension
328,Parc Boivin,"Angle des rues de Matane et de Cabano, Montréal",LaSalle,,,
329,Parc Bossuet,"Rue Bossuet, Montréal",Mercier–Hochelaga-Maisonneuve,45.5726601,-73.5362113,Mercier-Hochelaga-Maisonneuve
330,Parc Bourbonnière,"2800, rue Cazeneuve, Montréal",Saint-Laurent,45.5026938,-73.7024685,Saint-Laurent
331,Parc Brewster,"325, 44e Avenue, Montréal",Lachine,45.4179526,-73.6205007,LaSalle
332,Parc Brewster - Le Sud-Ouest,"Rue Brewster, Montréal",Le Sud-Ouest,45.4377844,-73.7053609,Lachine
333,Parc Brook,"12800, rue Brook, Montréal",Pierrefonds-Roxboro,45.5104360548896,-73.84404322853007,Pierrefonds-Roxboro
334,Parc Camille,"9350, boulevard Gouin Ouest, Montréal",Ahuntsic-Cartierville,45.4740743,-73.8744496,L'Île-Bizard-Sainte-Geneviève
335,Parc Campbell-Ouest,"1990, rue de Maricourt, Montréal",Le Sud-Ouest,45.45817415437506,-73.59135712854328,Le Sud-Ouest
336,Parc canin d'Outremont (parc Mali),"Avenue McEachran, Montréal",Outremont,45.5172854,-73.6144221,Outremont
337,Parc Cardinal,"Rue Cardinal, Montréal",L'Île-Bizard–Sainte-Geneviève,45.5091974,-73.6786765,Saint-Laurent
338,Parc Carignan,"4100, rue Provost, Montréal",Lachine,45.4420053,-73.7010692,Lachine
339,Parc Carlos-D'Alcantara,"5451, rue De Contrecœur, Montréal",Mercier–Hochelaga-Maisonneuve,45.6107142,-73.5195256,Mercier-Hochelaga-Maisonneuve
340,Parc Carmela-Galardo-Frascarelli,"Rues Bélanger et Drolet, Montréal",Rosemont–La Petite-Patrie,,,
341,Parc Cavelier-De LaSalle,"330, 80e Avenue, Montréal",LaSalle,45.4189894,-73.6363806,LaSalle
342,Parc Cécile-Bérubé,"7775, rue Joseph-De Montenon, Montréal",Rivière-des-Prairies–Pointe-aux-Trembles,45.6347681,-73.5979093,Rivière-des-Prairies-Pointe-aux-Trembles
343,Parc Cérès,"7775, rue Joseph-De Montenon, Montréal",Pierrefonds-Roxboro,45.6347681,-73.5979093,Rivière-des-Prairies-Pointe-aux-Trembles
344,Parc Chabot,"4966, rue d'Amos, Montréal",Montréal-Nord,45.6056859,-73.6188889,Montréal-Nord
345,Parc Chamberland,"800, rue Dorais, Montréal",Saint-Laurent,45.5037241,-73.6901641,Saint-Laurent
346,Parc Champagneur,"avenue Champagneur, Montréal",Villeray–Saint-Michel–Parc-Extension,45.5320878,-73.6425133,Villeray-Saint-Michel-Parc-Extension
347,Parc Champdoré,"2400, rue Champdoré, Montréal",Villeray–Saint-Michel–Parc-Extension,45.5757428,-73.6314602,Villeray-Saint-Michel-Parc-Extension
348,Parc Champêtre,"411, avenue Letourneux, Montréal",Mercier–Hochelaga-Maisonneuve,45.549923750000005,-73.53123516296512,Mercier-Hochelaga-Maisonneuve
349,Parc Charlemagne-Péralte,"12501, rue Ferdinand-Bastien, Montréal",Rivière-des-Prairies–Pointe-aux-Trembles,45.6605813,-73.5564686,Rivière-des-Prairies-Pointe-aux-Trembles
350,Parc Charleroi,"10985, avenue Alfred, Montréal",Montréal-Nord,45.59943488333334,-73.62350405,Montréal-Nord
351,Parc Charles-Drew,"749, avenue Walker, Montréal",Le Sud-Ouest,45.483645324390245,-73.5812065,Le Sud-Ouest
352,Parc Charles-Mayer,"Rue Ontario Est, Montréal",Ville-Marie,45.5599347,-73.5350481,Mercier-Hochelaga-Maisonneuve
353,Parc Charles-S.-Campbell,"1250-1296, rue De Champlain, Montréal",Ville-Marie,,,
354,Parc Charlevoix / Rufus-Rockhead,"2700, rue Rufus-Rockhead, Montréal",Le Sud-Ouest,45.4795844,-73.5757392,Le Sud-Ouest
355,Parc Chateaubriand-du Rosaire,"Avenue De Chateaubriand , Montréal",Villeray–Saint-Michel–Parc-Extension,45.5354512,-73.6038471,Rosemont-La Petite-Patrie
356,Parc Chaumette,"Rue Chaumette, Montréal",L'Île-Bizard–Sainte-Geneviève,45.4801729,-73.8844225,L'Île-Bizard-Sainte-Geneviève
357,Parc Chénier,"5555, avenue de l'Aréna, Montréal",Anjou,45.6027258,-73.5438688,Anjou
358,Parc Chénier–Beaugrand,"7801, rue Francine-Mckenzie, Montréal",Mercier–Hochelaga-Maisonneuve,45.6002248,-73.5420432,Mercier-Hochelaga-Maisonneuve
359,Parc Chesnut,"Rue Chesnut, Montréal",Pierrefonds-Roxboro,,,
360,Parc Christophe-Colomb,"Rue Réjane, Montréal",LaSalle,45.430513,-73.6254912,LaSalle
361,Parc Claude-Melançon,"Rue Saint-Christophe, Montréal",Ville-Marie,45.5207403,-73.5690932,Le Plateau-Mont-Royal
362,Parc Claudine-Vallerand,"11750, 27e Avenue, Montréal",Rivière-des-Prairies–Pointe-aux-Trembles,45.631928078873244,-73.58345209859155,Rivière-des-Prairies-Pointe-aux-Trembles
363,Parc Clément-Jetté Nord,"549, rue Joffre, Montréal",Mercier–Hochelaga-Maisonneuve,45.6012048,-73.5136025,Mercier-Hochelaga-Maisonneuve
364,Parc Clément-Jetté Sud,"8920, rue Notre-Dame Est, Montréal",Mercier–Hochelaga-Maisonneuve,45.5858544,-73.5078805,Mercier-Hochelaga-Maisonneuve
365,Parc Clémentine-De La Rousselière,"14080, rue Notre-Dame Est, Montréal",Rivière-des-Prairies–Pointe-aux-Trembles,45.5858544,-73.5078805,Mercier-Hochelaga-Maisonneuve
366,Parc Clifford,"1820, avenue Clifford, Montréal",Le Sud-Ouest,45.4507064,-73.5896502,Le Sud-Ouest
367,Parc Closse,"Rue Closse, Montréal",L'Île-Bizard–Sainte-Geneviève,45.4922623,-73.8718707,L'Île-Bizard-Sainte-Geneviève
368,Parc Cloverdale,"Rue Basswood, Montréal",Pierrefonds-Roxboro,45.5004163,-73.7752048,Pierrefonds-Roxboro
369,Parc Coffee,"7330, rue Coffee, Montréal",Côte-des-Neiges–Notre-Dame-de-Grâce,45.4559311,-73.6390711,Côte-des-Neiges-Notre-Dame-de-Grâce
370,Parc Colette-Devlin,"Rue Saint-Christophe, Montréal",Ville-Marie,45.5207403,-73.5690932,Le Plateau-Mont-Royal
371,Parc Conrad-Poirier,"avenue Salomon-Marion/boulevard Perras, Montréal",Rivière-des-Prairies–Pointe-aux-Trembles,,,
372,Parc Cooney,"1175, rue Melrose, Montréal",Verdun,45.4542969,-73.5810838,Verdun
373,Parc Coronation,"avenue Brown, Montréal",Verdun,45.4488616,-73.5824002,Verdun
374,Parc Coubertin,"4755, rue Valéry, Montréal",Saint-Léonard,45.58324,-73.6102527,Saint-Léonard
375,Parc Coupal,"2340, rue Coupal, Montréal",Ville-Marie,45.53036711608282,-73.55382213515827,Ville-Marie
376,Parc Coursol,"Rue Coursol, Montréal",Pierrefonds-Roxboro,45.4669764,-73.8908232,Pierrefonds-Roxboro
377,Parc Cousineau,"1740, avenue O'Brien, Montréal",Saint-Laurent,45.5208944,-73.6889195,Saint-Laurent
378,Parc Crémazie-Papineau,"Avenue Papineau, Montréal",Villeray–Saint-Michel–Parc-Extension,45.5697492,-73.6575133,Ahuntsic-Cartierville
379,Parc Curé-Albert-Arnold,"6855, rue Hamilton, Montréal",Le Sud-Ouest,45.45016865,-73.59521996071429,Le Sud-Ouest
380,Parc Curé-Provost,"308, rue Provost, Montréal",Lachine,45.4419778,-73.6934999,Lachine
381,Parc Cyril-W.-McDonald,"rue Harry-Worth, Montréal",Pierrefonds-Roxboro,45.4870364,-73.8525412,Pierrefonds-Roxboro
382,Parc d'À-Ma-Baie,"9625, boulevard Gouin Ouest, Montréal",Pierrefonds-Roxboro,45.5041775,-73.7818377,Pierrefonds-Roxboro
383,Parc d'Allonnes,"7200, avenue Fontevrault, Montréal",Anjou,45.6047396,-73.5770117,Anjou
384,Parc d'Antioche,"Place d'Antioche, Montréal",Anjou,45.5950147,-73.5577481,Anjou
385,Parc D'Arcy-McGee,"1500, avenue Egan, Montréal",Le Sud-Ouest,45.4525933,-73.5848812,Le Sud-Ouest
386,Parc D'Argenson,"2900, rue Centre, Montréal",Le Sud-Ouest,45.4760513,-73.5731223,Le Sud-Ouest
387,Parc D'Auteuil,"350, rue Sauvé Est, Montréal",Ahuntsic-Cartierville,45.5499636,-73.6567805,Ahuntsic-Cartierville
388,Parc d'Estérel-Boisé,"Rue d'Estérel, Montréal",Pierrefonds-Roxboro,45.4710459,-73.8580312,Pierrefonds-Roxboro
389,Parc Daisy-Peterson-Sweeney,"Rue Charlevoix, Montréal",Le Sud-Ouest,45.4791792,-73.5706532,Le Sud-Ouest
390,Parc Dalbé-Viau,"Rue Esther-Blondin et rue Duff Court, Montréal",Lachine,,,
391,Parc Dalmany,"9650, rue Dalmany, Montréal",LaSalle,45.429556649999995,-73.65927486875,LaSalle
392,Parc Dan-Hanganu (parc Elgar),"260, rue Elgar, Montréal",Verdun,45.4572081,-73.5468802,Verdun
393,Parc Daniel-Johnson,"1500, boulevard du Tricentenaire, Montréal",Rivière-des-Prairies–Pointe-aux-Trembles,45.6499733,-73.4927775,Rivière-des-Prairies-Pointe-aux-Trembles
394,Parc Dante,"Rue Dante, Montréal",Rosemont–La Petite-Patrie,45.5326926,-73.6139448,Rosemont-La Petite-Patrie
395,Parc David-Lefebvre,"2413, rue Quesnel, Montréal",Le Sud-Ouest,45.4868691,-73.5759197,Le Sud-Ouest
396,Parc de Beauséjour,"6995, boulevard Gouin Ouest, Montréal",Ahuntsic-Cartierville,45.5266088,-73.7305185,Ahuntsic-Cartierville
397,Parc de Bordeaux,"12141, rue Pasteur, Montréal",Ahuntsic-Cartierville,45.5424873,-73.7011838,Ahuntsic-Cartierville
398,Parc de Deauville,"Rue de Riva-Bella, Montréal",Pierrefonds-Roxboro,45.4626081,-73.8896052,Pierrefonds-Roxboro
399,Parc de Dieppe,"3400, avenue Pierre-Dupuy, Montréal",Ville-Marie,45.5026432,-73.5439462,Ville-Marie
400,Parc de Dunkerque,"2900, avenue Kirkfield, Montréal",Côte-des-Neiges–Notre-Dame-de-Grâce,45.5117983,-73.6348591,Côte-des-Neiges-Notre-Dame-de-Grâce
401,Parc De Gaspé,"6655, avenue De Gaspé, Montréal",Rosemont–La Petite-Patrie,45.5331983,-73.6092964,Rosemont-La Petite-Patrie
402,Parc de l'Amitié,"9025 Boulevard Pie-IX, Montréal",Villeray–Saint-Michel–Parc-Extension,45.5697151,-73.5989138,Villeray-Saint-Michel-Parc-Extension
403,Parc de l'Ancienne-cour-de-triage,"3701, rue Saint-Patrick, Montréal",Le Sud-Ouest,45.47019350268364,-73.58198153448608,Le Sud-Ouest
404,Parc de l'Ancienne-Pépinière,"5220, rue Du Quesne, Montréal",Mercier–Hochelaga-Maisonneuve,45.574941,-73.5387062,Mercier-Hochelaga-Maisonneuve
405,Parc de l'Anse-aux-Chênes,"rue Desjardins, Montréal",Pierrefonds-Roxboro,45.5108783,-73.8502281,Pierrefonds-Roxboro
406,Parc de l'Anse-aux-Rivard,"Rues de l'Anse et du Moulin, Montréal",L'Île-Bizard–Sainte-Geneviève,,,
407,Parc de l'Aqueduc,"8970, boulevard LaSalle, Montréal",Le Sud-Ouest,45.4158764,-73.6324026,LaSalle
408,Parc de l'Association-Eurêka,"576, rue Chatham, Montréal",Le Sud-Ouest,45.4878011,-73.5715738,Le Sud-Ouest
409,Parc de l'école secondaire de la Pointe-aux-Trembles,"15200, rue Sherbrooke Est, Montréal",Rivière-des-Prairies–Pointe-aux-Trembles,45.5531551,-73.5548571,Rosemont-La Petite-Patrie
410,Parc de l'Encan,"Rue Notre-Dame Ouest, Montréal",Le Sud-Ouest,45.4915954,-73.5659217,Ville-Marie
411,Parc de L'Épée,"avenue De L'Épée, Montréal",Outremont,45.5222076,-73.6100403,Outremont
412,Parc de l'Épervière,"rue de la Vigne, Montréal",Verdun,45.4647342,-73.5469186,Verdun
413,Parc de l'esplanade de la Pointe-Nord,"1606, rue de la Rotonde, Montréal",Verdun,45.4732598,-73.5386374,Verdun
414,Parc de l'Espoir,"1336, rue Sainte-Catherine Est, Montréal",Ville-Marie,45.51971075714285,-73.55489167142856,Ville-Marie
415,Parc de l'Honorable-George-O'Reilly,"7523, boulevard LaSalle, Montréal",Verdun,45.4341031,-73.5872829,LaSalle
416,Parc de l'Île Perry,"1271, boulevard Gouin Ouest, Montréal",Ahuntsic-Cartierville,45.5454796,-73.6992017,Ahuntsic-Cartierville
417,Parc de l'Irlande,"Rue de Coleraine, Montréal",Le Sud-Ouest,,,
418,Parc de l'Orée-du-Bois,"rue de l'Orée-du-Bois Ouest, Montréal",Verdun,45.4505681,-73.5512983,Verdun
419,Parc de l'Orée-du-Fleuve,"chemin de la Pointe-Sud, Montréal",Verdun,45.4488363,-73.5534953,Verdun
420,Parc de l'Ukraine,"6043, 12e Avenue, Montréal",Rosemont–La Petite-Patrie,45.4258953,-73.6026479,LaSalle
421,Parc de la 55e Avenue,"55e Avenue, Montréal",Lachine,45.4486784,-73.7207305,Lachine
422,Parc de La Bolduc,"4181, rue Rivard, Montréal",Le Plateau-Mont-Royal,45.52236,-73.5774464,Le Plateau-Mont-Royal
423,Parc De La Bruère,"2200, rue Liébert, Montréal",Mercier–Hochelaga-Maisonneuve,45.5948536,-73.5197167,Mercier-Hochelaga-Maisonneuve
424,Parc de la Capture-d'Ethan-Allen,"8500, rue Bellerive, Montréal",Mercier–Hochelaga-Maisonneuve,45.5947046,-73.5092239,Mercier-Hochelaga-Maisonneuve
425,Parc de la Chasse-Galerie,"Rue du Glacis, Montréal",Ville-Marie,45.5138938,-73.5505655,Ville-Marie
426,Parc de la Cité-Jardin,"5222, boulevard Rosemont, Montréal",Rosemont–La Petite-Patrie,45.5721987,-73.563388,Rosemont-La Petite-Patrie
427,Parc de la Confédération,"6265, avenue Biermans, Montréal",Côte-des-Neiges–Notre-Dame-de-Grâce,45.471707699999996,-73.63738390985344,Côte-des-Neiges-Notre-Dame-de-Grâce
428,Parc de la Congrégation,"Rue de la Congrégation, Montréal",Le Sud-Ouest,45.4812902,-73.5582055,Le Sud-Ouest
429,Parc de la Coulée-Grou,"132e Avenue/boulevard Gouin Est, Montréal",Rivière-des-Prairies–Pointe-aux-Trembles,45.696724,-73.500385,Rivière-des-Prairies-Pointe-aux-Trembles
430,Parc de la Fabrique,"1317, rue La Fontaine, Montréal",Ville-Marie,45.52153505882353,-73.55989872352941,Ville-Marie
431,Parc de la Ferme-Brodie,"3977, rue Saint-Jacques, Montréal",Le Sud-Ouest,45.4440778,-73.6473336,Lachine
432,Parc de la Fontaine,"570, place de la Fontaine, Montréal",Verdun,45.4631961,-73.5443182,Verdun
433,Parc de la Louisiane,"4644, rue Beaubien Est, Montréal",Rosemont–La Petite-Patrie,45.5688992,-73.5740666,Rosemont-La Petite-Patrie
434,Parc de la Merci,"901, boulevard Gouin Ouest, Montréal",Ahuntsic-Cartierville,45.4740743,-73.8744496,L'Île-Bizard-Sainte-Geneviève
435,Parc de la Métairie,"590, rue de la Métairie, Montréal",Verdun,45.462847178399755,-73.54954270185975,Verdun
436,Parc de la Petite-Italie,"6634, rue Clark, Montréal",Rosemont–La Petite-Patrie,45.53102151558441,-73.61228258051948,Rosemont-La Petite-Patrie
437,Parc de la place publique J.-Armand-Bombardier,"2600, boulevard Poirier, Montréal",Saint-Laurent,45.4920125,-73.7245191,Saint-Laurent
438,Parc de la Place Samuel-D. Gameroff,"3696, rue Saint-Antoine, Montréal",Lachine,45.4397027,-73.697109,Lachine
439,Parc de La Presse,"Côte de la Place d'Armes, Montréal",Ville-Marie,45.5054201,-73.5578986,Ville-Marie
440,Parc de la Promenade-Bellerive,"8300, rue Bellerive, Montréal",Mercier–Hochelaga-Maisonneuve,45.5987549,-73.5104004,Mercier-Hochelaga-Maisonneuve
441,Parc de la Promenade-Lalande,"Boulevard Lalande, Montréal",Pierrefonds-Roxboro,45.5090845,-73.7878942,Pierrefonds-Roxboro
442,Parc de la Reine-Élisabeth,"rue Penniston, Montréal",Verdun,45.4395481,-73.5916701,Verdun
443,Parc de la Renaissance,"2900, terrasse Louis-Basile-Pigeon, Montréal",Lachine,45.4455403,-73.6919957,Lachine
444,Parc de la Rive-Boisée,"307, chemin de la Rive-Boisée, Montréal",Pierrefonds-Roxboro,45.49702522643161,-73.85212605765484,Pierrefonds-Roxboro
445,Parc de la Rivière,"Rue Pierre-Mercure , Montréal",Rivière-des-Prairies–Pointe-aux-Trembles,45.6977704,-73.4921292,Rivière-des-Prairies-Pointe-aux-Trembles
446,Parc de la Savane,"5111, rue Paré, Montréal",Côte-des-Neiges–Notre-Dame-de-Grâce,45.4857537,-73.6743386,Côte-des-Neiges-Notre-Dame-de-Grâce
447,Parc de la Stelco,"191, rue Vinet, Montréal",Le Sud-Ouest,45.4825093,-73.5733542,Le Sud-Ouest
448,Parc de la Traite-des-Fourrures,"4876, rue Notre-Dame Ouest, Montréal",Le Sud-Ouest,45.47132147246377,-73.58994353043478,Le Sud-Ouest
449,Parc de la Traversée,"Entre les rues Victoria et du Prince-Albert, Montréal",Rivière-des-Prairies–Pointe-aux-Trembles,,,
450,Parc De La Vérendrye,"5900, rue Drake, Montréal",Le Sud-Ouest,45.4589717,-73.5815697,Le Sud-Ouest
451,Parc De Lestre,"8001, avenue Bloomfield, Montréal",Villeray–Saint-Michel–Parc-Extension,45.5305538,-73.6346602,Villeray-Saint-Michel-Parc-Extension
452,Parc De Lorimier,"5131, rue Chabot, Montréal",Le Plateau-Mont-Royal,45.5546107,-73.6185626,Villeray-Saint-Michel-Parc-Extension
453,Parc De Lotbinière,"1, rue du Parc-De Lotbinière, Montréal",Mercier–Hochelaga-Maisonneuve,45.5822748,-73.547448,Mercier-Hochelaga-Maisonneuve
454,Parc de Louisbourg,"5455, rue de Louisbourg, Montréal",Ahuntsic-Cartierville,45.5289435,-73.7059696,Ahuntsic-Cartierville
455,Parc De Mésy,"12120, rue Grenet, Montréal",Ahuntsic-Cartierville,45.5295402,-73.7161649,Ahuntsic-Cartierville
456,Parc de Montmartre,"rue De Montigny/60e Avenue, Montréal",Rivière-des-Prairies–Pointe-aux-Trembles,,,
457,Parc de Neuville-sur-Vanne,"12714, rue Notre-Dame Est, Montréal",Rivière-des-Prairies–Pointe-aux-Trembles,45.5858544,-73.5078805,Mercier-Hochelaga-Maisonneuve
458,Parc De Normanville,"7480, rue De Normanville, Montréal",Villeray–Saint-Michel–Parc-Extension,45.54552837311828,-73.61457552365592,Villeray-Saint-Michel-Parc-Extension
459,Parc de Peterborough,"8400, boulevard de Châteauneuf, Montréal",Anjou,45.6114756,-73.5556838,Anjou
460,Parc de Rouville,"Rue de Rouville, Montréal",Mercier–Hochelaga-Maisonneuve,45.5393883,-73.5419074,Mercier-Hochelaga-Maisonneuve
461,Parc de Roxboro,"10, 11e Avenue, Montréal",Pierrefonds-Roxboro,45.50725104,-73.80501220000001,Pierrefonds-Roxboro
462,Parc de Saint-Aloysius,"1651, rue Nicolet, Montréal",Mercier–Hochelaga-Maisonneuve,45.5457342,-73.541273,Mercier-Hochelaga-Maisonneuve
463,Parc De Salaberry,"rue Frigon, Montréal",Ahuntsic-Cartierville,45.5345413,-73.6855111,Ahuntsic-Cartierville
464,Parc de Sienne,"4151, 53e Rue, Montréal",Villeray–Saint-Michel–Parc-Extension,45.5821863,-73.6261744,Villeray-Saint-Michel-Parc-Extension
465,Parc De Sousa-Mendes,"2591, avenue de Soissons, Montréal",Côte-des-Neiges–Notre-Dame-de-Grâce,,,
466,Parc de Spalding,"7901, avenue Spalding, Montréal",Anjou,45.6024592,-73.5523232,Anjou
467,Parc de Taishan,"Angle des rues Allard et Viola-Desmond, Montréal",LaSalle,,,
468,Parc de Talcy,"8151, avenue de Talcy, Montréal",Anjou,45.6090245,-73.558751,Anjou
469,Parc de Turin,"7205, rue Chambord, Montréal",Villeray–Saint-Michel–Parc-Extension,45.5447748,-73.6101543,Villeray-Saint-Michel-Parc-Extension
470,Parc de Verdelles,"8441, place de Verdelles, Montréal",Anjou,45.6079549,-73.5493924,Anjou
471,Parc de Versailles,"13207, rue Desjardins, Montréal",Pierrefonds-Roxboro,45.5118201,-73.8473676,Pierrefonds-Roxboro
472,Parc de West-Vancouver,"rue Darwin, Montréal",Verdun,45.4556609,-73.5433846,Verdun
473,Parc Decelles,"845, rue Roy, Montréal",Saint-Laurent,45.5141086,-73.6786261,Saint-Laurent
474,Parc Delorme,"6060, rue de Honfleur, Montréal",Saint-Léonard,45.5935518,-73.5894974,Saint-Léonard
475,Parc Delphis-Delorme,"rue Sherbrooke Est, Montréal",Rivière-des-Prairies–Pointe-aux-Trembles,45.6929645,-73.4969314,Rivière-des-Prairies-Pointe-aux-Trembles
476,Parc Denis-Benjamin-Viger,"114, boulevard Jacques-Bizard, Montréal",L'Île-Bizard–Sainte-Geneviève,45.488969761111115,-73.86986829444444,L'Île-Bizard-Sainte-Geneviève
477,Parc Denise-Morelle,"4394, rue Rivard, Montréal",Le Plateau-Mont-Royal,45.523744282608696,-73.58094008695652,Le Plateau-Mont-Royal
478,Parc des Açores,"4179, rue de Bullion, Montréal",Le Plateau-Mont-Royal,45.519302368987326,-73.58002470683473,Le Plateau-Mont-Royal
479,Parc des Amériques,"Rue Rachel Est, Montréal",Le Plateau-Mont-Royal,45.5180796,-73.5816302,Le Plateau-Mont-Royal
480,Parc des Anciens-Combattants,"155, rue Rose, Montréal",Pierrefonds-Roxboro,45.5087595,-73.7833349,Pierrefonds-Roxboro
481,Parc des Apprentis,"1946, rue Mullins, Montréal",Le Sud-Ouest,45.47999207179487,-73.56227167692307,Le Sud-Ouest
482,Parc des Arbres,"rue Perron, Montréal",Pierrefonds-Roxboro,45.5020484,-73.8346946,Pierrefonds-Roxboro
483,Parc des Bateliers,"1801, boulevard Gouin Ouest, Montréal",Ahuntsic-Cartierville,45.5435265,-73.7031792,Ahuntsic-Cartierville
484,Parc des Botanistes,"Avenue Rolland-Germain et rue la Galissonnière, Montréal",Rivière-des-Prairies–Pointe-aux-Trembles,,,
485,Parc Des Bouleaux,"218, Rue des Bouleaux, Montréal",Rivière-des-Prairies–Pointe-aux-Trembles,45.64706442871755,-73.50101681628766,Rivière-des-Prairies-Pointe-aux-Trembles
486,Parc des Cageux,"boulevard Gouin Est/87e Avenue, Montréal",Rivière-des-Prairies–Pointe-aux-Trembles,,,
487,Parc des Carrières,"Rue des Carrières, Montréal",Rosemont–La Petite-Patrie,45.5325274,-73.5934512,Rosemont-La Petite-Patrie
488,Parc des Chaudronniers,"2175, rue Augustin-Cantin, Montréal",Le Sud-Ouest,45.47830331744186,-73.57301055348837,Le Sud-Ouest
489,Parc des Cheminots,"467, rue Bourgeoys, Montréal",Le Sud-Ouest,45.47999472769734,-73.5555580714801,Le Sud-Ouest
490,Parc des Compagnons-de-Saint-Laurent,"4375, rue Cartier, Montréal",Le Plateau-Mont-Royal,45.5334618,-73.5734263,Le Plateau-Mont-Royal
491,Parc des Coopérants,"Rue Cloverdale, Montréal",Pierrefonds-Roxboro,45.499206,-73.7742264,Pierrefonds-Roxboro
492,Parc des Cordonniers,"Rue Bourget, Montréal",Le Sud-Ouest,45.4775792,-73.5777166,Le Sud-Ouest
493,Parc des Corroyeurs,"3744, rue Saint-Ambroise, Montréal",Le Sud-Ouest,45.4774605,-73.5778025,Le Sud-Ouest
494,Parc des Couturières,"Rue Saint-Ferdinand, Montréal",Le Sud-Ouest,45.4784363,-73.589833,Le Sud-Ouest
495,Parc des Écluses,"25, chemin du Musée, Montréal",Lachine,45.4309763,-73.6658548,Lachine
496,Parc des Éclusiers,"Rue Sainte-Cunégonde, Montréal",Le Sud-Ouest,45.4833429,-73.571107,Le Sud-Ouest
497,Parc des Épinettes,"rue des Épinettes, Montréal",Rivière-des-Prairies–Pointe-aux-Trembles,45.6480605,-73.5068107,Rivière-des-Prairies-Pointe-aux-Trembles
498,Parc des Érables,"Avenue des Érables, Montréal",L'Île-Bizard–Sainte-Geneviève,45.5401752,-73.581241,Le Plateau-Mont-Royal
499,Parc des Faubourgs,"1872, rue Dorion, Montréal",Ville-Marie,45.52620582,-73.55693920666667,Ville-Marie
500,Parc des Ferblantiers,"4310, rue de la Fonderie, Montréal",Rosemont–La Petite-Patrie,,,
501,Parc des Hirondelles,"2601, rue Sauvé Est, Montréal",Ahuntsic-Cartierville,45.5745405,-73.6405588,Ahuntsic-Cartierville
502,Parc des Hommes-Forts,"Rue Saint-Jacques, Montréal",Le Sud-Ouest,45.4570839,-73.6297554,Côte-des-Neiges-Notre-Dame-de-Grâce
503,Parc des Jazzmen,"2248, avenue Lionel-Groulx, Montréal",Le Sud-Ouest,45.48578254460681,-73.57434814014984,Le Sud-Ouest
504,Parc des Joyeux-Vikings,"1763, rue Beaudry, Montréal",Ville-Marie,45.52059717027027,-73.55987535675675,Ville-Marie
505,Parc des Locomotives,"Avenue du Midway et rue William-Tremblay, Montréal",Rosemont–La Petite-Patrie,,,
506,Parc des Madelinots,"3651, boulevard LaSalle, Montréal",Verdun,45.4263482,-73.6617431,LaSalle
507,Parc des Métallos,"Rue Jacques-Hertel, Montréal",Le Sud-Ouest,45.4595537,-73.5922604,Le Sud-Ouest
508,Parc des Meubliers,"1935, rue Notre-Dame Ouest, Montréal",Le Sud-Ouest,45.4668481,-73.5992652,Le Sud-Ouest
509,Parc des Muguets,"1935, rue Notre-Dame Ouest, Montréal",Pierrefonds-Roxboro,45.4668481,-73.5992652,Le Sud-Ouest
510,Parc des Ouvrières,"Rues de la Forge et du Canadien Pacifique, Montréal",Rosemont–La Petite-Patrie,,,
511,Parc des Parulines,"rue des Parulines, Montréal",Verdun,45.4497755,-73.5518263,Verdun
512,Parc des Pins,"3995, 42e Avenue, Montréal",Rivière-des-Prairies–Pointe-aux-Trembles,45.6665499,-73.5160539,Rivière-des-Prairies-Pointe-aux-Trembles
513,Parc des Pins / Redpath Crescent,"1305, avenue des Pins, Montréal",Ville-Marie,45.5015073,-73.58484895,Ville-Marie
514,Parc des Pompiers,"Rue Dubuc, Montréal",Ville-Marie,45.5282229,-73.5586318,Ville-Marie
515,Parc des Rapides,"7770, boulevard LaSalle, Montréal",LaSalle,45.4262383,-73.5961642,LaSalle
516,Parc des Rapides-du-Cheval-Blanc,"Boulevard Riverdale et Rue Riviera, Montréal",Pierrefonds-Roxboro,,,
517,Parc des Rêves,"Avenue de Gaspé, Montréal",Villeray–Saint-Michel–Parc-Extension,45.5389214,-73.624089,Villeray-Saint-Michel-Parc-Extension
518,Parc des Rivières,"Rue des Rivières, Montréal",Pierrefonds-Roxboro,45.4695879,-73.8844651,Pierrefonds-Roxboro
519,Parc des Roseraies,"7070, avenue de la Nantaise, Montréal",Anjou,45.5933175,-73.5560569,Anjou
520,Parc des Royaux,"2195, avenue de Lorimier, Montréal",Ville-Marie,45.5513252,-73.6071947,Villeray-Saint-Michel-Parc-Extension
521,Parc des Saints-Anges,"9623, boulevard LaSalle, Montréal",LaSalle,45.4263482,-73.6617431,LaSalle
522,Parc des Saules,"2571, boulevard Saint-Joseph, Montréal",Lachine,45.434065504333006,-73.6869975480171,Lachine
523,Parc des Selliers,"Rue Lacasse, Montréal",Le Sud-Ouest,45.4768823,-73.5910278,Le Sud-Ouest
524,Parc des Sittelles,"Rue Lacasse, Montréal",rue des Sittelles,45.4768823,-73.5910278,Le Sud-Ouest
525,Parc des Vétérans,"1655, avenue Papineau, Montréal",Ville-Marie,45.52390952105263,-73.55495934035088,Ville-Marie
526,Parc Desmarchais,"5200, boulevard LaSalle, Montréal",Verdun,45.454129493875094,-73.56618583155598,Verdun
527,Parc Desmarest,"235, rue Desmarest, Montréal",L'Île-Bizard–Sainte-Geneviève,45.4980942,-73.8687273,L'Île-Bizard-Sainte-Geneviève
528,Parc Devonshire,"3766, rue Clark, Montréal",Le Plateau-Mont-Royal,45.514661032075466,-73.57593795283019,Le Plateau-Mont-Royal
529,Parc Dézéry – La Fontaine,"Rue La Fontaine, Montréal",Mercier–Hochelaga-Maisonneuve,45.5226484,-73.5586661,Ville-Marie
530,Parc Dickie-Moore,"Avenue Beaumont, Montréal",Villeray–Saint-Michel–Parc-Extension,45.5238964,-73.6228893,Villeray-Saint-Michel-Parc-Extension
531,Parc Dickson – Monsabré,"Rue Gérin-Lajoie, Montréal",Mercier–Hochelaga-Maisonneuve,45.5759893,-73.5560153,Mercier-Hochelaga-Maisonneuve
532,Parc Dickson – Pierre-Bédard,"Rue Pierre-Bédard, Montréal",Mercier–Hochelaga-Maisonneuve,45.5793005,-73.5562449,Mercier-Hochelaga-Maisonneuve
533,Parc Dixie,"695, 54e Avenue, Montréal",Lachine,45.44348,-73.7180735,Lachine
534,Parc Docteur-Bernard-Paquet,"3003, rue Jean-Gascon, Montréal",Saint-Laurent,45.5060101,-73.732492,Saint-Laurent
535,Parc Dollard-Morin,"11750, rue La Valinière, Montréal",Rivière-des-Prairies–Pointe-aux-Trembles,45.6278549,-73.5927167,Rivière-des-Prairies-Pointe-aux-Trembles
536,Parc Dollier-De Casson,"9801, rue Saint-Patrick, Montréal",LaSalle,45.4335538,-73.6597418,LaSalle
537,Parc Don-Bosco,"12600, avenue Rita-Lévi-Montalcini, Montréal",Rivière-des-Prairies–Pointe-aux-Trembles,45.645738,-73.589323,Rivière-des-Prairies-Pointe-aux-Trembles
538,Parc Doral,"Rue Saint-Raphaël, Montréal",L'Île-Bizard–Sainte-Geneviève,45.5026789,-73.9080299,L'Île-Bizard-Sainte-Geneviève
539,Parc Doris-Lussier,"rue Notre-Dame Est/5e Avenue, Montréal",Rivière-des-Prairies–Pointe-aux-Trembles,,,
540,Parc Drolet-Rachel,"Rue Drolet, Montréal",Le Plateau-Mont-Royal,45.536096,-73.6120206,Rosemont-La Petite-Patrie
541,Parc du Bassin-à-Gravier,"1492, rue d'Ottawa, Montréal",Le Sud-Ouest,,,
542,Parc du Belvédère,"Rue du Belvédère, Montréal",Pierrefonds-Roxboro,,,
543,Parc du Bien-Être-de-la-Jeunesse,"279, rue Pierre-Mercure, Montréal",Rivière-des-Prairies–Pointe-aux-Trembles,45.6977704,-73.4921292,Rivière-des-Prairies-Pointe-aux-Trembles
544,Parc du Bocage,"Avenue du Bocage, Montréal",Anjou,45.5926019,-73.5509567,Anjou
545,Parc du Bois-des-Caryers,"rue du Bois-des-Caryers, Montréal",LaSalle,45.4385797,-73.6150816,LaSalle
546,Parc du Bois-des-Pères,"rue du Bois-des-Caryers, Montréal",Rosemont–La Petite-Patrie,45.4385797,-73.6150816,LaSalle
547,Parc du Bois-des-Trottier,"Rue du Bois-des-Trottier, Montréal",Pierrefonds-Roxboro,45.5057176,-73.8517141,Pierrefonds-Roxboro
548,Parc du Bois-Franc,"2145, rue du Chinook, Montréal",Saint-Laurent,45.5146427,-73.7131242,Saint-Laurent
549,Parc du Boisé,"Rue du Boisé, Montréal",Pierrefonds-Roxboro,45.5025452,-73.796251,Pierrefonds-Roxboro
550,Parc du Boisé-de-Saint-Sulpice," 999, avenue Émile-Journault, Montréal",Ahuntsic-Cartierville,45.5515968,-73.6400044,Ahuntsic-Cartierville
551,Parc du Boisé-Jean-Milot,"7084, rue Jean-Milot, Montréal",Mercier–Hochelaga-Maisonneuve,45.4315266,-73.6508863,LaSalle
552,Parc du Bout-de-l'Île,"18, rue Bureau, Montréal",Rivière-des-Prairies–Pointe-aux-Trembles,45.7017206,-73.47923633259579,Rivière-des-Prairies-Pointe-aux-Trembles
553,Parc du Carmel,"Avenue Du Carmel, Montréal",Le Plateau-Mont-Royal,45.5282858,-73.5944709,Le Plateau-Mont-Royal
554,Parc du Centenaire-de-Parc-Extension,"À l'angle de la rue Saint-Roch et de l’avenue Stuart, Montréal",Villeray–Saint-Michel–Parc-Extension,,,
555,Parc du Château-Pierrefonds,"boulevard de Pierrefonds, Montréal",Pierrefonds-Roxboro,45.5036366,-73.8287305,Pierrefonds-Roxboro
556,Parc du Cheval-Blanc,"68e Avenue, Montréal",Rivière-des-Prairies–Pointe-aux-Trembles,45.4185917,-73.6273674,LaSalle
557,Parc du Chevalier-Cuivré,"Boulevard Gouin Est , Montréal",Rivière-des-Prairies–Pointe-aux-Trembles,45.6297677,-73.6184756,Rivière-des-Prairies-Pointe-aux-Trembles
558,Parc du Colombier,"824, rue du Colombier, Montréal",Rivière-des-Prairies–Pointe-aux-Trembles,45.4961766,-73.8810778,L'Île-Bizard-Sainte-Geneviève
559,Parc du Cours-du-Fleuve,"48, cours du Fleuve, Montréal",Verdun,45.4671994,-73.5353596,Verdun
560,Parc du Faubourg-Sainte-Anne,"rue Rioux, Montréal",Le Sud-Ouest,45.4919124,-73.5606945,Le Sud-Ouest
561,Parc du Fort-de-Pointe-aux-Trembles,"boulevard Saint-Jean-Baptiste, Montréal",Rivière-des-Prairies–Pointe-aux-Trembles,45.6478822,-73.5273825,Rivière-des-Prairies-Pointe-aux-Trembles
562,Parc du Fort-Des-Ormeaux,"7775, avenue Des Ormeaux, Montréal",Anjou,45.4805412,-73.802676,Dollard-des-Ormeaux
563,Parc du Fort-Rolland,"Boulevard Saint-Joseph, Montréal",Lachine,45.4411418,-73.6513683,Lachine
564,Parc du Lac-à-la-Loutre,"80, rue de Courcelle, Montréal",Le Sud-Ouest,45.4711442,-73.5855764,Le Sud-Ouest
565,Parc du Mail,"avenue du Mail, Montréal",Anjou,45.6057588,-73.5440285,Anjou
566,Parc du Manoir,"Avenue du Manoir, Montréal",L'Île-Bizard–Sainte-Geneviève,45.5166089,-73.6234057,Outremont
567,Parc du Millénaire,"Rue Saint Léon, Montréal",Pierrefonds-Roxboro,45.4964758,-73.8502522,Pierrefonds-Roxboro
568,Parc du Molise,"8691, rue Rosario-Bayeur, Montréal",Rivière-des-Prairies–Pointe-aux-Trembles,45.6419976,-73.5808044,Rivière-des-Prairies-Pointe-aux-Trembles
569,Parc du Mont-Royal,"2000, chemin Remembrance, Montréal","Côte-des-Neiges–Notre-Dame-de-Grâce, Le Plateau-Mont-Royal, Outremont, Ville-Marie",45.4985062,-73.5992864,Ville-Marie
570,Parc du Moulin-du-Rapide,"9659, rue de Clichy, Montréal",Rivière-des-Prairies–Pointe-aux-Trembles,45.6596612,-73.5723179,Rivière-des-Prairies-Pointe-aux-Trembles
571,Parc du Pélican,"2590, rue Masson, Montréal",Rosemont–La Petite-Patrie,45.5451252,-73.5765343,Rosemont-La Petite-Patrie
572,Parc du Perce-Neige,"Place Talbot, Montréal",Pierrefonds-Roxboro,45.5053059,-73.7799098,Pierrefonds-Roxboro
573,Parc du Père-Marquette,"1602, rue de Bellechasse, Montréal",Rosemont–La Petite-Patrie,45.5409785,-73.5936771,Rosemont-La Petite-Patrie
574,Parc du Pied-du-Courant,"Rue Notre-Dame Est, Montréal",Ville-Marie,45.5848084,-73.5085106,Mercier-Hochelaga-Maisonneuve
575,Parc du Portugal,"Rue Marie-Anne, Montréal",Le Plateau-Mont-Royal,45.5209314,-73.5824025,Le Plateau-Mont-Royal
576,Parc du Premier-Chemin-de-Fer,"4041, rue Notre-Dame Ouest, Montréal",Le Sud-Ouest,45.4668481,-73.5992652,Le Sud-Ouest
577,Parc du Quai-de-la-Tortue,"6000, boulevard LaSalle, Montréal",Verdun,45.446898,-73.5722195,Verdun
578,Parc du Ruisseau-du-Pont-à-l'Avoine,"Rue Everett / 8e avenue, Montréal",Villeray–Saint-Michel–Parc-Extension,,,
579,Parc du Sault-au-Récollet,"2008, rue Prieur Est, Montréal",Ahuntsic-Cartierville,45.5542839,-73.6650445,Ahuntsic-Cartierville
580,Parc du Souvenir,"4525, rue de Verdun, Montréal",Verdun,45.4593022,-73.5718186,Verdun
581,Parc du Vaisseau-d'Or,"3021, rue du Trianon, Montréal",Mercier–Hochelaga-Maisonneuve,45.5890102,-73.5360472,Mercier-Hochelaga-Maisonneuve
582,Parc du Verger,"Rue Beauchemin, Montréal",L'Île-Bizard–Sainte-Geneviève,45.5687,-73.5781173,Rosemont-La Petite-Patrie
583,Parc du Village-Turcot,"5019, rue Vaillant, Montréal",Le Sud-Ouest,45.4707549,-73.5946413,Le Sud-Ouest
584,Parc Dupéré,"4404, rue Saint-Donat, Montréal",Mercier–Hochelaga-Maisonneuve,45.6014342,-73.5342157,Mercier-Hochelaga-Maisonneuve
585,Parc Duquette,"990, rue Dupuis, Montréal",Verdun,45.4662845,-73.5744974,Verdun
586,Parc Duval,"990, rue Dupuis, Montréal",Pierrefonds-Roxboro,45.4662845,-73.5744974,Verdun
587,Parc-école Barclay,"7941, avenue Wiseman, Montréal",Villeray–Saint-Michel–Parc-Extension,45.5289198,-73.63501642435133,Villeray-Saint-Michel-Parc-Extension
588,Parc-école Beechwood,"Rue Sunbury, Montréal",Pierrefonds-Roxboro,45.4968613,-73.8383771,Pierrefonds-Roxboro
589,Parc-école Bishop-Whelan,"Rue René Huguet, Montréal",Lachine,45.4413832,-73.7139363,Lachine
590,Parc-école Calixa-Lavallée,"4444, boulevard Henri-Bourassa Est, Montréal",Montréal-Nord,45.5992306,-73.6393742,Montréal-Nord
591,Parc-école Catherine-Soumillard,"48e Avenue , Montréal",Lachine,45.6552718,-73.5802391,Rivière-des-Prairies-Pointe-aux-Trembles
592,Parc-école Charles-Lemoyne,"Rue Mullins, Montréal",Le Sud-Ouest,45.4781342,-73.5650921,Le Sud-Ouest
593,Parc-école du Grand-Chêne,"Rue de Savoie, Montréal",Pierrefonds-Roxboro,45.5106398,-73.8293603,Pierrefonds-Roxboro
594,Parc-école du Harfang-des-Neiges,"Rue Pierre-Lauzon, Montréal",Pierrefonds-Roxboro,45.5049501,-73.7816328,Pierrefonds-Roxboro
595,Parc-école Édouard VII,"avenue de l'Esplanade, Montréal",Le Plateau-Mont-Royal,45.5441925,-73.6618221,Ahuntsic-Cartierville
596,Parc-école John-Grant,"Rue du Fort Rolland, Montréal",Lachine,45.4354368,-73.6968908,Lachine
597,Parc-école Jules-Verne,"Rue Maurice-Duplessis et avenue P.-M.-Favier, Montréal",Montréal-Nord,,,
598,Parc-école Lakeside Academy,"Rue Sir George Simpson , Montréal",Lachine,45.4474882,-73.7047086,Lachine
599,Parc-école Laurier-Macdonald,"Rue Terbois, Montréal",Saint-Léonard,45.5757349,-73.5858508,Saint-Léonard
600,Parc-école Lester B. Pearson,"Rue Crevier, Montréal",Montréal-Nord,45.5158615,-73.6914982,Saint-Laurent
601,Parc-école Meadowbrook,"Rue Meadowbrook, Montréal",Lachine,45.4431651,-73.7139457,Lachine
602,Parc-école Montcalm," 8800, 12e Avenue, Montréal",Villeray–Saint-Michel–Parc-Extension,45.5696314,-73.6213387,Villeray-Saint-Michel-Parc-Extension
603,Parc-école Pierre-Dupuy,"Rue Larivière, Montréal",Ville-Marie,45.5232599,-73.5630054,Ville-Marie
604,Parc-école Saint-Ambroise,"Rues De Normanville et Beaubien Est, Montréal",Rosemont–La Petite-Patrie,,,
605,Parc-école Saint-Grégoire-le-Grand,"7950, rue Cartier, Montréal",Villeray–Saint-Michel–Parc-Extension,45.55280865,-73.61674315439399,Villeray-Saint-Michel-Parc-Extension
606,Parc-école Saint-Henri,"4115, rue Saint-Jacques, Montréal",Le Sud-Ouest,45.477319963157896,-73.58691185789473,Le Sud-Ouest
607,Parc-école Saint-Jean-Bosco,"Rue Hamilton, Montréal",Le Sud-Ouest,45.4606386,-73.5990478,Le Sud-Ouest
608,Parc-école Saint-Pierre-Apôtre,"8550 Rue Clark, Montréal",Villeray–Saint-Michel–Parc-Extension,45.5398813,-73.6382032,Villeray-Saint-Michel-Parc-Extension
609,Parc-école Saint-Rémi,"10152, avenue de Rome, Montréal",Montréal-Nord,45.5819589,-73.6356214,Montréal-Nord
610,Parc-école Saint-Vincent-Marie,"Avenue Armand-Lavergne, Montréal",Montréal-Nord,45.5960944,-73.6348715,Montréal-Nord
611,Parc-école Sainte-Cécile,"7230 Avenue de Gaspé, Montréal",Villeray–Saint-Michel–Parc-Extension,45.53685125,-73.61790750557437,Villeray-Saint-Michel-Parc-Extension
612,Parc-école Sainte-Gertrude,"Rue des Ardennes et boul. Sainte-Gertrude, Montréal",Montréal-Nord,,,
613,Parc-école Sinclair Laird,"Rue des Ardennes et boul. Sainte-Gertrude, Montréal",Villeray–Saint-Michel–Parc-Extension,,,
614,Parc Edgar-Budge,"Rue Budge, Montréal",Pierrefonds-Roxboro,45.4514272,-73.8868026,Pierrefonds-Roxboro
615,Parc Edmond-Hamelin,"3642, rue Sainte-Catherine Est, Montréal",Mercier–Hochelaga-Maisonneuve,45.514618,-73.5595696,Ville-Marie
616,Parc Édouard-Fabre,"rue Briand, Montréal",Le Sud-Ouest,45.4556668,-73.5939502,Le Sud-Ouest
617,Parc Édouard-Raymond-Fabre,"3641, rue Notre-Dame Est, Montréal",Mercier–Hochelaga-Maisonneuve,45.5443877,-73.5353971,Mercier-Hochelaga-Maisonneuve
618,Parc Elm,"rue Richmond, Montréal",Lachine,45.4432554,-73.6473906,Lachine
619,Parc Émery-Sauvé,"2121, rue Cardinal, Montréal",Le Sud-Ouest,45.46029093229167,-73.59303457291668,Le Sud-Ouest
620,Parc Émile-Berliner,"rue Lenoir, Montréal",Le Sud-Ouest,45.4758788,-73.5908906,Le Sud-Ouest
621,Parc Émile-Nelligan,"4543, avenue Laval, Montréal",Le Plateau-Mont-Royal,45.5202855,-73.5795667,Le Plateau-Mont-Royal
622,Parc Émilio-Iacurto,"12240, rue Emmanuel-Briffa, Montréal",Rivière-des-Prairies–Pointe-aux-Trembles,45.6435825,-73.5768697,Rivière-des-Prairies-Pointe-aux-Trembles
623,Parc Emma-Bourbonnais,"Boulevard Saint-Jean-Baptiste, Montréal",Rivière-des-Prairies–Pointe-aux-Trembles,45.6478822,-73.5273825,Rivière-des-Prairies-Pointe-aux-Trembles
624,Parc Ermanno-La Riccia,"Boulevard Saint-Jean-Baptiste, Montréal",Saint-Léonard,45.6478822,-73.5273825,Rivière-des-Prairies-Pointe-aux-Trembles
625,Parc Ernest-Ouimet,"1812, rue Amherst, Montréal",Ville-Marie,45.4368552,-73.8469915,Beaconsfield
626,Parc Ernest-Rocheleau,"12230, rue Prince-Albert, Montréal",Rivière-des-Prairies–Pointe-aux-Trembles,45.6726505,-73.4950313,Rivière-des-Prairies-Pointe-aux-Trembles
627,Parc Ernest-Rouleau,"7135, boulevard Gouin Est, Montréal",Rivière-des-Prairies–Pointe-aux-Trembles,45.63145712528346,-73.61607192948446,Rivière-des-Prairies-Pointe-aux-Trembles
628,Parc Ethel-Stark,"Rue Prince-Arthur Ouest, Montréal",Le Plateau-Mont-Royal,45.5136325,-73.5727426,Le Plateau-Mont-Royal
629,Parc Étienne-Desmarteau,"rue Beaubien Est, Montréal",Rosemont–La Petite-Patrie,45.5357782,-73.6033946,Rosemont-La Petite-Patrie
630,Parc Eugène-Dostie,"Montée de l'Église, Montréal",L'Île-Bizard–Sainte-Geneviève,45.5011327,-73.8965177,L'Île-Bizard-Sainte-Geneviève
631,Parc Eusèbe-Ménard,"3719, boulevard Gouin Est, Montréal",Montréal-Nord,45.5931575,-73.648429,Montréal-Nord
632,Parc F.-X.-Garneau,"Place Elmwood, Montréal",Outremont,45.5166473,-73.6052336,Outremont
633,Parc Faribault,"Avenue Faribault, Montréal",Mercier–Hochelaga-Maisonneuve,45.5796362,-73.543647,Mercier-Hochelaga-Maisonneuve
634,Parc Félix-Antoine-Savard,"2150-2200, rue Montcalm, Montréal",Ville-Marie,45.515564,-73.5501481,Ville-Marie
635,Parc Félix-Leclerc,"6700, rue François-Boivin, Montréal",Mercier–Hochelaga-Maisonneuve,45.592515,-73.5661727,Mercier-Hochelaga-Maisonneuve
636,Parc Félix-Leclerc - Anjou,"5801, boulevard Louis-H.-La Fontaine, Montréal",Anjou,45.617559,-73.598275,Rivière-des-Prairies-Pointe-aux-Trembles
637,Parc Félix-Leclerc - LaSalle,"1080, avenue Dollard, Montréal",LaSalle,45.4237299,-73.622621,LaSalle
638,Parc Ferdinand-Biondi,"7748, rue Albert-Laberge, Montréal",Rivière-des-Prairies–Pointe-aux-Trembles,45.6308778,-73.5951198,Rivière-des-Prairies-Pointe-aux-Trembles
639,Parc Ferland,"6020, boulevard Lavoisier, Montréal",Saint-Léonard,45.5957301,-73.6000641,Saint-Léonard
640,Parc Fleury-Mesplet,"Rue de la Friponne, Montréal",Ville-Marie,45.5109462,-73.5503491,Ville-Marie
641,Parc Francesca-Cabrini,"rue Cabrini, Montréal",Mercier–Hochelaga-Maisonneuve,45.580978,-73.5648764,Mercier-Hochelaga-Maisonneuve
642,Parc Francesco-Iacurto,"Boulevard Marc-Aurèle-Fortin, Montréal",Rivière-des-Prairies–Pointe-aux-Trembles,45.6194091,-73.5902018,Anjou
643,Parc Francine-Léger,"4350, rue de Rouen, Montréal",Mercier–Hochelaga-Maisonneuve,45.5537445,-73.5431697,Mercier-Hochelaga-Maisonneuve
644,Parc Francis-Daoust,"105, rue Saint-Antoine, Montréal",Lachine,45.4397027,-73.697109,Lachine
645,Parc François-Dollier-De Casson,"Rue Saint-Louis, Montréal",Ville-Marie,45.5047074,-73.676493,Saint-Laurent
646,Parc François-La Bernarde,"Place François-La Bernarde, Montréal",Rivière-des-Prairies–Pointe-aux-Trembles,,,
647,Parc François-Martineau,"Rue Panet, Montréal",Ville-Marie,45.5221886,-73.5596611,Ville-Marie
648,Parc François-Perrault,"7525, rue François-Perrault, Montréal",Villeray–Saint-Michel–Parc-Extension,45.5624595,-73.60057385,Villeray-Saint-Michel-Parc-Extension
649,Parc François-Vaillancourt,"1309, 28e Avenue, Montréal",Rivière-des-Prairies–Pointe-aux-Trembles,45.4345846,-73.6889746,Lachine
650,Parc Frank-Selke–Charon,"Rue Frank-Selke, Montréal",Le Sud-Ouest,45.4786289,-73.5517095,Le Sud-Ouest
651,Parc Fréchette,"Rue Louis-Fréchette, Montréal",Pierrefonds-Roxboro,45.464782,-73.8761883,Pierrefonds-Roxboro
652,Parc Frédéric-Back,"2345, rue Jarry Est, Montréal",Villeray–Saint-Michel–Parc-Extension,45.5585435,-73.6161107,Villeray-Saint-Michel-Parc-Extension
653,Parc G.-Melatti,"Rue Melatti, Montréal",LaSalle,45.4321361,-73.6088044,LaSalle
654,Parc Gabriel-Lalemant,"2244, rue Sauvé Est, Montréal",Ahuntsic-Cartierville,45.57034461774194,-73.64382128064516,Ahuntsic-Cartierville
655,Parc Gabriel-Sagard,"7069, rue Sagard, Montréal",Villeray–Saint-Michel–Parc-Extension,45.5513267,-73.603851,Villeray-Saint-Michel-Parc-Extension
656,Parc Gariepy,"2400, rue Hufford, Montréal",Saint-Laurent,45.5082852,-73.6954903,Saint-Laurent
657,Parc Garneau,"rue du Parc-Garneau, Montréal",Le Sud-Ouest,45.4558978,-73.5945333,Le Sud-Ouest
658,Parc Garon / Amos,"4212, rue d'Amos, Montréal",Montréal-Nord,45.5955156,-73.6391475,Montréal-Nord
659,Parc Gary-Longhi,"7645, 20e Avenue, Montréal",Villeray–Saint-Michel–Parc-Extension,45.56787085,-73.59904185721797,Villeray-Saint-Michel-Parc-Extension
660,Parc Gédéon-De Catalogne,"Square Sir-George-Étienne-Cartier, Montréal",Le Sud-Ouest,45.474126,-73.58743,Le Sud-Ouest
661,Parc George-Springate,"4788, rue Richmond, Montréal",Pierrefonds-Roxboro,45.4920195,-73.843509,Pierrefonds-Roxboro
662,Parc George-Vernot,"8475, 13e Avenue, Montréal",Villeray–Saint-Michel–Parc-Extension,45.568444876,-73.616728756,Villeray-Saint-Michel-Parc-Extension
663,Parc Georges-Gauthier,"8517, place Aldéric-Beaulac, Montréal",Ahuntsic-Cartierville,45.555527,-73.6286099,Ahuntsic-Cartierville
664,Parc Georges-Saint-Pierre,"999, avenue Oxford, Montréal",Côte-des-Neiges–Notre-Dame-de-Grâce,45.4685681,-73.6079398,Côte-des-Neiges-Notre-Dame-de-Grâce
665,Parc Gérard-Picard,"999, avenue Oxford, Montréal",Rivière-des-Prairies–Pointe-aux-Trembles,45.4685681,-73.6079398,Côte-des-Neiges-Notre-Dame-de-Grâce
666,Parc Gérard-Poirier,"Rue Simonne, Montréal",LaSalle,45.4252518,-73.6030134,LaSalle
667,Parc Gérard-Vaillancourt,"13840, rue Gratton, Montréal",Rivière-des-Prairies–Pointe-aux-Trembles,45.4816734,-73.8608947,Pierrefonds-Roxboro
668,Parc Germaine-Casaubon,"1021, rue de la Famille-Dubreuil, Montréal",Rivière-des-Prairies–Pointe-aux-Trembles,45.6937282,-73.4944258,Rivière-des-Prairies-Pointe-aux-Trembles
669,Parc Germaine-Pépin,"8030, rue A.-A.-Desroches, Montréal",Mercier–Hochelaga-Maisonneuve,45.59430737619608,-73.5236180409759,Mercier-Hochelaga-Maisonneuve
670,Parc Gilbert-Layton,"6975, avenue Chester, Montréal",Côte-des-Neiges–Notre-Dame-de-Grâce,45.4660839,-73.6492843,Côte-des-Neiges-Notre-Dame-de-Grâce
671,Parc Gilles-Lefebvre,"4535, avenue Henri-Julien, Montréal",Le Plateau-Mont-Royal,45.5230319,-73.5839462,Le Plateau-Mont-Royal
672,Parc Giovannina-Di Tomasso,"7975, rue De Normanville, Montréal",Villeray–Saint-Michel–Parc-Extension,45.5484841,-73.6206608,Villeray-Saint-Michel-Parc-Extension
673,Parc Giuseppe-Garibaldi,"7125, rue Liénart, Montréal",Saint-Léonard,45.5863259,-73.5699367,Saint-Léonard
674,Parc Gohier,"730, rue Buchanan, Montréal",Saint-Laurent,45.5090109,-73.6814752,Saint-Laurent
675,Parc Gold,"Rue Fraser, Montréal",Saint-Laurent,45.5040824,-73.6923184,Saint-Laurent
676,Parc Goncourt,"7130, avenue Goncourt, Montréal",Anjou,45.60283058641305,-73.5558539798913,Anjou
677,Parc Gouin,"10995, avenue Saint-Charles, Montréal",Ahuntsic-Cartierville,45.5600373,-73.6670889,Ahuntsic-Cartierville
678,Parc Gouin / 55e Avenue,"9477, boulevard Gouin Est, Montréal",Rivière-des-Prairies–Pointe-aux-Trembles,45.65845601724138,-73.57393876551724,Rivière-des-Prairies-Pointe-aux-Trembles
679,Parc Gouin / Le Mesurier,"9185, boulevard Gouin Ouest, Montréal",Ahuntsic-Cartierville,45.5153235,-73.7464197,Ahuntsic-Cartierville
680,Parc Gouin - Montréal-Nord,"6755, boulevard Gouin Est, Montréal",Montréal-Nord,45.6272514,-73.6220522,Montréal-Nord
681,Parc Gouin - Pierrefonds-Roxboro,"2e Rue, Montréal",Pierrefonds-Roxboro,45.6599135,-73.5673843,Rivière-des-Prairies-Pointe-aux-Trembles
682,Parc Goulet,"2201, rue Connaught, Montréal",Saint-Laurent,45.5206437,-73.6999311,Saint-Laurent
683,Parc Graham,"Rue Graham, Montréal",Pierrefonds-Roxboro,45.4824507,-73.8510232,Pierrefonds-Roxboro
684,Parc Grand Trunk–Shearer,"Rue Grand Trunk, Montréal",Le Sud-Ouest,45.4841008,-73.5590715,Le Sud-Ouest
685,Parc Gravel,"Rue Gravel, Montréal",Pierrefonds-Roxboro,45.4336438,-73.645302,LaSalle
686,Parc Greendale,"Rue King, Montréal",Pierrefonds-Roxboro,45.4979788,-73.5543989,Ville-Marie
687,Parc Grenier,"3524, boulevard LaSalle, Montréal",Verdun,45.4263482,-73.6617431,LaSalle
688,Parc Grier,"4590, rue des Cageux, Montréal",Pierrefonds-Roxboro,45.457475075,-73.880411325,Pierrefonds-Roxboro
689,Parc Grou,"Rue Théberge, Montréal",Saint-Laurent,45.5091968,-73.6728967,Saint-Laurent
690,Parc Grovehill,"640, 36e Avenue, Montréal",Lachine,45.4436419,-73.6963292,Lachine
691,Parc Guglielmo-Marconi,"Boulevard Saint-Laurent et rue Jean-Talon Est, Montréal",Rosemont–La Petite-Patrie,,,
692,Parc Guido-Nincheri,"Avenue Jeanne-d'Arc et rue Rachel Est, Montréal",Rosemont–La Petite-Patrie,,,
693,Parc Guillaume-Bruneau,"Rue Jean-Gascon, Montréal",Saint-Laurent,45.5096833,-73.7263864,Saint-Laurent
694,Parc Guillaume-Couture,"6310, avenue Albani, Montréal",Mercier–Hochelaga-Maisonneuve,45.5834228,-73.5597377,Mercier-Hochelaga-Maisonneuve
695,Parc Guillaume-Gamelin-Gaucher,"Rue Guillaume, Montréal",Pierrefonds-Roxboro,45.4682099,-73.8786496,Pierrefonds-Roxboro
696,Parc Guinois,"Au coin de la rue Guinois et de la 12e Avenue, Montréal",Villeray–Saint-Michel–Parc-Extension,,,
697,Parc Guybourg,"6310, rue Du Quesne, Montréal",Mercier–Hochelaga-Maisonneuve,45.5821981,-73.5608043,Mercier-Hochelaga-Maisonneuve
698,Parc Hans-Selye,"7521, Avenue André-Ampère, Montréal",Rivière-des-Prairies–Pointe-aux-Trembles,45.6309811629452,-73.60113247017148,Rivière-des-Prairies-Pointe-aux-Trembles
699,Parc Harris,"1365, avenue O'Brien, Montréal",Saint-Laurent,45.5157169,-73.6807013,Saint-Laurent
700,Parc Harry-Ross,"rue Sir George Simpson, Montréal",Lachine,45.4474882,-73.7047086,Lachine
701,Parc Hartenstein,"1505, rue Cardinal, Montréal",Saint-Laurent,45.5160559,-73.6900114,Saint-Laurent
702,Parc Hayward,"Avenue Orchard, Montréal",LaSalle,45.4227349,-73.6475287,LaSalle
703,Parc Hébert,"7505, boulevard Provencher, Montréal",Saint-Léonard,45.57196665592708,-73.59268533669953,Saint-Léonard
704,Parc Hébert - LaSalle,", 68e Avenue, Montréal",LaSalle,45.4185917,-73.6273674,LaSalle
705,Parc Hector-Charland,"1662, rue de la Visitation, Montréal",Ville-Marie,45.5204133,-73.558144875,Ville-Marie
706,Parc Hector-Toe-Blake,"Avenue Hope, Montréal",Ville-Marie,45.4895661,-73.5806525,Ville-Marie
707,Parc Hector-Vinet,"Avenue Hector, Montréal",Mercier–Hochelaga-Maisonneuve,45.6110175,-73.5171794,Mercier-Hochelaga-Maisonneuve
708,Parc Hélène-Legault,"Rue Hélène, Montréal",Pierrefonds-Roxboro,45.431242,-73.6290873,LaSalle
709,Parc Henri-Bourassa,"6100, rue Pascal, Montréal",Montréal-Nord,45.6155173,-73.6244639,Montréal-Nord
710,Parc Henri-Julien,"9300, rue Saint-Denis, Montréal",Ahuntsic-Cartierville,45.5480974,-73.6489555,Ahuntsic-Cartierville
711,Parc Henri-Valade,"Place Henri-Valade, Montréal",Rosemont–La Petite-Patrie,45.5480174,-73.5681637,Rosemont-La Petite-Patrie
712,Parc Henry-Morgentaler,"Parc Henry-Morgentaler, Montréal",Mercier–Hochelaga-Maisonneuve,45.5928235,-73.52889798796373,Mercier-Hochelaga-Maisonneuve
713,Parc Herb-Trawick,"1742, rue Notre-Dame Ouest, Montréal",Le Sud-Ouest,45.48859817356289,-73.56823492333008,Le Sud-Ouest
714,Parc Herbert-Brown-Ames,"Rue des Seigneurs, Montréal",Le Sud-Ouest,45.4900859,-73.5740236,Le Sud-Ouest
715,Parc Herbert-Outerbridge,"avenue Benny, Montréal",Côte-des-Neiges–Notre-Dame-de-Grâce,45.4671762,-73.6319912,Côte-des-Neiges-Notre-Dame-de-Grâce
716,Parc Highlands,"Avenue Highlands, Montréal",LaSalle,45.4259049,-73.6574828,LaSalle
717,Parc Hilda-Ramacière,"Rue De Bullion, Montréal",Le Plateau-Mont-Royal,45.5230069,-73.587932,Le Plateau-Mont-Royal
718,Parc Hillcrest,"Rue Hillcrest, Montréal",Pierrefonds-Roxboro,45.4633445,-73.870886,Pierrefonds-Roxboro
719,Parc Hirsch-Wolofsky,"3482, avenue Coloniale, Montréal",Le Plateau-Mont-Royal,45.5200227,-73.5831893,Le Plateau-Mont-Royal
720,Parc Hochelaga,"1672, rue Davidson, Montréal",Mercier–Hochelaga-Maisonneuve,45.5431452,-73.5466403,Mercier-Hochelaga-Maisonneuve
721,Parc Honoré-Mercier,"8400, rue Bellerive, Montréal",Mercier–Hochelaga-Maisonneuve,45.5961388,-73.510002,Mercier-Hochelaga-Maisonneuve
722,Parc Honoré-Primeau,"9332, place Honoré-Primeau, Montréal",Rivière-des-Prairies–Pointe-aux-Trembles,45.65466593496854,-73.57384327406943,Rivière-des-Prairies-Pointe-aux-Trembles
723,Parc Houde,"378, rue Gratton, Montréal",Saint-Laurent,45.4816734,-73.8608947,Pierrefonds-Roxboro
724,Parc Howard,"8505, avenue De L'Épée, Montréal",Villeray–Saint-Michel–Parc-Extension,45.533273,-73.641962,Villeray-Saint-Michel-Parc-Extension
725,Parc Idola-Saint-Jean,"8505, avenue De L'Épée, Montréal",Rosemont–La Petite-Patrie,45.533273,-73.641962,Villeray-Saint-Michel-Parc-Extension
726,Parc Ignace-Bourget,"5925, avenue de Montmagny, Montréal",Le Sud-Ouest,45.4579503,-73.6042162,Le Sud-Ouest
727,Parc Île Haynes,"13548, boulevard Gouin Est, Montréal",Rivière-des-Prairies–Pointe-aux-Trembles,45.5706212,-73.6603636,Ahuntsic-Cartierville
728,Parc Irma-Le Vasseur,"avenue Dollard, Montréal",Outremont,45.4305078,-73.6345651,LaSalle
729,Parc Isaac-Abrabanel,"Rue Saint-Louis, Montréal",Saint-Laurent,45.5047074,-73.676493,Saint-Laurent
730,Parc Ivan-Franko,"3345, rue Victoria, Montréal",Lachine,45.436291,-73.6774257,Lachine
731,Parc J.-Albert-Gariépy,"10, allée des Brises-du-Fleuve, Montréal",Verdun,45.4611687,-73.562107,Verdun
732,Parc J.-Arthur-Champagne,"3696, avenue du Mont-Royal Est, Montréal",Rosemont–La Petite-Patrie,45.5250155,-73.5821031,Le Plateau-Mont-Royal
733,Parc J.-D.-Ducharme,"Angle des rues Jean-Brillon et Rancourt, Montréal",LaSalle,,,
734,Parc J.O.R.-Leduc,"Rue Béique, Montréal",LaSalle,45.4278382,-73.6311944,LaSalle
735,Parc J.-Z.-Léon-Patenaude,"Rue Cherrier, Montréal",Le Plateau-Mont-Royal,45.4897832,-73.8727792,L'Île-Bizard-Sainte-Geneviève
736,Parc Jacques-Blanchet,"1848, avenue Jeanne-d'Arc, Montréal",Mercier–Hochelaga-Maisonneuve,45.549127804173,-73.54086010247732,Mercier-Hochelaga-Maisonneuve
737,Parc Jacques-Cardinal,"Boulevard Gouin Ouest, Montréal",L'Île-Bizard–Sainte-Geneviève,45.5373821,-73.712184,Ahuntsic-Cartierville
738,Parc Jacques-Couture,"Rue Notre Dame Ouest, Montréal",Le Sud-Ouest,45.4915954,-73.5659217,Ville-Marie
739,Parc Jacques-Parizeau,"Avenue de Vimy, Montréal",Outremont,45.51594,-73.6263347,Côte-des-Neiges-Notre-Dame-de-Grâce
740,Parc Jacques-Tessier dit Lavigne,"Avenue du Manoir, Montréal",Outremont,45.5166089,-73.6234057,Outremont
741,Parc Jacques-Viger,"259, rue Saint-Philippe, Montréal",Le Sud-Ouest,45.47513422857143,-73.58396755238095,Le Sud-Ouest
742,Parc Jacynthe-Fyfe,"11e Avenue, Montréal",Pierrefonds-Roxboro,45.4266963,-73.6032769,LaSalle
743,Parc Jarry,"205, rue Gary-Carter, Montréal",Villeray–Saint-Michel–Parc-Extension,45.5347697,-73.62337938333333,Villeray-Saint-Michel-Parc-Extension
744,Parc Jean-Amyot,"6110, rue de Marseille, Montréal",Mercier–Hochelaga-Maisonneuve,45.57672766666667,-73.54067979999999,Mercier-Hochelaga-Maisonneuve
745,Parc Jean-Brillant - Côte-des-Neiges–Notre-Dame-de-Grâce,"5252, avenue Decelles, Montréal",Côte-des-Neiges–Notre-Dame-de-Grâce,45.5016065,-73.6275705,Côte-des-Neiges-Notre-Dame-de-Grâce
746,Parc Jean-Brillant - Pierrefonds-Roxboro,"Avenue Jean-Brillant, Montréal",Pierrefonds-Roxboro,45.5083298,-73.8066251,Pierrefonds-Roxboro
747,Parc Jean-Charbonneau,"Rue Montcalm, Montréal",Ville-Marie,45.515564,-73.5501481,Ville-Marie
748,Parc Jean-Drapeau,"1, circuit Gilles-Villeneuve, Montréal",Ville-Marie,,,
749,Parc Jean-Duceppe,"Rue André-Laurendeau, Montréal",Rosemont–La Petite-Patrie,45.5440527,-73.5661178,Rosemont-La Petite-Patrie
750,Parc Jean-et-Éva-Tremblay,"Rue André-Laurendeau, Montréal",Rosemont–La Petite-Patrie,45.5440527,-73.5661178,Rosemont-La Petite-Patrie
751,Parc Jean-Jacques-Olier,"Rue Drolet, Montréal",Le Plateau-Mont-Royal,45.536096,-73.6120206,Rosemont-La Petite-Patrie
752,Parc Jean-Jacques-Rousseau,"Rue des Iris, Montréal",Rivière-des-Prairies–Pointe-aux-Trembles,45.6602416,-73.5504437,Rivière-des-Prairies-Pointe-aux-Trembles
753,Parc Jean-Louis-Beaudry,"520, rue Louis-Payette, Montréal",Mercier–Hochelaga-Maisonneuve,45.5537924,-73.5304009,Mercier-Hochelaga-Maisonneuve
754,Parc Jean-Marie-Lamonde,"7634, avenue De Chateaubriand, Montréal",Villeray–Saint-Michel–Parc-Extension,45.543268705,-73.620962975,Villeray-Saint-Michel-Parc-Extension
755,Parc Jean-Martucci,"1207, rue Étienne-Blanchard, Montréal",Ahuntsic-Cartierville,45.5559706,-73.6337287,Ahuntsic-Cartierville
756,Parc Jean-Narrache,"Rue Saint-Timothée, Montréal",Ville-Marie,45.5170002,-73.5574944,Ville-Marie
757,Parc Jeanne-Lapierre,"13201, rue Ève-Gagnier, Montréal",Rivière-des-Prairies–Pointe-aux-Trembles,45.6602002,-73.5155212,Rivière-des-Prairies-Pointe-aux-Trembles
758,Parc Jeanne-Mance,"4422, avenue de l'Esplanade, Montréal",Le Plateau-Mont-Royal,45.5177321,-73.58681530000001,Le Plateau-Mont-Royal
759,Parc Jeanne-Sauvé,"451, boulevard Gouin Est, Montréal",Ahuntsic-Cartierville,45.5706212,-73.6603636,Ahuntsic-Cartierville
760,Parc Jeannotte,"500, rue Laplante, Montréal",LaSalle,45.432527,-73.6392309,LaSalle
761,Parc Jehane-Benoît,"Rue de Malines, Montréal",Le Plateau-Mont-Royal,45.518116,-73.5690359,Le Plateau-Mont-Royal
762,Parc Jessie-Maxwell-Smith,"Rue Richmond, Montréal",Le Sud-Ouest,45.4432554,-73.6473906,Lachine
763,Parc Joannette,"292, rue Hickson, Montréal",Verdun,45.4653229,-73.5765778,Verdun
764,Parc Joe-Beef,"1659, rue Centre, Montréal",Le Sud-Ouest,45.4784153,-73.569283,Le Sud-Ouest
765,Parc John F.-Kennedy,"Avenue Outremont, Montréal",Outremont,45.517565,-73.6057208,Outremont
766,Parc Joly,"Rue Joly, Montréal",L'Île-Bizard–Sainte-Geneviève,45.5041884,-73.8147605,Pierrefonds-Roxboro
767,Parc Jonathan-Wilson,"3243, boulevard Chèvremont, Montréal",L'Île-Bizard–Sainte-Geneviève,45.5000951,-73.8701403,L'Île-Bizard-Sainte-Geneviève
768,Parc Jos-Montferrand,"2560, boulevard De Maisonneuve Est, Montréal",Ville-Marie,45.5160877,-73.5603048,Ville-Marie
769,Parc Joseph-Avila-Proulx,"Rue Dubuisson, Montréal",L'Île-Bizard–Sainte-Geneviève,45.4963335,-73.8808235,L'Île-Bizard-Sainte-Geneviève
770,Parc Joseph-N.-Drapeau,"Rue Dubuisson, Montréal",Rosemont–La Petite-Patrie,45.4963335,-73.8808235,L'Île-Bizard-Sainte-Geneviève
771,Parc Joseph-Octave-Villeneuve,"524, rue Sarto-Fournier, Montréal",Mercier–Hochelaga-Maisonneuve,45.5579927,-73.5278645,Mercier-Hochelaga-Maisonneuve
772,Parc Joseph-Paré,"43e Avenue, Montréal",Rosemont–La Petite-Patrie,45.4183222,-73.6191356,LaSalle
773,Parc Joseph-Robin,"Rue Everett, Montréal",Villeray–Saint-Michel–Parc-Extension,45.5427155,-73.6165794,Villeray-Saint-Michel-Parc-Extension
774,Parc Joseph-Thibaudeau,"5755, avenue Pierre-De Coubertin, Montréal",Mercier–Hochelaga-Maisonneuve,45.5992462,-73.5235756,Mercier-Hochelaga-Maisonneuve
775,Parc Jovette-Marchessault,"1621, rue Plessis, Montréal",Ville-Marie,45.52176667120114,-73.55673911439136,Ville-Marie
776,Parc Joyce,"650, avenue Rockland, Montréal",Outremont,45.515283971428566,-73.61437147142857,Outremont
777,Parc Judith-Jasmin,"Rue Montcalm, Montréal",Ville-Marie,45.515564,-73.5501481,Ville-Marie
778,Parc Julia-Drummond,"Rue Montcalm, Montréal",Ville-Marie,45.515564,-73.5501481,Ville-Marie
779,Parc Julie-Dauth,"Rue Julie, Montréal",Pierrefonds-Roxboro,45.470385,-73.882164,Pierrefonds-Roxboro
780,Parc Julie-Hamelin,"8402, 2e Avenue, Montréal",Villeray–Saint-Michel–Parc-Extension,45.5632207,-73.6183833,Villeray-Saint-Michel-Parc-Extension
781,Parc Juliette-Huot,"rue Sainte-Claire, Montréal",Mercier–Hochelaga-Maisonneuve,45.6107142,-73.5195256,Mercier-Hochelaga-Maisonneuve
782,Parc Kirkland,"123, rue Léo-Pétrin, Montréal",Lachine,45.4466295,-73.6479952,Lachine
783,Parc L’Archevêque,"Rue Muir, Montréal",Saint-Laurent,45.5237737,-73.6721091,Saint-Laurent
784,Parc L.-O.-Taillon,"9200, rue Notre-Dame Est, Montréal",Mercier–Hochelaga-Maisonneuve,45.60581570678325,-73.51212723975443,Mercier-Hochelaga-Maisonneuve
785,Parc La Fontaine,"3819, avenue Calixa-Lavallée, Montréal",Le Plateau-Mont-Royal,45.5270684,-73.5693956,Le Plateau-Mont-Royal
786,Parc Labelle,"boulevard Henri-Duhamel, Montréal",Verdun,45.4723005,-73.5695446,Verdun
787,Parc Labrosse,"Rue Labrosse, Montréal",Pierrefonds-Roxboro,45.5098254,-73.820464,Pierrefonds-Roxboro
788,Parc Lacasse,"Rue Lacasse, Montréal",Le Sud-Ouest,45.4768823,-73.5910278,Le Sud-Ouest
789,Parc Lacharité,"8762, rue Centrale, Montréal",LaSalle,45.4178137,-73.6438677,LaSalle
790,Parc Lacordaire,"12576, boulevard Lacordaire, Montréal",Montréal-Nord,45.61677611176471,-73.63084898235294,Montréal-Nord
791,Parc Lacoursière,"chemin du Golf, Montréal",Verdun,45.4675655,-73.5479722,Verdun
792,Parc Ladauversière,"7560, boulevard Lacordaire, Montréal",Saint-Léonard,45.5818598,-73.584296,Saint-Léonard
793,Parc Lady-Alys-Robi,"6575, rue Cabrini, Montréal",Mercier–Hochelaga-Maisonneuve,45.580978,-73.5648764,Mercier-Hochelaga-Maisonneuve
794,Parc Lafond,"3500, avenue Laurier Est, Montréal",Rosemont–La Petite-Patrie,45.5521213,-73.5699362,Rosemont-La Petite-Patrie
795,Parc Lahaie,"4921, boulevard Saint-Laurent, Montréal",Le Plateau-Mont-Royal,45.5519161,-73.6763449,Ahuntsic-Cartierville
796,Parc Lalancette,"2315, rue Nicolet, Montréal",Mercier–Hochelaga-Maisonneuve,45.5480242,-73.548539,Mercier-Hochelaga-Maisonneuve
797,Parc Lalande,"4e Avenue Sud, Montréal",Pierrefonds-Roxboro,45.507127,-73.7983869,Pierrefonds-Roxboro
798,Parc LaSalle,"10661, rue Victoria, Montréal",Lachine,45.436291,-73.6774257,Lachine
799,Parc Laval,"Avenue Laval, Montréal",Le Plateau-Mont-Royal,45.5160563,-73.5702951,Le Plateau-Mont-Royal
800,Parc Lawrence,"Rue Beyries, Montréal",LaSalle,45.4187952,-73.6255284,LaSalle
801,Parc Le Ber,"202, avenue Ash, Montréal",Le Sud-Ouest,45.4780825,-73.5520569,Le Sud-Ouest
802,Parc Le Carignan,"11481, avenue P.-M.-Favier, Montréal",Montréal-Nord,45.6093388,-73.6157397,Montréal-Nord
803,Parc Le Prévost,"7275, avenue Christophe-Colomb, Montréal",Villeray–Saint-Michel–Parc-Extension,45.543459920000004,-73.6139635,Villeray-Saint-Michel-Parc-Extension
804,Parc Leduc,"Avenue Godfrey, Montréal",Côte-des-Neiges–Notre-Dame-de-Grâce,45.4675226,-73.6263865,Côte-des-Neiges-Notre-Dame-de-Grâce
805,Parc Lefebvre,"8600, rue Hardy, Montréal",LaSalle,45.4373064,-73.6352858,LaSalle
806,Parc Leman,"Rue Leman , Montréal",Villeray–Saint-Michel–Parc-Extension,45.5468587,-73.6311727,Villeray-Saint-Michel-Parc-Extension
807,Parc Léo-Marceau,"Rue Marceau, Montréal",Pierrefonds-Roxboro,45.5042786,-73.8518604,Pierrefonds-Roxboro
808,Parc Léon-Brisebois,"Rue Léon-Brisebois, Montréal",L'Île-Bizard–Sainte-Geneviève,45.495984,-73.8672762,L'Île-Bizard-Sainte-Geneviève
809,Parc Léon-Provancher,"5576, boulevard Pie-IX, Montréal",Rosemont–La Petite-Patrie,45.55971555058823,-73.57104541058824,Rosemont-La Petite-Patrie
810,Parc Leroux,"Angle de la rue Centrale et de l'avenue Lacharité, Montréal",LaSalle,,,
811,Parc Lhasa-De Sela,"Rue Saint-Urbain, Montréal",Le Plateau-Mont-Royal,45.5104549,-73.5686116,Ville-Marie
812,Parc Liébert,"2848, rue Liébert, Montréal",Mercier–Hochelaga-Maisonneuve,45.5938206,-73.5159358,Mercier-Hochelaga-Maisonneuve
813,Parc linéaire de la Coulée-Grou,"rue Sherbrooke Est, Montréal",Rivière-des-Prairies–Pointe-aux-Trembles,45.6929645,-73.4969314,Rivière-des-Prairies-Pointe-aux-Trembles
814,Parc linéaire du Réseau-Vert,"Le long de la voie ferrée du Canadien Pacifique , Montréal",Rosemont–La Petite-Patrie,,,
815,Parc Lionais,"Rue Lionais, Montréal",Le Plateau-Mont-Royal,45.5196162,-73.5809528,Le Plateau-Mont-Royal
816,Parc Lomer-Gouin,"2034, boulevard Gouin Est, Montréal",Ahuntsic-Cartierville,45.57343168095238,-73.65939542857143,Ahuntsic-Cartierville
817,Parc London,"Rue London, Montréal",Pierrefonds-Roxboro,45.507286,-73.8490037,Pierrefonds-Roxboro
818,Parc Louis-Cyr,"167, rue Saint-Ferdinand, Montréal",Le Sud-Ouest,45.4753259,-73.5828076,Le Sud-Ouest
819,Parc Louis-Hébert,"1535, boulevard Gouin Est, Montréal",Ahuntsic-Cartierville,45.5646439,-73.6633523,Ahuntsic-Cartierville
820,Parc Louis-Marie-Gagnon,"24, rue Airlie, Montréal",LaSalle,45.4253166,-73.6501231,LaSalle
821,Parc Louis-Querbes,"4662, rue de Charleroi, Montréal",Montréal-Nord,45.5957411,-73.632987975,Montréal-Nord
822,Parc Louis-Reitman,"3806, rue Saint-Dominique, Montréal",Le Plateau-Mont-Royal,45.5089179,-73.5602373,Ville-Marie
823,Parc Louis-Riel,"5850, rue De Carignan, Montréal",Mercier–Hochelaga-Maisonneuve,,,
824,Parc Louise-Deschênes,"5, 3e Rue, Montréal",Pierrefonds-Roxboro,45.5148461,-73.8136017,Pierrefonds-Roxboro
825,Parc Loyola,"4877, avenue Doherty, Montréal",Côte-des-Neiges–Notre-Dame-de-Grâce,45.4610545,-73.6479012,Côte-des-Neiges-Notre-Dame-de-Grâce
826,Parc Luc-Durand,"600, rue des Ateliers, Montréal",Rosemont–La Petite-Patrie,45.531604099999996,-73.59634885999999,Rosemont-La Petite-Patrie
827,Parc Lucia-Kowaluk,"257, rue Léo-Pariseau, Montréal",Le Plateau-Mont-Royal,45.511351,-73.5771442,Le Plateau-Mont-Royal
828,Parc Lucie-Bruneau,"7051, avenue de l'Alsace, Montréal",Anjou,45.6036608,-73.5825274,Anjou
829,Parc Lucien-Caron,"3751, boulevard Gaétan-Laberge, Montréal",Verdun,45.4712981,-73.560214,Le Sud-Ouest
830,Parc Lucien-Côté,"Rue Robert, Montréal",L'Île-Bizard–Sainte-Geneviève,45.4310948,-73.6213803,LaSalle
831,Parc Lucille-Teasdale,"Rue Alfred-Duranleau, Montréal",Mercier–Hochelaga-Maisonneuve,45.5789544,-73.5592641,Mercier-Hochelaga-Maisonneuve
832,Parc Ludger-Beauregard,"Avenue McNider, Montréal",Outremont,45.5162406,-73.5941305,Outremont
833,Parc Ludger-Duvernay,"Rue Saint-Grégoire et rue Saint-André, Montréal",Le Plateau-Mont-Royal,,,
834,Parc Ludmilla-Chiriaeff,"6e Avenue et rue Olivette-Thibault, Montréal",Rosemont–La Petite-Patrie,,,
835,Parc Luigi-Pirandello," 4550, rue de Compiègne, Montréal",Saint-Léonard,45.5789687,-73.6044855,Saint-Léonard
836,Parc Macdonald,"5335, avenue Clanranald, Montréal",Côte-des-Neiges–Notre-Dame-de-Grâce,45.48385145,-73.63618654999999,Côte-des-Neiges-Notre-Dame-de-Grâce
837,Parc Mackenzie-King,"4907, avenue Saint-Kevin, Montréal",Côte-des-Neiges–Notre-Dame-de-Grâce,45.48965415,-73.63292629320819,Côte-des-Neiges-Notre-Dame-de-Grâce
838,Parc Madeleine-Huguenin,"Rue Madeleine-Huguenin, Montréal",Mercier–Hochelaga-Maisonneuve,45.5924081,-73.5232992,Mercier-Hochelaga-Maisonneuve
839,Parc Madeleine-Parent,"2983, rue Saint-Patrick, Montréal",Le Sud-Ouest,45.4355113,-73.6542011,LaSalle
840,Parc Magnan,"2337, rue Magnan, Montréal",Ville-Marie,45.5298479,-73.5529608,Ville-Marie
841,Parc Mahatma-Gandhi,"Chemin Hudson, Montréal",Côte-des-Neiges–Notre-Dame-de-Grâce,45.5068597,-73.6313943,Côte-des-Neiges-Notre-Dame-de-Grâce
842,Parc Maher,"Angle des rues Maher et Boivin, Montréal",LaSalle,,,
843,Parc Maisonneuve,"4601, rue Sherbrooke Est, Montréal",Rosemont–La Petite-Patrie,45.5652369,-73.5547631,Rosemont-La Petite-Patrie
844,Parc Marc-Cantin–Carrie-Derick,"Rue Marc-Cantin, Montréal",Le Sud-Ouest,45.4791664,-73.5439878,Le Sud-Ouest
845,Parc Marcel-Laurin,"2345, boulevard Thimens, Montréal",Saint-Laurent,45.5079871,-73.70119532827582,Saint-Laurent
846,Parc Marcel-Léger,"14678, rue Notre-Dame Est, Montréal",Rivière-des-Prairies–Pointe-aux-Trembles,45.5858544,-73.5078805,Mercier-Hochelaga-Maisonneuve
847,Parc Marcelin,"Rue Marcelin, Montréal",L'Île-Bizard–Sainte-Geneviève,45.5063772,-73.8639055,L'Île-Bizard-Sainte-Geneviève
848,Parc Marcelin-Wilson,"11301, boulevard de l'Acadie, Montréal",Ahuntsic-Cartierville,45.5359993,-73.6842383,Ahuntsic-Cartierville
849,Parc Marcelle-Barthe,"1844, rue Montcalm, Montréal",Ville-Marie,45.52038770504202,-73.56101188907563,Ville-Marie
850,Parc Marguerite-Bourgeoys,"2286, rue Wellington, Montréal",Le Sud-Ouest,45.4681731,-73.5663,Verdun
851,Parc Marguerite-Bourgeoys (RDP-PAT),"11591, rue René-Lévesque, Montréal",Rivière-des-Prairies–Pointe-aux-Trembles,45.6352458,-73.5029483,Rivière-des-Prairies-Pointe-aux-Trembles
852,Parc Maria-Goretti,"488, 85e Avenue, Montréal",Rivière-des-Prairies–Pointe-aux-Trembles,45.691746050000006,-73.48776636492585,Rivière-des-Prairies-Pointe-aux-Trembles
853,Parc Marian-Dale-Scott,"Rue Madeleine-Dansereau, Montréal",Rosemont–La Petite-Patrie,45.5453924,-73.5643142,Rosemont-La Petite-Patrie
854,Parc Marie-Cardinal,"Rue Jacques-Rousseau , Montréal",Rivière-des-Prairies–Pointe-aux-Trembles,45.6334921,-73.607894,Rivière-des-Prairies-Pointe-aux-Trembles
855,Parc Marie-Claire-Daveluy,"12180, avenue Jean-Yves-Bigras, Montréal",Rivière-des-Prairies–Pointe-aux-Trembles,45.6490698,-73.5684006,Rivière-des-Prairies-Pointe-aux-Trembles
856,Parc Marie-Claire-Kirkland-Casgrain,"8970, boulevard LaSalle, Montréal",LaSalle,45.4158764,-73.6324026,LaSalle
857,Parc Marie-Coron,"13379, rue René-Lévesque, Montréal",Rivière-des-Prairies–Pointe-aux-Trembles,45.650304,-73.4950633,Rivière-des-Prairies-Pointe-aux-Trembles
858,Parc Marie-Gérin-Lajoie,"13379, rue René-Lévesque, Montréal",Côte-des-Neiges–Notre-Dame-de-Grâce,45.650304,-73.4950633,Rivière-des-Prairies-Pointe-aux-Trembles
859,Parc Marie-Victorin,"Boul. Maurice-Duplessis et boul. Albert-Hudon, Montréal",Montréal-Nord,,,
860,Parc Marin,"chemin du Club Marin, Montréal",Verdun,45.4609254,-73.5537116,Verdun
861,Parc Marlborough,"2305, rue Beauzèle, Montréal",Saint-Laurent,45.5223451,-73.719727,Saint-Laurent
862,Parc Marroni,"Angle avenue Dupras et rue Marroni, Montréal",LaSalle,,,
863,Parc Marthe-Thiery,"Rue Montcalm, Montréal",Ville-Marie,45.515564,-73.5501481,Ville-Marie
864,Parc Martin,"Terrasse Martin, Montréal",L'Île-Bizard–Sainte-Geneviève,45.5067873,-73.9084369,L'Île-Bizard-Sainte-Geneviève
865,Parc Martin-Luther-King,"3453, avenue de Kent, Montréal",Côte-des-Neiges–Notre-Dame-de-Grâce,45.5030133,-73.63197398742423,Côte-des-Neiges-Notre-Dame-de-Grâce
866,Parc Martineau,"Rue McVey, Montréal",LaSalle,45.4292948,-73.6637037,LaSalle
867,Parc Maurice-Bélanger,"10401, avenue Hébert, Montréal",Montréal-Nord,45.5880369,-73.6320746,Montréal-Nord
868,Parc Maurice-Cullen,"4770, chemin Circle, Montréal",Côte-des-Neiges–Notre-Dame-de-Grâce,45.4834934,-73.6200331,Côte-des-Neiges-Notre-Dame-de-Grâce
869,Parc Maurice-Richard,"670, avenue Park Stanley, Montréal",Ahuntsic-Cartierville,45.5586811,-73.6723913,Ahuntsic-Cartierville
870,Parc Maynard-Ferguson,"44, rue Claude-Vivier, Montréal",Verdun,45.44732243183346,-73.55803580538162,Verdun
871,Parc Médéric-Archambault,"44, rue Claude-Vivier, Montréal",Rivière-des-Prairies–Pointe-aux-Trembles,45.44732243183346,-73.55803580538162,Verdun
872,Parc Médéric-Martin,"2329, avenue Gascon, Montréal",Ville-Marie,45.535899792537315,-73.55673144626866,Ville-Marie
873,Parc Ménard,"Boulevard Gouin Ouest, Montréal",Pierrefonds-Roxboro,45.5373821,-73.712184,Ahuntsic-Cartierville
874,Parc Ménard - LaSalle,"9640, rue Clément, Montréal",LaSalle,45.4346813,-73.6533865,LaSalle
875,Parc Ménard - Montréal-Nord,"3781, place Ménard, Montréal",Montréal-Nord,45.5869715,-73.6397725,Montréal-Nord
876,Parc Messier,"Rue Messier, Montréal",Ville-Marie,45.5317038,-73.5596179,Ville-Marie
877,Parc Mia-Riddez-Morisset,"Rue Rose-Ouellette, Montréal",Rosemont–La Petite-Patrie,45.5444314,-73.5644974,Rosemont-La Petite-Patrie
878,Parc Michel-Ange,"3615 rue Michel-Ange, Montréal",Villeray–Saint-Michel–Parc-Extension,45.56317541666667,-73.59697596111111,Villeray-Saint-Michel-Parc-Extension
879,Parc Michel-Bourdon,"4507, rue Joseph-A.-Rodier, Montréal",Mercier–Hochelaga-Maisonneuve,45.5950356,-73.5374336,Mercier-Hochelaga-Maisonneuve
880,Parc Michel-Ménard,"1995, croissant Roy, Montréal",Lachine,45.446795,-73.6824811,Lachine
881,Parc Micheline-Coulombe-Saint-Marcoux,"Rue Rina-Lasnier, Montréal",Rosemont–La Petite-Patrie,45.5820769,-73.5675318,Saint-Léonard
882,Parc Mignault,"Rue Senneville, Montréal",Mercier–Hochelaga-Maisonneuve,45.5844473,-73.5463353,Mercier-Hochelaga-Maisonneuve
883,Parc Mile End,"Avenue du Parc, Montréal",Le Plateau-Mont-Royal,45.5187715,-73.5938511,Le Plateau-Mont-Royal
884,Parc Miville-Couture,"1215, rue Atateken, Montréal",Ville-Marie,45.5166237,-73.5549948,Ville-Marie
885,Parc Mohawk,"rue Dalmany, Montréal",LaSalle,45.4296415,-73.659488,LaSalle
886,Parc Molson,"2473, rue Beaubien Est, Montréal",Rosemont–La Petite-Patrie,45.5341408,-73.6047549,Rosemont-La Petite-Patrie
887,Parc Monk,"711, boulevard Saint-Joseph, Montréal",Lachine,45.4313957,-73.6702982,Lachine
888,Parc Monk - Pierrefonds-Roxboro,"Rue Monk, Montréal",Pierrefonds-Roxboro,45.5026265,-73.8432728,Pierrefonds-Roxboro
889,Parc Monseigneur-J.-A.-Richard,"5150, boulevard LaSalle, Montréal",Verdun,45.454556787442044,-73.56552593004854,Verdun
890,Parc Monseigneur-Langlois,"rue Galt, Montréal",Verdun,45.4624444,-73.5790964,Verdun
891,Parc Monseigneur-Lartigue,"2250, rue Panet, Montréal",Ville-Marie,45.52415217307798,-73.56418263040406,Ville-Marie
892,Parc Montcalm - Rosemont–La Petite-Patrie,", rue Cartier, Montréal",Rosemont–La Petite-Patrie,45.5233388,-73.5518468,Ville-Marie
893,Parc Monteray,"Rue Monteray, Montréal",Pierrefonds-Roxboro,45.4613167,-73.8744722,Pierrefonds-Roxboro
894,Parc Montgomery,"Place Montgomery, Montréal",Pierrefonds-Roxboro,45.5032908,-73.8132689,Pierrefonds-Roxboro
895,Parc Monty,"12357, avenue Monty, Montréal",Montréal-Nord,45.620836807317076,-73.62039041951219,Montréal-Nord
896,Parc Morgan,"4370, rue Sainte-Catherine Est, Montréal",Mercier–Hochelaga-Maisonneuve,45.5513926,-73.53298701947519,Mercier-Hochelaga-Maisonneuve
897,Parc Mozart,"4370, rue Sainte-Catherine Est, Montréal",Rosemont–La Petite-Patrie,45.5513926,-73.53298701947519,Mercier-Hochelaga-Maisonneuve
898,Parc Mullins-Richmond,"Rue Mullins, Montréal",Le Sud-Ouest,45.4781342,-73.5650921,Le Sud-Ouest
899,Parc Mullins-Wellington,"Rue Wellington, Montréal",Le Sud-Ouest,45.4681999,-73.566093,Verdun
900,Parc Munro,"Rue Allard, Montréal",Pierrefonds-Roxboro,45.4487399,-73.6068654,LaSalle
901,Parc Murielle-Dumont,"Rue Valois, Montréal",Pierrefonds-Roxboro,45.5061406,-73.8347962,Pierrefonds-Roxboro
902,Parc Napoléon,"Avenue Coloniale, Montréal",Le Plateau-Mont-Royal,45.5200227,-73.5831893,Le Plateau-Mont-Royal
903,Parc Napoléon-Sénécal,"Rue Joliette, Montréal",Mercier–Hochelaga-Maisonneuve,45.5467801,-73.5513106,Mercier-Hochelaga-Maisonneuve
904,Parc-nature de l’Anse-à-l’Orme,"21135, boulevard Gouin Ouest, Montréal",Pierrefonds-Roxboro,45.4740743,-73.8744496,L'Île-Bizard-Sainte-Geneviève
905,Parc-nature de l'Île-de-la-Visitation,"2425, boulevard Gouin Est, Montréal",Ahuntsic-Cartierville,45.57849616056338,-73.65591692253521,Ahuntsic-Cartierville
906,Parc-nature de la Pointe-aux-Prairies,"14905, rue Sherbrooke Est, Montréal",Rivière-des-Prairies–Pointe-aux-Trembles,45.6825409,-73.5006631,Rivière-des-Prairies-Pointe-aux-Trembles
907,Parc-nature du Bois-de-L'Île-Bizard,"2115 chemin du Bord-du-Lac, Montréal",L'Île-Bizard–Sainte-Geneviève,45.5133196,-73.8971675,L'Île-Bizard-Sainte-Geneviève
908,Parc-nature du Bois-de-Liesse,"9432, boulevard Gouin Ouest, Montréal","Pierrefonds-Roxboro, Saint-Laurent",45.5074518,-73.76265,Pierrefonds-Roxboro
909,Parc-nature du Bois-de-Saraguay,"12200, avenue Joseph-Saucier, Montréal",Ahuntsic-Cartierville,45.5183159,-73.7428228,Ahuntsic-Cartierville
910,Parc-nature du Cap-Saint-Jacques,"20099, boulevard Gouin Ouest, Montréal",Pierrefonds-Roxboro,45.4610271,-73.9205207,Pierrefonds-Roxboro
911,Parc-nature du Ruisseau-De Montigny,"7123, boulevard Maurice-Duplessis, Montréal",Rivière-des-Prairies–Pointe-aux-Trembles,45.6587203,-73.543228,Rivière-des-Prairies-Pointe-aux-Trembles
912,Parc Nelson-Mandela,"4920, rue Vézina, Montréal",Côte-des-Neiges–Notre-Dame-de-Grâce,45.4944866,-73.6438506,Côte-des-Neiges-Notre-Dame-de-Grâce
913,Parc Nesbitt,"Boulevard Rosemont et 6e Avenue, Montréal",Rosemont–La Petite-Patrie,,,
914,Parc Nicolas-Tillemont,"7833, avenue des Érables, Montréal",Villeray–Saint-Michel–Parc-Extension,45.5540231,-73.6115754,Villeray-Saint-Michel-Parc-Extension
915,Parc Nicolas-Viel,"11000, boulevard Saint-Laurent, Montréal",Ahuntsic-Cartierville,45.5518535,-73.6762518,Ahuntsic-Cartierville
916,Parc Noël-Nord,"2900, rue Baker, Montréal",Saint-Laurent,45.518006,-73.7285795,Saint-Laurent
917,Parc Noël-Spinelli,"2207, boulevard Saint-Joseph, Montréal",Lachine,45.433588679852775,-73.6843861122059,Lachine
918,Parc Noël-Sud,"3025, rue Biret, Montréal",Saint-Laurent,45.5139366,-73.7275772,Saint-Laurent
919,Parc Norman-Dawe,"1060, rue Woodland, Montréal",Verdun,45.452672713533836,-73.57855022255639,Verdun
920,Parc Notre-Dame-de-Grâce,"3500, avenue Girouard, Montréal",Côte-des-Neiges–Notre-Dame-de-Grâce,45.472277,-73.6112312,Côte-des-Neiges-Notre-Dame-de-Grâce
921,Parc Notre-Dame-des-Neiges,"avenue Gatineau, Montréal",Côte-des-Neiges–Notre-Dame-de-Grâce,45.4955875,-73.6183234,Côte-des-Neiges-Notre-Dame-de-Grâce
922,Parc Oakwood,"avenue Roskilde, Montréal",Outremont,45.5133918,-73.6003715,Outremont
923,Parc Ogilvy-Outremont,"810 Avenue Ogilvy, Montréal",Villeray–Saint-Michel–Parc-Extension,45.5266653,-73.6265165,Villeray-Saint-Michel-Parc-Extension
924,Parc Olier,"Rue Olier, Montréal",Le Sud-Ouest,45.4903515,-73.5593672,Le Sud-Ouest
925,Parc Olivier-Guimond,"2723, rue Dickson, Montréal",Mercier–Hochelaga-Maisonneuve,45.565556,-73.5255814,Mercier-Hochelaga-Maisonneuve
926,Parc Olivier-Robert," 2325, boulevard De Maisonneuve Est, Montréal",Ville-Marie,45.52856945714286,-73.54902162857142,Ville-Marie
927,Parc Olympia," 2325, boulevard De Maisonneuve Est, Montréal",Pierrefonds-Roxboro,45.52856945714286,-73.54902162857142,Ville-Marie
928,Parc Oscar,"10660, boulevard Saint-Michel, Montréal",Montréal-Nord,45.58202938,-73.64763232,Montréal-Nord
929,Parc Oscar-Peterson,"810, rue Chatham, Montréal",Le Sud-Ouest,45.4894614,-73.575003,Le Sud-Ouest
930,Parc Ottawa,"10400, avenue de Belleville, Montréal",Montréal-Nord,45.581939399999996,-73.64229353880937,Montréal-Nord
931,Parc Ouellette,"1407, rue Serre, Montréal",LaSalle,45.4320394,-73.6214194,LaSalle
932,Parc Outremont,"1172, avenue Saint-Viateur, Montréal",Outremont,45.5194013,-73.6047222,Outremont
933,Parc Ovila-Légaré,"9275, boulevard Pie-IX, Montréal",Villeray–Saint-Michel–Parc-Extension,45.5813975,-73.6245309,Villeray-Saint-Michel-Parc-Extension
934,Parc Ovila-Pelletier,"2050, avenue Bennett, Montréal",Mercier–Hochelaga-Maisonneuve,45.55522775,-73.53986462282703,Mercier-Hochelaga-Maisonneuve
935,Parc Painter,"260, rue Marcotte, Montréal",Saint-Laurent,45.5286235,-73.6774723,Saint-Laurent
936,Parc Palomino-Brind'Amour,"Avenue Henri-Julien, Montréal",Le Plateau-Mont-Royal,45.5379137,-73.6181735,Villeray-Saint-Michel-Parc-Extension
937,Parc Paquin,"Rue Saraguay Est, Montréal",Pierrefonds-Roxboro,45.5098025,-73.799088,Pierrefonds-Roxboro
938,Parc Parent,"Rue Parent (derrière le centre sportif Dollard-St-Laurent), Montréal",LaSalle,,,
939,Parc Parkinson,"boulevard de Pierrefonds, Montréal",Pierrefonds-Roxboro,45.5036366,-73.8287305,Pierrefonds-Roxboro
940,Parc Pasquale-Gattuso,"11770, place Gilles-Trottier, Montréal",Rivière-des-Prairies–Pointe-aux-Trembles,45.6367066,-73.5754161,Rivière-des-Prairies-Pointe-aux-Trembles
941,Parc Patterson,"3015, rue Henri-Dunant, Montréal",Lachine,45.4411868,-73.6912097,Lachine
942,Parc Paul-Doyon,"avenue de Monkland, Montréal",Côte-des-Neiges–Notre-Dame-de-Grâce,45.4790573,-73.6196662,Côte-des-Neiges-Notre-Dame-de-Grâce
943,Parc Paul-Dozois,"Rue de Boisbriand, Montréal",Ville-Marie,45.5119987,-73.5627986,Ville-Marie
944,Parc Paul-Ouellette,"rue du Pélican, Montréal",Villeray–Saint-Michel–Parc-Extension,45.5669334,-73.6263329,Villeray-Saint-Michel-Parc-Extension
945,Parc Paul-Séguin,"Angle rue Raymond et 30e Avenue, Montréal",LaSalle,,,
946,Parc Pehr-Kalm,"Rue Marcel-Raymond, Montréal",Rivière-des-Prairies–Pointe-aux-Trembles,45.6627746,-73.5545276,Rivière-des-Prairies-Pointe-aux-Trembles
947,Parc Pelletier,"boulevard Saint-Joseph, Montréal",Lachine,45.4411418,-73.6513683,Lachine
948,Parc Percy-Walters,"40, avenue McGregor, Montréal",Ville-Marie,45.4990405,-73.5851904,Ville-Marie
949,Parc Père-Marquette - LaSalle,"Rue Bouvier, Montréal",LaSalle,45.432879,-73.6101987,LaSalle
950,Parc Persillier-Lachapelle,"2040, rue Alexandre-DeSève, Montréal",Ville-Marie,45.5248999,-73.5619042,Ville-Marie
951,Parc Petit,"1600, rue Poirier, Montréal",Saint-Laurent,45.5201621,-73.6960403,Saint-Laurent
952,Parc Philippe-Laheurte,"3035, avenue Ernest-Hemingway, Montréal",Saint-Laurent,45.50734442727273,-73.7167622090909,Saint-Laurent
953,Parc Philippe-Lalonde,"Rue Philippe-Lalonde, Montréal",Le Sud-Ouest,45.4671615,-73.5930884,Le Sud-Ouest
954,Parc Philippe-Zotique-Millette,"Rue de l'Église, Montréal",Verdun,45.4633485,-73.5799796,Verdun
955,Parc Pie-XII,"5200, boulevard Lavoisier, Montréal",Saint-Léonard,45.5876144,-73.6100005,Saint-Léonard
956,Parc Pierre-Bédard,"5515, rue Lacordaire, Montréal",Mercier–Hochelaga-Maisonneuve,45.5777983,-73.5570532,Mercier-Hochelaga-Maisonneuve
957,Parc Pierre-Bernard,"3170, boulevard Pierre-Bernard, Montréal",Mercier–Hochelaga-Maisonneuve,45.6060073,-73.5246295,Mercier-Hochelaga-Maisonneuve
958,Parc Pierre-Blanchet,"12279, avenue Pierre-Blanchet, Montréal",Rivière-des-Prairies–Pointe-aux-Trembles,45.6299064,-73.6066391,Rivière-des-Prairies-Pointe-aux-Trembles
959,Parc Pierre-Boucher,"Rue Gilford, Montréal",Le Plateau-Mont-Royal,45.5269356,-73.5860901,Le Plateau-Mont-Royal
960,Parc Pierre-Dagenais-Dit-Lépine,"48e Avenue  , Montréal",Rivière-des-Prairies–Pointe-aux-Trembles,45.6552718,-73.5802391,Rivière-des-Prairies-Pointe-aux-Trembles
961,Parc Pierre-Dansereau,"Avenue de l'Épée, Montréal",Outremont,45.5222076,-73.6100403,Outremont
962,Parc Pierre-Elliott-Trudeau,"Rue Cardinal, Montréal",Pierrefonds-Roxboro,45.5091974,-73.6786765,Saint-Laurent
963,Parc Pierre-Payet,"rue Bellerive/rue Pauline-Donalda, Montréal",Rivière-des-Prairies–Pointe-aux-Trembles,,,
964,Parc Pierre-Tétreault,"383, rue Baldwin, Montréal",Mercier–Hochelaga-Maisonneuve,45.5976633,-73.5118725,Mercier-Hochelaga-Maisonneuve
965,Parc Pierre-Tisseyre,"Avenue Charlemagne, Montréal",Rosemont–La Petite-Patrie,45.553326,-73.5554109,Rosemont-La Petite-Patrie
966,Parc Pilon,"11135, avenue des Récollets, Montréal",Montréal-Nord,45.5924882,-73.6421731,Montréal-Nord
967,Parc Pointe-des-Seigneurs,"17, rue des Seigneurs, Montréal",Le Sud-Ouest,45.4900859,-73.5740236,Le Sud-Ouest
968,Parc Poirier,"900, rue Trudeau, Montréal",Saint-Laurent,45.5140984,-73.6632797,Saint-Laurent
969,Parc Poirier – Verdun,"3177, boulevard LaSalle, Montréal",Verdun,45.47056662270907,-73.56821148499009,Verdun
970,Parc Pominville,"Avenue J-Alphonse-Lachance et des Verreries, Montréal",Lachine,,,
971,Parc Pratt,"1801, avenue Lajoie, Montréal",Outremont,45.5136505,-73.6171757,Outremont
972,Parc Prieur,"10374, rue Sackville, Montréal",Ahuntsic-Cartierville,45.5782347,-73.6489576,Ahuntsic-Cartierville
973,Parc Primeau,"10958, avenue Pelletier, Montréal",Montréal-Nord,45.5927611,-73.6339487,Montréal-Nord
974,Parc Provencher,"10958, avenue Pelletier, Montréal",25e Avenue,45.5927611,-73.6339487,Montréal-Nord
975,Parc Prudence-Heward,"1531, rue Paxton, Montréal",Ville-Marie,45.4899401,-73.5681053,Le Sud-Ouest
976,Parc Racette,"angle des boulevards Racette et Henri-Bourassa, Montréal",Montréal-Nord,,,
977,Parc Radisson,"5321, rue Radisson, Montréal",Mercier–Hochelaga-Maisonneuve,45.59062381014161,-73.54563159580232,Mercier-Hochelaga-Maisonneuve
978,Parc Raimbault,"12377, rue Notre-Dame-des-Anges, Montréal",Ahuntsic-Cartierville,45.535415709756094,-73.71761123170732,Ahuntsic-Cartierville
979,Parc Ranger,"82, chemin de LaSalle, Montréal",Lachine,45.4292345,-73.6666591,Lachine
980,Parc Raoul-Dandurand,"Avenue Van Horne, Montréal",Outremont,45.5122695,-73.6221938,Côte-des-Neiges-Notre-Dame-de-Grâce
981,Parc Raoul-Laurin,"Rue Laurin, Montréal",Pierrefonds-Roxboro,45.5076981,-73.7774433,Pierrefonds-Roxboro
982,Parc Rathwell,"2791 Rue Rathwell, Montréal",Lachine,45.44365084182664,-73.68908702259799,Lachine
983,Parc Raymond,"Boulevard Bishop-Power, Montréal",LaSalle,45.4283845,-73.6072371,LaSalle
984,Parc Raymond-Blain,"1684-1758, rue Panet, Montréal",Ville-Marie,,,
985,Parc Raymond-Lagacé,"2813, rue des Outardes, Montréal",Saint-Laurent,45.51274108656085,-73.71504328402186,Saint-Laurent
986,Parc Raymond-Lévesque,"Rue Saint-Zotique Est et 23e Avenue, Montréal",Rosemont–La Petite-Patrie,,,
987,Parc Raymond-Préfontaine,"3100, rue Hochelaga, Montréal",Mercier–Hochelaga-Maisonneuve,45.5417253,-73.5542369,Mercier-Hochelaga-Maisonneuve
988,Parc Raymond-Vidal,"Rue Khalil-Gibran, Montréal",Saint-Laurent,45.5273874,-73.667565,Saint-Laurent
989,Parc Remembrance,"rue Remembrance, Montréal",Lachine,45.4379819,-73.6790292,Lachine
990,Parc René-Goupil,"8670, 25e Avenue, Montréal",Villeray–Saint-Michel–Parc-Extension,45.577649066666666,-73.61138724999999,Villeray-Saint-Michel-Parc-Extension
991,Parc René-Lecavalier,"Rue Georges-Vermette, Montréal",Rivière-des-Prairies–Pointe-aux-Trembles,45.6527872,-73.5044727,Rivière-des-Prairies-Pointe-aux-Trembles
992,Parc René-Lévesque,"398, chemin du Canal, Montréal",Lachine,45.4292864,-73.6699118,Lachine
993,Parc René-Masson,"9175, boulevard Perras, Montréal",Rivière-des-Prairies–Pointe-aux-Trembles,45.6515845,-73.57788754596211,Rivière-des-Prairies-Pointe-aux-Trembles
994,Parc Renée-Vautelet,"12725, avenue Pierre-Baillargeon, Montréal",Rivière-des-Prairies–Pointe-aux-Trembles,45.6440946,-73.579497,Rivière-des-Prairies-Pointe-aux-Trembles
995,Parc Richard-Angus,"Rue Moïse-Picard, Montréal",Rosemont–La Petite-Patrie,45.5500209,-73.5626494,Rosemont-La Petite-Patrie
996,Parc Richard-Wilson-Smith,"Rue Saint-Clément, Montréal",Mercier–Hochelaga-Maisonneuve,45.5565406,-73.5286791,Mercier-Hochelaga-Maisonneuve
997,Parc Richelieu,"1979, 40e Avenue, Montréal",Rivière-des-Prairies–Pointe-aux-Trembles,45.4401948,-73.7010249,Lachine
998,Parc Richelieu - L'Île-Bizard–Sainte-Geneviève,"Terrasse Richelieu, Montréal",L'Île-Bizard–Sainte-Geneviève,45.4734692,-73.8733511,L'Île-Bizard-Sainte-Geneviève
999,Parc Rita-Marceau,"Rue du Parc, Montréal",Pierrefonds-Roxboro,45.5042135,-73.8524708,Pierrefonds-Roxboro
1000,Parc Riverdale,"5060, boulevard des Sources, Montréal",Pierrefonds-Roxboro,45.509288600000005,-73.82409330949113,Pierrefonds-Roxboro
1001,Parc Riverside,"625, 35e Avenue, Montréal",LaSalle,45.4195554,-73.61326899999999,LaSalle
1002,Parc Riverview,"1042, rue Godin, Montréal",Verdun,45.4476727,-73.5799801,Verdun
1003,Parc Riviera,"Rue Bigras, Montréal",L'Île-Bizard–Sainte-Geneviève,45.5170298,-73.873229,L'Île-Bizard-Sainte-Geneviève
1004,Parc Robert-Mitchell,"Angle de la rue Crevier et de la rue Gohier, Montréal",Saint-Laurent,,,
1005,Parc Robert-Prévost,"1862, rue Labrecque, Montréal",Ville-Marie,45.5193965,-73.5633954,Ville-Marie
1006,Parc Robert-Sauvé,"15742, rue de la Caserne, Montréal",L'Île-Bizard–Sainte-Geneviève,45.48149962894737,-73.86660485,L'Île-Bizard-Sainte-Geneviève
1007,Parc Roger-Rousseau,"7501, avenue Rondeau, Montréal",Anjou,45.6159526,-73.550939,Anjou
1008,Parc Roger-Séguin,"284, 3e Avenue, Montréal",Verdun,45.43234231219512,-73.5991244804878,LaSalle
1009,Parc Roland-Giguère,"Place de l'Acadie, Montréal",Ahuntsic-Cartierville,45.533841,-73.6790497,Ahuntsic-Cartierville
1010,Parc Roman-Zytynsky,"1555, boulevard Jules-Poitras, Montréal",Saint-Laurent,45.5255555,-73.6712621,Saint-Laurent
1011,Parc Roméo-Charette,"rue Jean-Talon Ouest, Montréal",Côte-des-Neiges–Notre-Dame-de-Grâce,45.4941977,-73.6532966,Côte-des-Neiges-Notre-Dame-de-Grâce
1012,Parc Ronald-Moreau,"850, rue Maheu, Montréal",Saint-Laurent,45.4985395,-73.698494,Saint-Laurent
1013,Parc Rosaire-Prieur,"536, 9e Avenue, Montréal",Rivière-des-Prairies–Pointe-aux-Trembles,45.4282698,-73.5982662,LaSalle
1014,Parc Rose-Pesotta,"Rue Philippe-Girard, Montréal",Rosemont–La Petite-Patrie,45.5483023,-73.5664352,Rosemont-La Petite-Patrie
1015,Parc Rosemary-Brown,"6665, avenue McLynn, Montréal",Côte-des-Neiges–Notre-Dame-de-Grâce,45.4898948,-73.64798625,Côte-des-Neiges-Notre-Dame-de-Grâce
1016,Parc Rosemont," 5625, rue D'Iberville, Montréal",Rosemont–La Petite-Patrie,45.5443941,-73.5810989,Rosemont-La Petite-Patrie
1017,Parc Rosewood,"avenue de Mount Vernon, Montréal",Lachine,45.4495079,-73.6521872,Lachine
1018,Parc Rougemont,"1900, rue Bossuet, Montréal",Mercier–Hochelaga-Maisonneuve,45.5700062,-73.5285286,Mercier-Hochelaga-Maisonneuve
1019,Parc Roy / 40e Avenue,"Angle de la rue Roy et de la 40e Avenue, Montréal",Rivière-des-Prairies–Pointe-aux-Trembles,,,
1020,Parc Rutherford,"3633, rue McTavish, Montréal",Ville-Marie,45.5053413,-73.58097,Ville-Marie
1021,Parc Sabrevois,"10110, avenue des Récollets, Montréal",Montréal-Nord,45.5834125,-73.6327977,Montréal-Nord
1022,Parc Saidye-Bronfman,"1815 rue Buchan, Montréal",Côte-des-Neiges–Notre-Dame-de-Grâce,45.4979055,-73.6510054,Côte-des-Neiges-Notre-Dame-de-Grâce
1023,Parc Saint-Alphonse,"8888, avenue De Chateaubriand, Montréal",Ahuntsic-Cartierville,45.5497433,-73.6405158,Ahuntsic-Cartierville
1024,Parc Saint-André-Apôtre,"10550, avenue de l'Esplanade, Montréal",Ahuntsic-Cartierville,45.5467897,-73.6705826,Ahuntsic-Cartierville
1025,Parc Saint-Anne,"rue Provost, Montréal",Lachine,45.441884,-73.6915308,Lachine
1026,Parc Saint-Barnabas,"Rue Colin, Montréal",Pierrefonds-Roxboro,45.503144,-73.8269561,Pierrefonds-Roxboro
1027,Parc Saint-Benoît,"9887, rue Meilleur, Montréal",Ahuntsic-Cartierville,45.54018793283582,-73.66398599104478,Ahuntsic-Cartierville
1028,Parc Saint-Charles,"Rue Harold, Montréal",Pierrefonds-Roxboro,45.4732397,-73.8637951,Pierrefonds-Roxboro
1029,Parc Saint-Clément,"1855, rue de Ville-Marie, Montréal",Mercier–Hochelaga-Maisonneuve,45.5593715,-73.5330738,Mercier-Hochelaga-Maisonneuve
1030,Parc Saint-Donat,"6800, rue de Marseille, Montréal",Mercier–Hochelaga-Maisonneuve,45.5830122,-73.538208,Mercier-Hochelaga-Maisonneuve
1031,Parc Saint-Édouard,"rue Saint-André, Montréal",Rosemont–La Petite-Patrie,45.5352652,-73.5993026,Rosemont-La Petite-Patrie
1032,Parc Saint-Émile,"rue Davidson, Montréal",Rosemont–La Petite-Patrie,45.5431452,-73.5466403,Mercier-Hochelaga-Maisonneuve
1033,Parc Saint-Gabriel,"2355, rue Mullins, Montréal",Le Sud-Ouest,45.4782704,-73.565019,Le Sud-Ouest
1034,Parc Saint-Georges,"13050, rue Prince-Albert, Montréal",Rivière-des-Prairies–Pointe-aux-Trembles,45.6726505,-73.4950313,Rivière-des-Prairies-Pointe-aux-Trembles
1035,Parc Saint-Gérard,"Boulevard de Pierrefonds, Montréal",Pierrefonds-Roxboro,45.5036366,-73.8287305,Pierrefonds-Roxboro
1036,Parc Saint-Henri,"753, rue Agnès, Montréal",Le Sud-Ouest,45.479891,-73.5867361,Le Sud-Ouest
1037,Parc Saint-Jacques,"Angle des rues Saint-André et Robin, Montréal",Ville-Marie,,,
1038,Parc Saint-Jean-Baptiste,"1050, boulevard Saint-Jean-Baptiste, Montréal",Rivière-des-Prairies–Pointe-aux-Trembles,45.6414302,-73.50012858333334,Rivière-des-Prairies-Pointe-aux-Trembles
1039,Parc Saint-Jean-de-la-Lande,"9e Avenue et boulevard Saint-Joseph Est, Montréal",Rosemont–La Petite-Patrie,,,
1040,Parc Saint-Jean-de-Matha,"rue Dumas, Montréal",Le Sud-Ouest,45.4590986,-73.6006824,Le Sud-Ouest
1041,Parc Saint-Joseph,"9909, 68e Avenue, Montréal",Rivière-des-Prairies–Pointe-aux-Trembles,45.4185917,-73.6273674,LaSalle
1042,Parc Saint-Laurent,"11614, avenue Salk, Montréal",Montréal-Nord,45.6064452,-73.6290272,Montréal-Nord
1043,Parc Saint-Laurent - Arr. Saint-Laurent,"Rue Poirier, Montréal",Saint-Laurent,45.5187344,-73.6983366,Saint-Laurent
1044,Parc Saint-Louis,"25, 34e Avenue, Montréal",Lachine,45.4334195,-73.6940988,Lachine
1045,Parc Saint-Malo,"Rue de Saint-Malo Est, Montréal",L'Île-Bizard–Sainte-Geneviève,,,
1046,Parc Saint-Marc,"6885, 1re Avenue, Montréal",Rosemont–La Petite-Patrie,45.55321979406779,-73.59632636016948,Rosemont-La Petite-Patrie
1047,Parc Saint-Marcel,"1647, 6e Avenue, Montréal",Rivière-des-Prairies–Pointe-aux-Trembles,45.4322439,-73.6692396,Lachine
1048,Parc Saint-Michel,"Rue Saint-Dominique, Montréal",Le Plateau-Mont-Royal,45.5373594,-73.6234484,Villeray-Saint-Michel-Parc-Extension
1049,Parc Saint-Paul,"Rue Brisset, Montréal",Le Sud-Ouest,45.4617553,-73.585589,Le Sud-Ouest
1050,Parc Saint-Paul-de-la-Croix,"9900, avenue Hamel, Montréal",Ahuntsic-Cartierville,45.5639852,-73.6614168,Ahuntsic-Cartierville
1051,Parc Saint-Pierre,"Rue Saint-Hyacinthe, Montréal",L'Île-Bizard–Sainte-Geneviève,45.4857602,-73.8621496,L'Île-Bizard-Sainte-Geneviève
1052,Parc Saint-Pierre-Claver,"Rue Fullum, Montréal",Le Plateau-Mont-Royal,45.5263356,-73.5459243,Ville-Marie
1053,Parc Saint-Roch,"Parc Saint-Roch, Montréal",Villeray–Saint-Michel–Parc-Extension,45.53250165,-73.63164977349277,Villeray-Saint-Michel-Parc-Extension
1054,Parc Saint-Simon-Apôtre,"200, rue Legendre Ouest, Montréal",Ahuntsic-Cartierville,45.5408011,-73.6494022,Ahuntsic-Cartierville
1055,Parc Saint-Valérien,"87e Avenue, Montréal",Rivière-des-Prairies–Pointe-aux-Trembles,45.6680144,-73.5391511,Rivière-des-Prairies-Pointe-aux-Trembles
1056,Parc Saint-Viateur,"530, avenue Querbes, Montréal",Outremont,45.52100166,-73.60600112,Outremont
1057,Parc Saint-Victor,"9175, rue Hochelaga, Montréal",Mercier–Hochelaga-Maisonneuve,45.6071275,-73.5169242,Mercier-Hochelaga-Maisonneuve
1058,Parc Saint-Vincent-Ferrier,"8172, rue Drolet, Montréal",Villeray–Saint-Michel–Parc-Extension,45.54212952727273,-73.63084887272727,Villeray-Saint-Michel-Parc-Extension
1059,Parc Sainte-Bernadette,"6825, 16e Avenue, Montréal",Rosemont–La Petite-Patrie,45.5602763,-73.5885682,Rosemont-La Petite-Patrie
1060,Parc Sainte-Bibiane,"13e Avenue et rue Lafond, Montréal",Rosemont–La Petite-Patrie,,,
1061,Parc Sainte-Claire,"8485, avenue Pierre-De Coubertin, Montréal",Mercier–Hochelaga-Maisonneuve,45.5992462,-73.5235756,Mercier-Hochelaga-Maisonneuve
1062,Parc Sainte-Cunégonde,"Rue Notre-Dame Ouest, Montréal",Le Sud-Ouest,45.4915954,-73.5659217,Ville-Marie
1063,Parc Sainte-Famille,"13, rue O'Reilly, Montréal",Verdun,45.4622323,-73.5405832,Verdun
1064,Parc Sainte-Lucie,"9093, 16e Avenue, Montréal",Villeray–Saint-Michel–Parc-Extension,45.5745474,-73.6250635,Villeray-Saint-Michel-Parc-Extension
1065,Parc Sainte-Marie,"Rue LaFontaine, Montréal",Ville-Marie,45.5234777,-73.57648,Le Plateau-Mont-Royal
1066,Parc Sainte-Marthe,"boulevard Gouin Est/19e Avenue, Montréal",Rivière-des-Prairies–Pointe-aux-Trembles,,,
1067,Parc Sainte-Odile,"4248, rue Forbes, Montréal",Ahuntsic-Cartierville,45.5338446,-73.710741,Ahuntsic-Cartierville
1068,Parc Sainte-Suzanne,"Rue Saint-Gabriel, Montréal",Pierrefonds-Roxboro,45.506522,-73.5540166,Ville-Marie
1069,Parc Sainte-Yvette,"8950 - 10e avenue, Montréal",Villeray–Saint-Michel–Parc-Extension,45.5697428,-73.6252584,Villeray-Saint-Michel-Parc-Extension
1070,Parc Sammy-Hill,"2692, rue de Ryde, Montréal",Le Sud-Ouest,,,
1071,Parc Samuel-Morse,"12100, avenue François-Larocque, Montréal",Rivière-des-Prairies–Pointe-aux-Trembles,45.6391293,-73.5842651,Rivière-des-Prairies-Pointe-aux-Trembles
1072,Parc Sandro-Pertini,"boulevard Saint-Michel, Montréal",Villeray–Saint-Michel–Parc-Extension,45.5733083,-73.631343,Villeray-Saint-Michel-Parc-Extension
1073,Parc Sarah-Maxwell,"1706, rue Dézéry, Montréal",Mercier–Hochelaga-Maisonneuve,45.5424783,-73.5521722,Mercier-Hochelaga-Maisonneuve
1074,Parc Sauvé,"11440, avenue Éthier, Montréal",Montréal-Nord,45.5997791,-73.6354184,Montréal-Nord
1075,Parc Serge-Garant,"1415, rue Beaudry, Montréal",Ville-Marie,45.5176157,-73.5532855,Ville-Marie
1076,Parc Shaughnessy,"7634, 17e Avenue, Montréal",Villeray–Saint-Michel–Parc-Extension,45.4333309,-73.6795912,Lachine
1077,Parc Sicard,"1638, rue Sicard, Montréal",Mercier–Hochelaga-Maisonneuve,45.555252672395824,-73.53422025550465,Mercier-Hochelaga-Maisonneuve
1078,Parc Simone-Dénéchaud–Gouin,"7075, rue Simone Dénéchaud, Montréal",Rivière-des-Prairies–Pointe-aux-Trembles,45.6296386,-73.6167337,Rivière-des-Prairies-Pointe-aux-Trembles
1079,Parc Simonne-Monet-Chartrand,"2121, rue Saint-Christophe, Montréal",Ville-Marie,45.51923756666666,-73.56551639166666,Ville-Marie
1080,Parc Sir-Edmund-Hillary,"Rue de l’Everest, Montréal",Saint-Laurent,45.5099977,-73.6992725,Saint-Laurent
1081,Parc Sir-Wilfrid-Laurier,"1115, avenue Laurier Est, Montréal",Le Plateau-Mont-Royal,45.5311632,-73.5860164,Le Plateau-Mont-Royal
1082,Parc Snowdon,"rue Snowdon, Montréal",Côte-des-Neiges–Notre-Dame-de-Grâce,45.4816233,-73.6277436,Côte-des-Neiges-Notre-Dame-de-Grâce
1083,Parc Soeur-Madeleine-Gagnon,"6654, rue Saint-Dominique, Montréal",Rosemont–La Petite-Patrie,45.5315555244898,-73.60954579591836,Rosemont-La Petite-Patrie
1084,Parc Solange-Chaput-Rolland,"12526, rue Voltaire, Montréal",Rivière-des-Prairies–Pointe-aux-Trembles,45.6624463,-73.5489049,Rivière-des-Prairies-Pointe-aux-Trembles
1085,Parc Stinson,"Boulevard LaSalle (face au moulin Fleming sur le bord de l’eau), Montréal",LaSalle,,,
1086,Parc Stoney Point,"4520, boulevard Saint-Joseph, Montréal",Lachine,45.436870354109594,-73.7063823854661,Lachine
1087,Parc Summerlea,"5410, boulevard Saint-Joseph, Montréal",Lachine,45.43873642699505,-73.71671476356687,Lachine
1088,Parc Sutherland-Sackville-Bain,"11, rue Rhéaume, Montréal",Verdun,45.467739386687974,-73.56345955349843,Verdun
1089,Parc T.-X.-Renaud,"Rue Gérin-Lajoie, Montréal",Mercier–Hochelaga-Maisonneuve,45.5759893,-73.5560153,Mercier-Hochelaga-Maisonneuve
1090,Parc Tansey,"Rue Centre, Montréal",Le Sud-Ouest,45.4814879,-73.5643908,Le Sud-Ouest
1091,Parc Tardif,"6455, rue Tardif, Montréal",Montréal-Nord,45.61777,-73.6158266,Montréal-Nord
1092,Parc Tassé,"Rue Billeron, Montréal",Saint-Laurent,45.5086214,-73.693823,Saint-Laurent
1093,Parc Thaïs-Lacoste,"Rue Chouinard entre les rues Lapierre et Pigeon, Montréal",LaSalle,,,
1094,Parc Théodore,"2523, rue Théodore, Montréal",Mercier–Hochelaga-Maisonneuve,45.5579438,-73.536863,Mercier-Hochelaga-Maisonneuve
1095,Parc Thérèse-Casgrain," 1434-1470, avenue des Pins, Montréal",Ville-Marie,,,
1096,Parc Thérèse-Daviau,"Rue Roy Est, Montréal",Le Plateau-Mont-Royal,45.515882,-73.5755018,Le Plateau-Mont-Royal
1097,Parc Thomas-Chapais,"5798, boulevard Pierre Bernard, Montréal",Mercier–Hochelaga-Maisonneuve,45.6066477,-73.5264755,Mercier-Hochelaga-Maisonneuve
1098,Parc Thorndale,"Rue Thorndale, Montréal",Pierrefonds-Roxboro,45.4737612,-73.8605234,Pierrefonds-Roxboro
1099,Parc Tiohtià:ke Otsira'kéhne,"chemin de Polytechnique, Montréal",Côte-des-Neiges–Notre-Dame-de-Grâce,45.503205,-73.6136903,Côte-des-Neiges-Notre-Dame-de-Grâce
1100,Parc Tolhurst,"10137, rue Tolhurst, Montréal",Ahuntsic-Cartierville,45.5426871,-73.6625938,Ahuntsic-Cartierville
1101,Parc Toto-Bissainthe,"Rue Hutchison, Montréal",Le Plateau-Mont-Royal,45.5098238,-73.576274,Le Plateau-Mont-Royal
1102,Parc Toussaint-Louverture,"127, boulevard De Maisonneuve Est, Montréal",Ville-Marie,45.5160877,-73.5603048,Ville-Marie
1103,Parc Trenholme,"6800, rue Sherbrooke Ouest, Montréal",Côte-des-Neiges–Notre-Dame-de-Grâce,45.4615438,-73.6328837,Côte-des-Neiges-Notre-Dame-de-Grâce
1104,Parc Triolet,"Rue Triolet, Montréal",L'Île-Bizard–Sainte-Geneviève,45.5040404,-73.8665487,L'Île-Bizard-Sainte-Geneviève
1105,Parc Troie,"chemin de la Côte-des-Neiges, Montréal",Côte-des-Neiges–Notre-Dame-de-Grâce,45.4960038,-73.6094457,Côte-des-Neiges-Notre-Dame-de-Grâce
1106,Parc University Settlement,"Rue Clark, Montréal",Le Plateau-Mont-Royal,45.5164504,-73.5799557,Le Plateau-Mont-Royal
1107,Parc Urgel-Archambault,"Rue Frederick-Banting, Montréal",Saint-Laurent,45.4814908,-73.7702424,Saint-Laurent
1108,Parc Van Horne,"4900, avenue Van Horne, Montréal",Côte-des-Neiges–Notre-Dame-de-Grâce,45.5123446,-73.6222659,Côte-des-Neiges-Notre-Dame-de-Grâce
1109,Parc Victor-Barbeau,"Rue Lucien-Plante, Montréal",Ahuntsic-Cartierville,45.5572212,-73.6309769,Ahuntsic-Cartierville
1110,Parc Victor-Bourgeau,"67, place Victor-Bourgeau, Montréal",Rosemont–La Petite-Patrie,45.551265,-73.5557897,Rosemont-La Petite-Patrie
1111,Parc Victor-P.-Gray,"18e Avenue, Montréal",Pierrefonds-Roxboro,45.4360745,-73.6800956,Lachine
1112,Parc Victor-Rousselot,"Rue Sainte-Émilie, Montréal",Le Sud-Ouest,45.4796226,-73.5779123,Le Sud-Ouest
1113,Parc Victor-T.-Daubigny,"Rue Sainte-Émilie, Montréal",Ville-Marie,45.4796226,-73.5779123,Le Sud-Ouest
1114,Parc Victoria-Girard,"1881, rue Jean-Leduc, Montréal",Rivière-des-Prairies–Pointe-aux-Trembles,45.6542415,-73.5074603,Rivière-des-Prairies-Pointe-aux-Trembles
1115,Parc Victorien-Pesant,"7345, avenue De Gaspé, Montréal",Villeray–Saint-Michel–Parc-Extension,45.5424408,-73.636536,Villeray-Saint-Michel-Parc-Extension
1116,Parc Village Saint-Louis,"3205, rue Dalbé-Viau, Montréal",Lachine,45.4440679,-73.694568,Lachine
1117,Parc Villeneuve,"Rue Villeneuve, Montréal",Montréal-Nord,45.6204577,-73.6245485,Montréal-Nord
1118,Parc Villeray,"8000, rue De Normanville, Montréal",Villeray–Saint-Michel–Parc-Extension,45.548225450000004,-73.62152822049896,Villeray-Saint-Michel-Parc-Extension
1119,Parc Villeray Ouest,"7750, avenue Christophe-Colomb, Montréal",Villeray–Saint-Michel–Parc-Extension,45.5458608,-73.62071253246268,Villeray-Saint-Michel-Parc-Extension
1120,Parc Villeret,"Rue Meloche, Montréal",Pierrefonds-Roxboro,45.4646973,-73.8800096,Pierrefonds-Roxboro
1121,Parc Vinet,"550, rue Vinet, Montréal",Le Sud-Ouest,45.4839162,-73.575239,Le Sud-Ouest
1122,Parc Walter-Stewart,"2455, rue Larivière, Montréal",Ville-Marie,45.5232599,-73.5630054,Ville-Marie
1123,Parc Warren-Allmand (Somerled),"4800, avenue de Hampton, Montréal",Côte-des-Neiges–Notre-Dame-de-Grâce,,,
1124,Parc Wilfrid-Bastien,"8255, boulevard Lacordaire, Montréal",Saint-Léonard,45.58532477582951,-73.59446599934279,Saint-Léonard
1125,Parc Wilfrid-Vincent,"317, rue des Érables, Montréal",Lachine,45.4440295,-73.6526421,Lachine
1126,Parc William-Barrett,"11e Avenue, Montréal",Pierrefonds-Roxboro,45.4266963,-73.6032769,LaSalle
1127,Parc William-Bowie,"4955, avenue Trenholme, Montréal",Côte-des-Neiges–Notre-Dame-de-Grâce,45.4580869,-73.6504371,Côte-des-Neiges-Notre-Dame-de-Grâce
1128,Parc William-Hurst,"6230, rue de Terrebonne, Montréal",Côte-des-Neiges–Notre-Dame-de-Grâce,45.4703763,-73.6317409,Côte-des-Neiges-Notre-Dame-de-Grâce
1129,Parc Willibrord,"1018, rue Willibrord, Montréal",Verdun,45.4596322,-73.5760723,Verdun
1130,Parc Wilson,"rue Brown, Montréal",Verdun,45.429746,-73.6288824,LaSalle
1131,Parc Woodland,"5550, boulevard LaSalle, Montréal",Verdun,45.4520414,-73.5674818,Verdun
1132,Parc Yamaska,"Rue Saint-Rémi, Montréal",Le Sud-Ouest,45.4695847,-73.5889837,Le Sud-Ouest
1133,Parc York-De Roberval,"Angle des rues York et De Roberval, Montréal",Le Sud-Ouest,,,
1134,Parc Yuile,"Rue Yuile, Montréal",Pierrefonds-Roxboro,45.457993,-73.8736492,Pierrefonds-Roxboro
1135,Parc Yves-Thériault,"Avenue Yves-Thériault, Montréal",Rivière-des-Prairies–Pointe-aux-Trembles,45.6788368,-73.4995112,Rivière-des-Prairies-Pointe-aux-Trembles
1136,Parc Yvonne-Maisonneuve,"Avenue des Pins, Montréal",Le Plateau-Mont-Royal,45.5168309,-73.5735679,Le Plateau-Mont-Royal
1137,Parc Zotique-Racicot,"11906, rue Zotique-Racicot, Montréal",Ahuntsic-Cartierville,45.543576406666666,-73.6909957511111,Ahuntsic-Cartierville
1138,Parc Zotique St-Jean,"60e Avenue, Montréal",Rivière-des-Prairies–Pointe-aux-Trembles,45.6558897,-73.565722,Rivière-des-Prairies-Pointe-aux-Trembles
1139,Parcours accessibles du parc Frédéric-Back,"8931 Avenue Papineau, Montréal",Villeray–Saint-Michel–Parc-Extension,45.5610124,-73.6347042,Villeray-Saint-Michel-Parc-Extension
1140,Pataugeoire du parc Jeanne-Mance,"4422, avenue de l'Esplanade, Montréal",Le Plateau-Mont-Royal,45.5177321,-73.58681530000001,Le Plateau-Mont-Royal
1141,Patinoire de la mairie de Pierrefonds-Roxboro,"13665, boulevard de Pierrefonds, Montréal",Pierrefonds-Roxboro,45.495386,-73.848155,Pierrefonds-Roxboro
1142,Patinoire du Parc Brook,"12800, rue Brook, Montréal",Pierrefonds-Roxboro,45.5104360548896,-73.84404322853007,Pierrefonds-Roxboro
1143,Patinoire du parc de la Rive-Boisée,"307, chemin de la Rive-Boisée, Montréal",Pierrefonds-Roxboro,45.49702522643161,-73.85212605765484,Pierrefonds-Roxboro
1144,Patinoire du parc Grier,"4590, rue des Cageux, Montréal",Pierrefonds-Roxboro,45.457475075,-73.880411325,Pierrefonds-Roxboro
1145,Patinoire du parc Raymond,"Boulevard Bishop-Power, Montréal",LaSalle,45.4283845,-73.6072371,LaSalle
1146,Patinoire du parc Riverside,"625, 35e Avenue, Montréal",LaSalle,45.4195554,-73.61326899999999,LaSalle
1147,Patinoire extérieure du parc Alexander,"14899, rue Oakwood, Montréal",Pierrefonds-Roxboro,45.47494590931249,-73.8558238070867,Pierrefonds-Roxboro
1148,Patinoire extérieure du parc d'À-Ma-Baie,"9625, boulevard Gouin Ouest, Montréal",Pierrefonds-Roxboro,45.5041775,-73.7818377,Pierrefonds-Roxboro
1149,Patinoire extérieure du parc de Roxboro,"10, 11e Rue, Montréal",Pierrefonds-Roxboro,45.5051794,-73.8030817,Pierrefonds-Roxboro
1150,Pavillon d'accueil du parc Frédéric-Back,"2345, rue Jarry Est, Montréal",Villeray–Saint-Michel–Parc-Extension,45.5585435,-73.6161107,Villeray-Saint-Michel-Parc-Extension
1151,Pavillon d'accueil du Parcours Gouin,"10905, rue Basile-Routhier, Montréal",Ahuntsic-Cartierville,45.5574804,-73.6726728,Ahuntsic-Cartierville
1152,Pavillon des Marais du parc-nature de la Pointe-aux-Prairies,"12300, boulevard Gouin Est, Montréal",Rivière-des-Prairies–Pointe-aux-Trembles,45.68594012554065,-73.52706663820013,Rivière-des-Prairies-Pointe-aux-Trembles
1153,Pavillon du Lac-aux-Castors,"2000, chemin Remembrance, Montréal",Ville-Marie,45.4985062,-73.5992864,Ville-Marie
1154,Pavillon du parc Coubertin,"4755, rue Valéry, Montréal",Saint-Léonard,45.58324,-73.6102527,Saint-Léonard
1155,Pavillon du parc Delorme,"6060, rue de Honfleur, Montréal",Saint-Léonard,45.5935518,-73.5894974,Saint-Léonard
1156,Pavillon du parc Ferland,"6020, boulevard Lavoisier, Montréal",Saint-Léonard,45.5957301,-73.6000641,Saint-Léonard
1157,Pavillon du parc Giuseppe-Garibaldi,"7125, rue Liénart, Montréal",Saint-Léonard,45.5863259,-73.5699367,Saint-Léonard
1158,Pavillon du parc Hébert,"7505, boulevard Provencher, Montréal",Saint-Léonard,45.57196665592708,-73.59268533669953,Saint-Léonard
1159,Pavillon du parc Henri-Bourassa,"6100, rue Pascal, Montréal",Montréal-Nord,45.6155173,-73.6244639,Montréal-Nord
1160,Pavillon du parc Ladauversière,"7560, boulevard Lacordaire, Montréal",Saint-Léonard,45.5818598,-73.584296,Saint-Léonard
1161,Pavillon du parc Luigi-Pirandello,"4550, rue de Compiègne, Montréal",Saint-Léonard,45.5789687,-73.6044855,Saint-Léonard
1162,Pavillon du parc Nelson-Mandela,"4920, avenue Vézina, Montréal",Côte-des-Neiges–Notre-Dame-de-Grâce,,,
1163,Pavillon du parc Notre-Dame-de-Grâce,"3500, avenue Girouard, Montréal",Côte-des-Neiges–Notre-Dame-de-Grâce,45.472277,-73.6112312,Côte-des-Neiges-Notre-Dame-de-Grâce
1164,Pavillon du parc Pie-XII,"5200, boulevard Lavoisier, Montréal",Saint-Léonard,45.5876144,-73.6100005,Saint-Léonard
1165,Pavillon du parc Wilfrid-Bastien,"8255, boulevard Lacordaire, Montréal",Saint-Léonard,45.58532477582951,-73.59446599934279,Saint-Léonard
1166,Pavillon Hexagonal,"5555 Rue Jean-Talon Est, Montréal",Saint-Léonard,45.5824111,-73.5806494,Saint-Léonard
1167,Pavillon multifonctionnel de l'esplanade Tranquille,"Au cœur du Quartier des spectacles, Montréal",Ville-Marie,,,
1168,Pavillons du parc Angrignon,"3400, boulevard des Trinitaires, Montréal",Le Sud-Ouest,45.4441901,-73.6020959,Le Sud-Ouest
1169,Piscine du parc Jarry,"205, rue Gary-Carter, Montréal",Villeray–Saint-Michel–Parc-Extension,45.5347697,-73.62337938333333,Villeray-Saint-Michel-Parc-Extension
1170,Piste de glissade du parc Angrignon,"3400, boulevard des Trinitaires, Montréal",Le Sud-Ouest,45.4441901,-73.6020959,Le Sud-Ouest
1171,Piste de ski de fond de L'Île-des-Sœurs,"Le long des boulevards de L'Île-des-Sœurs et Marguerite-Bourgeoys, Montréal",Verdun,,,
1172,Piste de ski de fond des berges de L'Île-des-Sœurs,"Le long des berges de L'Île-des-Sœurs, Montréal",Verdun,,,
1173,Piste de ski de fond du parc Jarry,"205, rue Gary-Carter, Montréal",Villeray–Saint-Michel–Parc-Extension,45.5347697,-73.62337938333333,Villeray-Saint-Michel-Parc-Extension
1174,Piste de ski de fond du parc René-Lévesque,"398, chemin du Canal, Montréal",Lachine,45.4292864,-73.6699118,Lachine
1175,Pistes de glissade sur chambre à air du parc du Mont-Royal,"2000, chemin Remembrance, Montréal",Ville-Marie,45.4985062,-73.5992864,Ville-Marie
1176,Pistes de ski de fond du parc Angrignon,"3400, boulevard des Trinitaires, Montréal",Le Sud-Ouest,45.4441901,-73.6020959,Le Sud-Ouest
1177,Place Alice-Girard,"Avenue Thérèse-Lavoie-Roux, Montréal",Outremont,45.5222895,-73.6189787,Outremont
1178,Place Charles-De Gaulle,"Rue Sherbrooke, Montréal",Le Plateau-Mont-Royal,45.4449529,-73.676928,Lachine
1179,Place Charles-Este,"avenue Notre-Dame-de-Grâce, Montréal",Côte-des-Neiges–Notre-Dame-de-Grâce,45.4703095,-73.6216114,Côte-des-Neiges-Notre-Dame-de-Grâce
1180,Place d'Armes,"Place-d'Armes, Montréal",Ville-Marie,45.5048096,-73.55725502895675,Ville-Marie
1181,Place de Darlington,"Place de Darlington, Montréal",Côte-des-Neiges–Notre-Dame-de-Grâce,,,
1182,Place de l'Aviation-Civile-Internationale,"Boulevard Robert-Bourassa, Montréal",Ville-Marie,45.5049113,-73.5733761,Ville-Marie
1183,Place de la Dauversière,"Rue Le Royer, Montréal",Ville-Marie,45.6002274,-73.5996195,Saint-Léonard
1184,Place de la Grande-Paix-de-Montréal,"Place d'Youville, Montréal",Ville-Marie,45.501732849999996,-73.55508652390543,Ville-Marie
1185,Place des Aiguilleurs,"Rue Smith, Montréal",Le Sud-Ouest,45.4345026,-73.6422855,LaSalle
1186,Place des Angevins,"7130, avenue Goncourt, Montréal",Anjou,45.60283058641305,-73.5558539798913,Anjou
1187,Place des Arrimeurs,"À l’est de l’allée des Chalands, au sud des rues Ottawa et William, Montréal",Le Sud-Ouest,,,
1188,Place des Festivals,"Rue Balmoral, Montréal",Ville-Marie,45.5080657,-73.8453005,Pierrefonds-Roxboro
1189,Place des Fleurs-de-Macadam,"Avenue du Mont-Royal, Montréal",Le Plateau-Mont-Royal,45.5196043,-73.5957154,Le Plateau-Mont-Royal
1190,Place des Jumelages,"6201, place du Bois-de-Coulonge, Montréal",Anjou,,,
1191,Place des Montréalaises,"Place des Montréalaises, Montréal",Ville-Marie,45.509641450000004,-73.55597930189262,Ville-Marie
1192,Place des Patriotes,"Avenue De Lorimier, Montréal",Ville-Marie,45.5296981,-73.5607981,Ville-Marie
1193,Place du 6-Décembre-1989,"chemin Queen Mary, Montréal",Côte-des-Neiges–Notre-Dame-de-Grâce,45.4834044,-73.6293672,Côte-des-Neiges-Notre-Dame-de-Grâce
1194,Place du Bonheur-d'Occasion,"522, rue Rose-de-Lima, Montréal",Le Sud-Ouest,45.4799714,-73.5805879,Le Sud-Ouest
1195,Place du Canada,"Rue De La Gauchetière Ouest, Montréal",Ville-Marie,45.4989206,-73.5667634,Ville-Marie
1196,Place du Frère-André,"Place Phillips, Montréal",Ville-Marie,45.5030827,-73.5666531,Ville-Marie
1197,Place du Parc Saint-Joseph,"10050, boulevard Gouin Est, Montréal",Rivière-des-Prairies–Pointe-aux-Trembles,45.5706212,-73.6603636,Ahuntsic-Cartierville
1198,Place du Village-de-la-Pointe-aux-Trembles,"boulevard Saint-Jean-Baptiste, Montréal",Rivière-des-Prairies–Pointe-aux-Trembles,45.6478822,-73.5273825,Rivière-des-Prairies-Pointe-aux-Trembles
1199,Place Émilie-Gamelin,"Rue Berri, Montréal",Ville-Marie,45.5544794,-73.668545,Ahuntsic-Cartierville
1200,Place Emmett-Johns,"1449, rue Dorion, Montréal",Ville-Marie,45.52402550769231,-73.5519980076923,Ville-Marie
1201,Place Gennevilliers-Laliberté,"Place Gennevilliers Laliberté, Montréal",Mercier–Hochelaga-Maisonneuve,45.55359665,-73.53974675082989,Mercier-Hochelaga-Maisonneuve
1202,Place Gérald-Godin,"Rue Berri, Montréal",Le Plateau-Mont-Royal,45.5544794,-73.668545,Ahuntsic-Cartierville
1203,Place Gilles-Carle,"Avenue Henri-Julien, Montréal",Le Plateau-Mont-Royal,45.5379137,-73.6181735,Villeray-Saint-Michel-Parc-Extension
1204,Place Guillaume-Couture,"avenue Earnscliffe, Montréal",Côte-des-Neiges–Notre-Dame-de-Grâce,45.4780469,-73.6224261,Côte-des-Neiges-Notre-Dame-de-Grâce
1205,Place Guy-Viau,"rue Sherbrooke Ouest, Montréal",Côte-des-Neiges–Notre-Dame-de-Grâce,45.4658222,-73.624956,Côte-des-Neiges-Notre-Dame-de-Grâce
1206,Place Hector-Prud'homme,"6033, rue Saint-Hubert, Montréal",Rosemont–La Petite-Patrie,45.5347097,-73.599711,Rosemont-La Petite-Patrie
1207,Place Henri-Dunant,"6033, rue Saint-Hubert, Montréal",Ville-Marie,45.5347097,-73.599711,Rosemont-La Petite-Patrie
1208,Place Iona-Monahan,"9315, avenue de l'Esplanade, Montréal",Ahuntsic-Cartierville,45.5152046,-73.5810188,Le Plateau-Mont-Royal
1209,Place J.-Ernest-Laforce,"Angle de la rue Berri et de l'avenue Viger Est, Montréal",Ville-Marie,,,
1210,Place Jacques-Cartier,"Place Jacques-Cartier, Montréal",Ville-Marie,45.5074226,-73.5521587,Ville-Marie
1211,Place Jean-Paul-Riopelle,"Place Jean-Paul-Riopelle, Montréal",Ville-Marie,45.503336399999995,-73.56120426329136,Ville-Marie
1212,Place Joseph-Venne,"1960, rue Poupart, Montréal",Ville-Marie,45.5318177,-73.5535064,Ville-Marie
1213,Place Marcelle-Ferron,"Avenue Bernard et Avenue de l'Épée, Montréal",Outremont,,,
1214,Place Marguerite-Bourgeoys,"Rue Notre-Dame Est, Montréal",Ville-Marie,45.5848084,-73.5085106,Mercier-Hochelaga-Maisonneuve
1215,Place Monseigneur-Charbonneau,"Boulevard René-Lévesque Ouest, Montréal",Ville-Marie,45.5069844,-73.5633118,Ville-Marie
1216,Place Norman-Bethune,"Boulevard De Maisonneuve Ouest, Montréal",Ville-Marie,45.4729223,-73.6056494,Côte-des-Neiges-Notre-Dame-de-Grâce
1217,Place Pasteur,"Rue Saint-Denis, Montréal",Ville-Marie,45.5447739,-73.6367345,Villeray-Saint-Michel-Parc-Extension
1218,Place Raymond-Plante,"780, boulevard Rosemont, Montréal",Rosemont–La Petite-Patrie,45.532685511764704,-73.5968289,Rosemont-La Petite-Patrie
1219,Place Robert-Burns,"Dans la parc Antenne Longue-Pointe, entre les rues Saint-Clément et Viau, Montréal",Mercier–Hochelaga-Maisonneuve,,,
1220,Place Rodolphe-Rousseau,"Boulevard Edouard-Laurin, Montréal",Saint-Laurent,45.5098185,-73.6866528,Saint-Laurent
1221,Place Roland-Proulx,"50, square Sir-George-Étienne-Cartier, Montréal",Le Sud-Ouest,45.47204051157536,-73.58454876385001,Le Sud-Ouest
1222,Place Roy,"880, rue Roy Est, Montréal",Le Plateau-Mont-Royal,45.5216583,-73.5702752,Le Plateau-Mont-Royal
1223,Place Royale,"Place Royale, Montréal",Ville-Marie,45.50322845,-73.55430308501505,Ville-Marie
1224,Place Simon-Valois,"Avenue Valois, Montréal",Mercier–Hochelaga-Maisonneuve,45.5497398,-73.5519708801724,Mercier-Hochelaga-Maisonneuve
1225,Place Sun-Yat-Sen,"1055, rue Clark, Montréal",Ville-Marie,45.5455835,-73.6606331,Ahuntsic-Cartierville
1226,Place Vauquelin,"275, rue Notre-Dame Est, Montréal",Ville-Marie,45.5088392,-73.55413899162738,Ville-Marie
1227,Place Victor-Morin,"Rue Bonsecours, Montréal",Ville-Marie,45.5104814,-73.5533439,Ville-Marie
1228,Placette verdunoise,"L'espace asphalté, entre la mairie d’arrondissement et le parc du Souvenir, Montréal",Verdun,,,
1229,Promenade du Rail,"Angle de la 21e Avenue et de la rue Victoria, Montréal",Lachine,,,
1230,Promenade Père-Marquette,"1450, boulevard Saint-Joseph, Montréal",Lachine,45.4319398,-73.6772982,Lachine
1231,Square Cabot,"2330, rue Sainte-Catherine Ouest, Montréal",Ville-Marie,45.4895586,-73.5842306,Ville-Marie
1232,Square Chaboillez,"Arrondissement de Ville-Marie, situé dans le quadrilatère formé par les rues Peel, Saint-Jacques, de la Cathédrale et Notre-Dame, Montréal",Ville-Marie,,,
1233,Square Dalhousie,"Rue Saint-Hubert , Montréal",Ville-Marie,45.5291212,-73.5881817,Le Plateau-Mont-Royal
1234,Square des Frères-Charon,"Rue des Soeurs-Grises, Montréal",Ville-Marie,45.4995075,-73.5565377,Ville-Marie
1235,Square Dézéry,"Rue Dézéry, Montréal",Mercier–Hochelaga-Maisonneuve,45.5424783,-73.5521722,Mercier-Hochelaga-Maisonneuve
1236,Square Dorchester,"2903 Rue Peel, Montréal",Ville-Marie,45.4941853,-73.5598028,Le Sud-Ouest
1237,Square du Nordet,"2499, rue des Équinoxes, Montréal",Saint-Laurent,45.5184649,-73.7107121,Saint-Laurent
1238,Square du Petit-Prince,"1940, rue de Cognac, Montréal",Saint-Laurent,45.5148355,-73.7075081,Saint-Laurent
1239,Square Phillips,"Rue Sainte-Catherine Ouest, entre l’avenue Union et les rues Cathcart et place Phillips, Montréal",Ville-Marie,,,
1240,Square Saint-Louis,"Rue du Square Saint-Louis, Montréal",Le Plateau-Mont-Royal,45.516494,-73.569792,Le Plateau-Mont-Royal
1241,Square Saint-Patrick,"1335, rue Saint-Patrick, Montréal",Le Sud-Ouest,45.4889336,-73.557488,Le Sud-Ouest
1242,Square Sainte-Élisabeth," 633, rue de Courcelle, Montréal",Le Sud-Ouest,45.4738773,-73.5909589,Le Sud-Ouest
1243,Square Sir-George-Étienne-Cartier,"127, rue du Square-Sir-George-Étienne-Cartier, Montréal",Le Sud-Ouest,,,
1244,Square Victoria,"Rue du Square-Victoria, Montréal",Ville-Marie,45.501734,-73.5616416,Ville-Marie
1245,Square Viger,"Avenue Viger Est, Montréal",Ville-Marie,45.5190478,-73.5490185,Ville-Marie
1246,"Terrain de balle, baseball du parc Jeanne-Mance","4422, avenue de l'Esplanade, Montréal",Le Plateau-Mont-Royal,45.5177321,-73.58681530000001,Le Plateau-Mont-Royal
1247,Terrain de pétanque de la rue des Fauvettes,"Rue des Fauvettes, Montréal",Verdun,45.4601144,-73.5501569,Verdun
1248,Terrain de soccer du parc Jeanne-Mance,"4422, avenue de l'Esplanade, Montréal",Le Plateau-Mont-Royal,45.5177321,-73.58681530000001,Le Plateau-Mont-Royal
1249,Woonerf Saint-Pierre,"160, rue Butternut, Montréal",Le Sud-Ouest,45.4708751,-73.5871648,Le Sud-Ouest
