,Centre,Addresse,Quartier,Lat,Lon,NOM
0,Anneau de glace au parc Saint-Émile,"Coin des rues Davidson et Rachel Est, Montréal",Rosemont–La Petite-Patrie,,,
1,Anneau de glace du parc Beaudet,"650, boulevard Décarie, Montréal",Saint-Laurent,45.480482,-73.6214843,Côte-des-Neiges-Notre-Dame-de-Grâce
2,Anneau de glace du parc Beaulac,"1145, rue Elizabeth, Montréal",Saint-Laurent,45.5194452,-73.6786465,Saint-Laurent
3,Anneau de glace du parc Chamberland,"800, rue Dorais, Montréal",Saint-Laurent,45.5037241,-73.6901641,Saint-Laurent
4,Anneau de glace du parc Decelles,"845, rue Roy, Montréal",Saint-Laurent,45.5141086,-73.6786261,Saint-Laurent
5,Anneau de glace du parc François-Perrault,"7525, rue François-Perrault, Montréal",Villeray–Saint-Michel–Parc-Extension,45.5624595,-73.60057385,Villeray-Saint-Michel-Parc-Extension
6,Anneau de glace du parc Philippe-Laheurte,"3035, avenue Ernest-Hemingway, Montréal",Saint-Laurent,45.50734442727273,-73.7167622090909,Saint-Laurent
7,Anneau de glace du parc Rosewood,"Avenue de Mount Vernon, Montréal",Lachine,45.4495079,-73.6521872,Lachine
8,Anneau de glace du parc Saint-Laurent,"Rue Poirier, Montréal",Saint-Laurent,45.5187344,-73.6983366,Saint-Laurent
9,Anneau de glace réfrigéré du parc Hayward,"Avenue Orchard, Montréal",LaSalle,45.4227349,-73.6475287,LaSalle
10,Aréna Ahuntsic,"10560, rue Saint-Hubert, Montréal",Ahuntsic-Cartierville,45.5571885,-73.664571,Ahuntsic-Cartierville
11,Aréna Bill-Durnan,"4988, rue Vézina, Montréal",Côte-des-Neiges–Notre-Dame-de-Grâce,45.4947432,-73.64454795017818,Côte-des-Neiges-Notre-Dame-de-Grâce
12,Aréna Camillien-Houde,"1696, rue Montcalm, Montréal",Ville-Marie,45.5198915,-73.5598555,Ville-Marie
13,Aréna Chaumont,"8750, avenue Chaumont, Montréal",Anjou,45.5250741,-73.5745217,Le Plateau-Mont-Royal
14,Aréna Chénier,"8200, avenue Chénier, Montréal",Anjou,45.6012678,-73.5424017,Anjou
15,Aréna Clément-Jetté,"8780, avenue Dubuisson, Montréal",Mercier–Hochelaga-Maisonneuve,45.6015372,-73.5168712,Mercier-Hochelaga-Maisonneuve
16,Aréna d'Outremont,"999, avenue McEachran, Montréal",Outremont,45.5199735,-73.61951115178306,Outremont
17,Aréna de Saint-Michel,"3440, rue Jarry Est, Montréal",Villeray–Saint-Michel–Parc-Extension,45.566019383333334,-73.60740775,Villeray-Saint-Michel-Parc-Extension
18,Aréna Doug-Harvey,"4985, avenue West Hill, Montréal",Côte-des-Neiges–Notre-Dame-de-Grâce,45.47140995,-73.6385717440526,Côte-des-Neiges-Notre-Dame-de-Grâce
19,Aréna Étienne-Desmarteau,"3430, rue de Bellechasse, Montréal",Rosemont–La Petite-Patrie,45.555531650000006,-73.58023942656416,Rosemont-La Petite-Patrie
20,Aréna Fleury,"3700, rue Fleury Est, Montréal",Montréal-Nord,45.5834718,-73.637882,Montréal-Nord
21,Aréna Francis-Bouillon,"3175, rue de Rouen, Montréal",Mercier–Hochelaga-Maisonneuve,45.54191052727273,-73.55101582727272,Mercier-Hochelaga-Maisonneuve
22,Aréna Garon,"11212, avenue Garon, Montréal",Montréal-Nord,45.5947285,-73.6376267,Montréal-Nord
23,Aréna George-Mantha,"5485, chemin de la Côte-Saint-Paul, Montréal",Le Sud-Ouest,45.4671852,-73.593996,Le Sud-Ouest
24,Aréna Howie-Morenz,"8650, avenue Querbes, Montréal",Villeray–Saint-Michel–Parc-Extension,45.534219,-73.6420111,Villeray-Saint-Michel-Parc-Extension
25,Aréna Jacques-Lemaire,"8681, boulevard Champlain, Montréal",LaSalle,45.4191291,-73.621895,LaSalle
26,Aréna Marcelin-Wilson,"11301, boulevard de l'Acadie, Montréal",Ahuntsic-Cartierville,45.5359993,-73.6842383,Ahuntsic-Cartierville
27,Aréna Martin-Brodeur,"5300, boulevard Robert, Montréal",Saint-Léonard,45.5858089,-73.6010543,Saint-Léonard
28,Aréna Martin-Lapointe,"183, rue des Érables, Montréal",Lachine,45.4457062,-73.6513223,Lachine
29,Aréna Maurice-Richard,"2800, rue Viau, Montréal",Mercier–Hochelaga-Maisonneuve,45.5622426,-73.54723979809955,Mercier-Hochelaga-Maisonneuve
30,Aréna Michel-Normandin,"850, avenue Émile-Journault, Montréal",Ahuntsic-Cartierville,45.5513341,-73.6396096,Ahuntsic-Cartierville
31,Aréna Mont-Royal,"4365, rue Cartier, Montréal",Le Plateau-Mont-Royal,45.533331700000005,-73.57175522810255,Le Plateau-Mont-Royal
32,Aréna Père-Marquette,"1600, rue de  Drucourt, Montréal",Rosemont–La Petite-Patrie,45.540996,-73.59493220032282,Rosemont-La Petite-Patrie
33,Aréna Pierre « Pete » Morin,"1925, rue Saint-Antoine, Montréal",Lachine,45.439831,-73.6816843,Lachine
34,Aréna Raymond-Bourque,"2345, boulevard Thimens, Montréal",Saint-Laurent,45.5079871,-73.70119532827582,Saint-Laurent
35,Aréna René-Masson,"9175, boulevard Perras, Montréal",Rivière-des-Prairies–Pointe-aux-Trembles,45.6515845,-73.57788754596211,Rivière-des-Prairies-Pointe-aux-Trembles
36,Aréna Roberto-Luongo,"7755, rue Colbert, Montréal",Saint-Léonard,45.573985,-73.5954318,Saint-Léonard
37,Aréna Rodrigue-Gilbert,"1515, boulevard du Tricentenaire, Montréal",Rivière-des-Prairies–Pointe-aux-Trembles,45.6512983,-73.5000362,Rivière-des-Prairies-Pointe-aux-Trembles
38,Aréna Rolland,"12000, boulevard Rolland, Montréal",Montréal-Nord,45.6150034,-73.6192497,Montréal-Nord
39,Aréna Saint-Charles,"1055, rue d'Hibernia, Montréal",Le Sud-Ouest,45.4796566,-73.5636344,Le Sud-Ouest
40,Aréna Saint-Donat,"6750, rue de Marseille, Montréal",Mercier–Hochelaga-Maisonneuve,45.5827282,-73.53833538888888,Mercier-Hochelaga-Maisonneuve
41,Aréna Saint-Louis,"5633, rue Saint-Dominique, Montréal",Le Plateau-Mont-Royal,45.52789558539264,-73.60099536412007,Le Plateau-Mont-Royal
42,Aréna St-Jean-Vianney,"12640, boulevard Gouin Est, Montréal",Rivière-des-Prairies–Pointe-aux-Trembles,45.69285655715775,-73.52226468314812,Rivière-des-Prairies-Pointe-aux-Trembles
43,Aréna Sylvio-Mantha,"5485, chemin de la Côte-Saint-Paul, Montréal",Le Sud-Ouest,45.4671852,-73.593996,Le Sud-Ouest
44,Auditorium de Verdun,"4110, boulevard LaSalle, Montréal",Verdun,45.46224058181818,-73.5631167,Verdun
45,Avenue Bernard,"Entre les avenues Wiseman et Bloomfield, Montréal",Outremont,,,
46,Avenue du Mont-Royal,"Entre la rue Saint-Laurent et la rue Fullum, Montréal",Le Plateau-Mont-Royal,,,
47,Avenue du Musée,"Avenue du Musée, Montréal",Ville-Marie,45.4999792,-73.582047,Ville-Marie
48,Avenue Émile-Duployé,"Avenue Émile-Duployé, Montréal",Le Plateau-Mont-Royal,45.529779,-73.5701096,Le Plateau-Mont-Royal
49,Avenue Park Stanley,"Entre la rue Basile-Routhier et l’avenue Durham, Montréal",Ahuntsic-Cartierville,,,
50,Bain Émard,"6071, rue Laurendeau, Montréal",Le Sud-Ouest,45.4579004,-73.5885067,Le Sud-Ouest
51,Bain Morgan,"1875, avenue Morgan, Montréal",Mercier–Hochelaga-Maisonneuve,45.553472,-73.53831615325083,Mercier-Hochelaga-Maisonneuve
52,Boulevard Gouin Est,"Entre la rue De Martigny et l’avenue Hamelin, Montréal",Ahuntsic-Cartierville,,,
53,Boulevard Gouin Ouest,"Entre les rues Paiement et Chauret, Montréal",L'Île-Bizard–Sainte-Geneviève,,,
54,Butte de glissade au parc Frédéric-Back,"Située à l'arrière du centre opérationnel du Complexe environnemental Saint-Michel, Montréal",Villeray–Saint-Michel–Parc-Extension,,,
55,Butte de glissade d'Anjou-sur-le-Lac,"Jonction de la promenade des Riverains et du boulevard des Galeries-D’Anjou, Montréal",Anjou,,,
56,Butte de glissade du parc Aimé-Léonard,"4975, boulevard Gouin Est, Montréal",Montréal-Nord,45.6083541,-73.638534,Montréal-Nord
57,Butte de glissade du parc Coubertin,"4755, rue Valéry, Montréal",Saint-Léonard,45.58324,-73.6102527,Saint-Léonard
58,Butte de glissade du parc Delorme,"6060, rue de Honfleur, Montréal",Saint-Léonard,45.5935518,-73.5894974,Saint-Léonard
59,Butte de glissade du parc des Faubourgs,"1872, rue Dorion, Montréal",Ville-Marie,45.52620582,-73.55693920666667,Ville-Marie
60,Butte de glissade du parc du Pélican,"2590, rue Masson, Montréal",Rosemont–La Petite-Patrie,45.5451252,-73.5765343,Rosemont-La Petite-Patrie
61,Butte de glissade du parc du Père-Marquette,"1602, rue de Bellechasse, Montréal",Rosemont–La Petite-Patrie,45.5409785,-73.5936771,Rosemont-La Petite-Patrie
62,Butte de glissade du parc Ferland,"6020 boulevard Lavoisier, Montréal",Saint-Léonard,45.5957301,-73.6000641,Saint-Léonard
63,Butte de glissade du parc François-Vaillancourt,"1309, 28e Avenue, Montréal",Rivière-des-Prairies–Pointe-aux-Trembles,45.4345846,-73.6889746,Lachine
64,Butte de glissade du parc Goncourt,"7130, avenue Goncourt, Montréal",Anjou,45.60283058641305,-73.5558539798913,Anjou
65,Butte de glissade du parc Henri-Bourassa,"6100, rue Pascal, Montréal",Montréal-Nord,45.6155173,-73.6244639,Montréal-Nord
66,Butte de glissade du parc Jos-Montferrand,"2560, boulevard De Maisonneuve Est, Montréal",Ville-Marie,45.5160877,-73.5603048,Ville-Marie
67,Butte de glissade du parc Joseph-Paré,"43e Avenue, Montréal",Rosemont–La Petite-Patrie,45.4183222,-73.6191356,LaSalle
68,Butte de glissade du parc Lacordaire,"12576, boulevard Lacordaire, Montréal",Montréal-Nord,45.61677611176471,-73.63084898235294,Montréal-Nord
69,Butte de glissade du parc Lafond,"3500, avenue Laurier Est, Montréal",Rosemont–La Petite-Patrie,45.5521213,-73.5699362,Rosemont-La Petite-Patrie
70,Butte de glissade du parc Médéric-Martin,"2329, avenue Gascon, Montréal",Ville-Marie,45.535899792537315,-73.55673144626866,Ville-Marie
71,Butte de glissade du parc Percy-Walters,"40, avenue McGregor, Montréal",Ville-Marie,45.4990405,-73.5851904,Ville-Marie
72,Butte de glissade du parc Pilon,"11135, avenue des Récollets, Montréal",Montréal-Nord,45.5924882,-73.6421731,Montréal-Nord
73,Butte de glissade du parc Saint-Joseph,"9909, 68e Avenue, Montréal",Rivière-des-Prairies–Pointe-aux-Trembles,45.4185917,-73.6273674,LaSalle
74,Butte de glissade du parc Sauvé,"11440, avenue Éthier, Montréal",Montréal-Nord,45.5997791,-73.6354184,Montréal-Nord
75,Butte de glissade libre du parc Carlos-d'Alcantara,"Rue De Contrecœur, Montréal",Mercier–Hochelaga-Maisonneuve,45.6107142,-73.5195256,Mercier-Hochelaga-Maisonneuve
76,Butte de glissade libre du parc Félix-Leclerc,"Angle des rues Bélanger et François-Boivin, Montréal",Mercier–Hochelaga-Maisonneuve,,,
77,Butte de glissade libre du parc Francesca-Cabrini,"rue Cabrini, Montréal",Mercier–Hochelaga-Maisonneuve,45.580978,-73.5648764,Mercier-Hochelaga-Maisonneuve
78,Buttes de glissade du parc Le Ber,"202, avenue Ash, Montréal",Le Sud-Ouest,45.4780825,-73.5520569,Le Sud-Ouest
79,Carré Notre-Dame-des-Victoires,"Entre les rues Dickson, Boileau et Bossuet, Montréal",Mercier–Hochelaga-Maisonneuve,,,
80,Centre aquatique de Rivière-des-Prairies,"12515, boulevard Rodolphe-Forget, Montréal",Rivière-des-Prairies–Pointe-aux-Trembles,45.6507836,-73.5802846,Rivière-des-Prairies-Pointe-aux-Trembles
81,Centre d'activités du Collège Jean-Eudes,"3535, boulevard Rosemont, Montréal",Rosemont–La Petite-Patrie,45.5547551,-73.579298,Rosemont-La Petite-Patrie
82,Centre d'activités Étienne-Desmarteau,"3430, rue de Bellechasse, Montréal",Rosemont–La Petite-Patrie,45.555531650000006,-73.58023942656416,Rosemont-La Petite-Patrie
83,Centre d'activités Masson,"2705, rue Masson, Montréal",Rosemont–La Petite-Patrie,45.5465713,-73.5759606,Rosemont-La Petite-Patrie
84,Centre de loisirs Saint-Denis,"5115, rue Rivard, Montréal",Le Plateau-Mont-Royal,45.527727999999996,-73.58927324999999,Le Plateau-Mont-Royal
85,Centre de plein air du parc-nature Cap-Saint-Jacques,"20099, boulevard Gouin Ouest, Montréal",Pierrefonds-Roxboro,45.4610271,-73.9205207,Pierrefonds-Roxboro
86,Centre de tennis Cavelier,"330, 80e Avenue, Montréal",LaSalle,45.4189894,-73.6363806,LaSalle
87,Centre de tennis du parc LaSalle,"1500, rue Remembrance, Montréal",Lachine,45.4380877,-73.67757574285714,Lachine
88,Centre Épic,"5055, rue Saint-Zotique Est, Montréal",Rosemont–La Petite-Patrie,45.536416,-73.6075601,Rosemont-La Petite-Patrie
89,Centre Père Sablon,"4265, avenue Papineau, Montréal",Le Plateau-Mont-Royal,45.53146275,-73.57046629828372,Le Plateau-Mont-Royal
90,Centre Pierre-Charbonneau,"3000, rue Viau, Montréal",Mercier–Hochelaga-Maisonneuve,45.56187635,-73.55016732771526,Mercier-Hochelaga-Maisonneuve
91,Centre Robert-Sauvé,"Rue de la Caserne, Montréal",L'Île-Bizard–Sainte-Geneviève,45.4822932,-73.8642555,Pierrefonds-Roxboro
92,Centre Saint-Charles,"1055, rue d'Hibernia, Montréal",Le Sud-Ouest,45.4796566,-73.5636344,Le Sud-Ouest
93,Centre sportif Côte-des-Neiges,"4880, avenue Van Horne, Montréal",Côte-des-Neiges–Notre-Dame-de-Grâce,45.49263905,-73.63776002054809,Côte-des-Neiges-Notre-Dame-de-Grâce
94,Centre sportif de la Confédération,"5330, avenue de Kensington, Montréal",Côte-des-Neiges–Notre-Dame-de-Grâce,45.4340901,-73.8718274,Beaconsfield
95,Centre sportif de la Petite-Bourgogne,"1825, rue Notre-Dame Ouest, Montréal",Le Sud-Ouest,45.4884066,-73.5686323,Le Sud-Ouest
96,Centre sportif de Notre-Dame-de-Grâce,"6445, avenue de Monkland, Montréal",Côte-des-Neiges–Notre-Dame-de-Grâce,45.4663329,-73.63240552567582,Côte-des-Neiges-Notre-Dame-de-Grâce
97,Centre sportif Dollard-St-Laurent,"707, 75e Avenue, Montréal",LaSalle,45.4226953,-73.6289742,LaSalle
98,Centre sportif du Parc olympique,"4141, avenue Pierre-De-Coubertin, Montréal",Mercier–Hochelaga-Maisonneuve,45.5559815,-73.5504399,Mercier-Hochelaga-Maisonneuve
99,Centre sportif Jean-Rougeau,"8000, rue de Normanville, Montréal",Villeray–Saint-Michel–Parc-Extension,45.548225450000004,-73.62152822049896,Villeray-Saint-Michel-Parc-Extension
100,Centre sportif Trenholme,"6800, rue Sherbrooke Ouest, Montréal",Côte-des-Neiges–Notre-Dame-de-Grâce,45.4615438,-73.6328837,Côte-des-Neiges-Notre-Dame-de-Grâce
101,Chalet du parc Saint-Édouard,"6789, rue Saint-André, Montréal",Rosemont–La Petite-Patrie,45.538651235135134,-73.6073121054054,Rosemont-La Petite-Patrie
102,Chalet scouts,"510, montée de l'Église, Montréal",L'Île-Bizard–Sainte-Geneviève,45.48972860724901,-73.8830590102117,L'Île-Bizard-Sainte-Geneviève
103,Chemin Gilford,"Entre les rues Saint-Denis et Berri, Montréal",Le Plateau-Mont-Royal,,,
104,Complexe aquatique de Rosemont,"6150, 9e Avenue, Montréal",Rosemont–La Petite-Patrie,45.4282698,-73.5982662,LaSalle
105,Complexe aquatique de Saint-Léonard,"5115, rue des Galets, Montréal",Saint-Léonard,45.5847778,-73.59992793361508,Saint-Léonard
106,Complexe aquatique Michel-Leduc (Aquadôme),"1411, rue Lapierre, Montréal",LaSalle,45.4359436,-73.6093971,LaSalle
107,Complexe récréatif Gadbois,"5485, chemin de la Côte-Saint-Paul, Montréal",Le Sud-Ouest,45.4671852,-73.593996,Le Sud-Ouest
108,Complexe sportif Claude-Robillard,"1000, avenue Émile-Journault, Montréal",Ahuntsic-Cartierville,45.55282305,-73.63600750036849,Ahuntsic-Cartierville
109,Complexe sportif de l'école secondaire d'Anjou,"5515, avenue de l'Aréna, Montréal",Anjou,45.6021293,-73.5420809,Anjou
110,Complexe sportif de Saint-Laurent,"2385, boulevard Thimens, Montréal",Saint-Laurent,45.505849133333335,-73.70225604444444,Saint-Laurent
111,Complexe sportif Marie-Victorin,"7000, boulevard Maurice-Duplessis, Montréal",Rivière-des-Prairies–Pointe-aux-Trembles,45.6194092,-73.6101395,Montréal-Nord
112,Complexe sportif Saint-Léonard,"5300, boulevard Robert, Montréal",Saint-Léonard,45.5858089,-73.6010543,Saint-Léonard
113,Complexe sportif Saint-Raphaël,"750, boulevard Jacques-Bizard, Montréal",L'Île-Bizard–Sainte-Geneviève,45.502868199999995,-73.8776097950556,L'Île-Bizard-Sainte-Geneviève
114,Complexe sportif St-Jean-Vianney,"12640, boulevard Gouin Est, Montréal",Rivière-des-Prairies–Pointe-aux-Trembles,45.69285655715775,-73.52226468314812,Rivière-des-Prairies-Pointe-aux-Trembles
115,Court de tennis du parc Alexander,"14899, rue Oakwood, Montréal",Pierrefonds-Roxboro,45.47494590931249,-73.8558238070867,Pierrefonds-Roxboro
116,Court de tennis du parc Alexis-Nihon,"2999, rue Badeaux, Montréal",Saint-Laurent,45.4972255,-73.6894491,Saint-Laurent
117,Court de tennis du parc Aragon,"rue Sunbury, Montréal",Pierrefonds-Roxboro,45.4968613,-73.8383771,Pierrefonds-Roxboro
118,Court de tennis du parc Arthur-Therrien,"3750, boulevard Gaétan-Laberge, Montréal",Verdun,45.4647823,-73.5627,Verdun
119,Court de tennis du parc Brook,"12800, rue Brook, Montréal",Pierrefonds-Roxboro,45.5104360548896,-73.84404322853007,Pierrefonds-Roxboro
120,Court de tennis du parc Carignan,"4100, rue Provost, Montréal",Lachine,45.4420053,-73.7010692,Lachine
121,Court de tennis du parc Cousineau,"1740, avenue O'Brien, Montréal",Saint-Laurent,45.5208944,-73.6889195,Saint-Laurent
122,Court de tennis du parc d'À-Ma-Baie,"9625, boulevard Gouin Ouest, Montréal",Pierrefonds-Roxboro,45.5041775,-73.7818377,Pierrefonds-Roxboro
123,Court de tennis du parc Dan-Hanganu (Elgar),"260, rue Elgar, Montréal",Verdun,45.4572081,-73.5468802,Verdun
124,Court de tennis du parc Daniel-Johnson,"1500, boulevard du Tricentenaire, Montréal",Rivière-des-Prairies–Pointe-aux-Trembles,45.6499733,-73.4927775,Rivière-des-Prairies-Pointe-aux-Trembles
125,Court de tennis du parc de l'École secondaire de la Pointe-aux-Trembles,"15200, rue Sherbrooke Est, Montréal",Rivière-des-Prairies–Pointe-aux-Trembles,45.5531551,-73.5548571,Rosemont-La Petite-Patrie
126,Court de tennis du parc de la Fontaine,"570, place de la Fontaine, Montréal",Verdun,45.4631961,-73.5443182,Verdun
127,Court de tennis du parc de la Reine-Élisabeth,"rue Penniston, Montréal",Verdun,45.4395481,-73.5916701,Verdun
128,Court de tennis du parc de Roxboro,"10, 11e Rue, Montréal",Pierrefonds-Roxboro,45.5051794,-73.8030817,Pierrefonds-Roxboro
129,Court de tennis du parc Dixie,"695, 54e Avenue, Montréal",Lachine,45.44348,-73.7180735,Lachine
130,Court de tennis du parc Dollard-Morin,"11750, rue La Valinière, Montréal",Rivière-des-Prairies–Pointe-aux-Trembles,45.6278549,-73.5927167,Rivière-des-Prairies-Pointe-aux-Trembles
131,Court de tennis du parc Duval,"rue Atlas, Montréal",Pierrefonds-Roxboro,45.4645018,-73.8683822,Pierrefonds-Roxboro
132,Court de tennis du parc-école Calixa-Lavallée,"4444, boulevard Henri-Bourassa Est, Montréal",Montréal-Nord,45.5992306,-73.6393742,Montréal-Nord
133,Court de tennis du parc Eugène-Dostie,"Montée de l'Église, Montréal",L'Île-Bizard–Sainte-Geneviève,45.5011327,-73.8965177,L'Île-Bizard-Sainte-Geneviève
134,Court de tennis du parc F.-X.-Garneau,"Place Elmwood, Montréal",Outremont,45.5166473,-73.6052336,Outremont
135,Court de tennis du parc François-Perrault,"7525, rue François-Perrault, Montréal",Villeray–Saint-Michel–Parc-Extension,45.5624595,-73.60057385,Villeray-Saint-Michel-Parc-Extension
136,Court de tennis du parc George-Vernot,"8475, 13e Avenue, Montréal",Villeray–Saint-Michel–Parc-Extension,45.568444876,-73.616728756,Villeray-Saint-Michel-Parc-Extension
137,Court de tennis du parc Gohier,"730, rue Buchanan, Montréal",Saint-Laurent,45.5090109,-73.6814752,Saint-Laurent
138,Court de tennis du parc Greendale,"Rue King, Montréal",Pierrefonds-Roxboro,45.4979788,-73.5543989,Ville-Marie
139,Court de tennis du parc Hartenstein,"1505, rue Cardinal, Montréal",Saint-Laurent,45.5160559,-73.6900114,Saint-Laurent
140,Court de tennis du parc Hayward,"Avenue Orchard, Montréal",LaSalle,45.4227349,-73.6475287,LaSalle
141,Court de tennis du parc Hébert - LaSalle,"68e Avenue, Montréal",LaSalle,45.4185917,-73.6273674,LaSalle
142,Court de tennis du parc Hillcrest,"Rue Hillcrest, Montréal",Pierrefonds-Roxboro,45.4633445,-73.870886,Pierrefonds-Roxboro
143,Court de tennis du parc Jean-Duceppe,"Rue André-Laurendeau, Montréal",Rosemont–La Petite-Patrie,45.5440527,-73.5661178,Rosemont-La Petite-Patrie
144,Court de tennis du parc Joyce,"650, avenue Rockland, Montréal",Outremont,45.515283971428566,-73.61437147142857,Outremont
145,Court de tennis du parc Kirkland,"123, rue Léo-Pétrin, Montréal",Lachine,45.4466295,-73.6479952,Lachine
146,Court de tennis du parc Le Carignan,"11481, avenue P.-M.-Favier, Montréal",Montréal-Nord,45.6093388,-73.6157397,Montréal-Nord
147,Court de tennis du parc Lefebvre,"8600, rue Hardy, Montréal",LaSalle,45.4373064,-73.6352858,LaSalle
148,Court de tennis du parc Louis-Riel,"5850, rue De Carignan, Montréal",Mercier–Hochelaga-Maisonneuve,,,
149,Court de tennis du parc Marcel-Laurin,"2345, boulevard Thimens, Montréal",Saint-Laurent,45.5079871,-73.70119532827582,Saint-Laurent
150,Court de tennis du parc Marie-Claire-Daveluy,"12180, avenue Jean-Yves-Bigras, Montréal",Rivière-des-Prairies–Pointe-aux-Trembles,45.6490698,-73.5684006,Rivière-des-Prairies-Pointe-aux-Trembles
151,Court de tennis du parc Marlborough,"2305, rue Beauzèle, Montréal",Saint-Laurent,45.5223451,-73.719727,Saint-Laurent
152,Court de tennis du parc Ménard - LaSalle,"9640, rue Clément, Montréal",LaSalle,45.4346813,-73.6533865,LaSalle
153,Court de tennis du parc Munro,"Rue Allard, Montréal",Pierrefonds-Roxboro,45.4487399,-73.6068654,LaSalle
154,Court de tennis du parc Noël-Sud,"3025, rue Biret, Montréal",Saint-Laurent,45.5139366,-73.7275772,Saint-Laurent
155,Court de tennis du parc Oakwood,"avenue Roskilde, Montréal",Outremont,45.5133918,-73.6003715,Outremont
156,Court de tennis du parc Ottawa,"10400, avenue de Belleville, Montréal",Montréal-Nord,45.581939399999996,-73.64229353880937,Montréal-Nord
157,Court de tennis du parc Ouellette,"1407, rue Serre, Montréal",LaSalle,45.4320394,-73.6214194,LaSalle
158,Court de tennis du parc Painter,"260, rue Marcotte, Montréal",Saint-Laurent,45.5286235,-73.6774723,Saint-Laurent
159,Court de tennis du parc Parkinson,"Boulevard de Pierrefonds, Montréal",Pierrefonds-Roxboro,45.5036366,-73.8287305,Pierrefonds-Roxboro
160,Court de tennis du parc Riverside,"625, 35e Avenue, Montréal",LaSalle,45.4195554,-73.61326899999999,LaSalle
161,Court de tennis du parc Saint-Laurent,"11614, avenue Salk, Montréal",Montréal-Nord,45.6064452,-73.6290272,Montréal-Nord
162,Court de tennis du parc Saint-Laurent - Arr. Saint-Laurent,"845, rue Poirier, Montréal",Saint-Laurent,45.5264681,-73.6867105,Saint-Laurent
163,Court de tennis du parc Saint-Viateur,"530, avenue Querbes, Montréal",Outremont,45.52100166,-73.60600112,Outremont
164,Court de tennis du parc Sainte-Bernadette,"6825, 16e Avenue, Montréal",Rosemont–La Petite-Patrie,45.5602763,-73.5885682,Rosemont-La Petite-Patrie
165,Court de tennis du parc Sauvé,"6825, 16e Avenue, Montréal",Montréal-Nord,45.5602763,-73.5885682,Rosemont-La Petite-Patrie
166,Court de tennis du parc Wilson,"rue Brown, Montréal",Verdun,45.429746,-73.6288824,LaSalle
167,Courts de racquetball du Complexe sportif Claude-Robillard,"1000, avenue Émile-Journault, Montréal",Ahuntsic-Cartierville,45.55282305,-73.63600750036849,Ahuntsic-Cartierville
168,Courts de squash du complexe sportif Claude-Robillard,"1000, avenue Émile-Journault, Montréal",Ahuntsic-Cartierville,45.55282305,-73.63600750036849,Ahuntsic-Cartierville
169,Courts de tennis de la place Roland-Proulx,"50, square Sir-George-Étienne-Cartier, Montréal",Le Sud-Ouest,45.47204051157536,-73.58454876385001,Le Sud-Ouest
170,Courts de tennis du parc des Roseraies,"7070, avenue de la Nantaise, Montréal",Anjou,45.5933175,-73.5560569,Anjou
171,Courts de tennis du parc Goncourt,"7130, avenue Goncourt, Montréal",Anjou,45.60283058641305,-73.5558539798913,Anjou
172,Courts de tennis du parc Jacques-Viger,"259, rue Saint-Philippe, Montréal",Le Sud-Ouest,45.47513422857143,-73.58396755238095,Le Sud-Ouest
173,Courts de tennis du parc Jarry (Stade IGA),"285, rue Gary-Carter, Montréal",Villeray–Saint-Michel–Parc-Extension,45.5331486,-73.6259023,Villeray-Saint-Michel-Parc-Extension
174,Courts de tennis du parc La Fontaine,"3500, avenue Émile-Duployé, Montréal",Le Plateau-Mont-Royal,45.529779,-73.5701096,Le Plateau-Mont-Royal
175,Courts de tennis du parc Lucie-Bruneau,"7051, avenue de l'Alsace, Montréal",Anjou,45.6036608,-73.5825274,Anjou
176,Courts de tennis du parc Médéric-Martin,"2255, rue du Havre, Montréal",Ville-Marie,45.5348249,-73.5552921,Ville-Marie
177,Courts de tennis du parc Roger-Rousseau,"7501, avenue Rondeau, Montréal",Anjou,45.6159526,-73.550939,Anjou
178,Courts de tennis du parc Saint-Jean-de-Matha,"Rue Dumas, Montréal",Le Sud-Ouest,45.4590986,-73.6006824,Le Sud-Ouest
179,Courts de tennis extérieurs du Complexe sportif Claude-Robillard,"1000, avenue Émile-Journault, Montréal",Ahuntsic-Cartierville,45.55282305,-73.63600750036849,Ahuntsic-Cartierville
180,Courts de tennis intérieurs du complexe sportif Claude-Robillard,"1000, avenue Émile-Journault, Montréal",Ahuntsic-Cartierville,45.55282305,-73.63600750036849,Ahuntsic-Cartierville
181,Dôme Hébert,"7675, rue Colbert, Montréal",Saint-Léonard,45.5726542742245,-73.59402415529159,Saint-Léonard
182,Golf municipal de Montréal,"4235, rue Viau, Montréal",Rosemont–La Petite-Patrie,45.5662826,-73.5567852,Rosemont-La Petite-Patrie
183,Grande patinoire de sports d'équipe du parc La Fontaine,"3819, avenue Calixa-Lavallée, Montréal",Le Plateau-Mont-Royal,45.5270684,-73.5693956,Le Plateau-Mont-Royal
184,Gymnase de l'école Calixa-Lavallée,"11411, avenue Pelletier, Montréal",Montréal-Nord,45.59747266074766,-73.63881051775701,Montréal-Nord
185,Gymnase de l’école primaire de L’Île-des-Sœurs,"530, rue de Gaspé, Montréal",Verdun,45.4561437,-73.5477779,Verdun
186,Gymnase de l'école primaire des Marguerite,"100, boulevard de l'Île-des-Soeurs, Montréal",Verdun,45.45373475,-73.54580401279001,Verdun
187,Gymnase de l’école primaire Notre-Dame-de-Lourdes,"504, 5e Avenue, Montréal",Verdun,45.4561694,-73.5717616,Verdun
188,Gymnase de l'école primaire Notre-Dame-des-Sept-Douleurs,"320, rue de l' Église, Montréal",Verdun,45.46272763846154,-73.56779757692308,Verdun
189,Gymnase double du Centre Gadbois,"5485, chemin de la Côte-Saint-Paul, Montréal",Le Sud-Ouest,45.4671852,-73.593996,Le Sud-Ouest
190,Gymnase double du complexe sportif Claude-Robillard,"1000, avenue Émile-Journault, Montréal",Ahuntsic-Cartierville,45.55282305,-73.63600750036849,Ahuntsic-Cartierville
191,Gymnase du Collège de Rosemont,"6400, 16e Avenue, Montréal",Rosemont–La Petite-Patrie,45.5572334,-73.579836,Rosemont-La Petite-Patrie
192,Gymnase du Collège Reine-Marie,"9300, boulevard Saint-Michel, Montréal",Villeray–Saint-Michel–Parc-Extension,45.57281455,-73.63272511352716,Villeray-Saint-Michel-Parc-Extension
193,Gymnase simple Christine-Boudrias du Centre Gadbois,"5485, chemin de la Côte-Saint-Paul, Montréal",Le Sud-Ouest,45.4671852,-73.593996,Le Sud-Ouest
194,Halte Bellerive,"Entre les rues Baldwin et Des Ormeaux, Montréal",Mercier–Hochelaga-Maisonneuve,,,
195,Jets d'eau du parc Birnam,"Rue Birnam, Montréal",Villeray–Saint-Michel–Parc-Extension,45.52821,-73.6375336,Villeray-Saint-Michel-Parc-Extension
196,Jets d'eau du parc Dickie-Moore,"Avenue Beaumont H3N 2C9, Montréal",Villeray–Saint-Michel–Parc-Extension,45.5263417,-73.6205276,Villeray-Saint-Michel-Parc-Extension
197,Jets d'eau du parc du Ruisseau-du-Pont-à-l'Avoine,"Rue Everett et 8e avenue, Montréal",Villeray–Saint-Michel–Parc-Extension,,,
198,Jets d'eau du parc Noël-Spinelli,"2207, boulevard Saint-Joseph, Montréal",Lachine,45.433588679852775,-73.6843861122059,Lachine
199,Jets d'eau du parc Ovila-Légaré,"9275, boulevard Pie-IX, Montréal",Villeray–Saint-Michel–Parc-Extension,45.5813975,-73.6245309,Villeray-Saint-Michel-Parc-Extension
200,Jeux d'eau de la place Alice-Girard,"Avenue Thérèse-Lavoie-Roux, Montréal",Outremont,45.5222895,-73.6189787,Outremont
201,Jeux d’eau de la place de Darlington,"Place de Darlington, Montréal",Côte-des-Neiges–Notre-Dame-de-Grâce,,,
202,Jeux d'eau de la place du Village-de-la-Pointe-aux-Trembles,"boulevard Saint-Jean-Baptiste, Montréal",Rivière-des-Prairies–Pointe-aux-Trembles,45.6478822,-73.5273825,Rivière-des-Prairies-Pointe-aux-Trembles
203,Jeux d'eau de la plage de l'Est,"16240, rue Bureau, Montréal",Rivière-des-Prairies–Pointe-aux-Trembles,45.7017206,-73.47923633259579,Rivière-des-Prairies-Pointe-aux-Trembles
204,Jeux d'eau du parc Ahuntsic,"10555, rue Lajeunesse, Montréal",Ahuntsic-Cartierville,45.5543627,-73.664899,Ahuntsic-Cartierville
205,Jeux d’eau du parc Aimé-Léonard,"4975, boulevard Gouin Est, Montréal",Montréal-Nord,45.6083541,-73.638534,Montréal-Nord
206,Jeux d'eau du parc Alphonse-Télésphore-Lépine,"5155, avenue de Gaspé, Montréal",Le Plateau-Mont-Royal,45.5424408,-73.636536,Villeray-Saint-Michel-Parc-Extension
207,Jeux d'eau du parc André-Laurendeau,"8361, avenue André-Laurendeau, Montréal",Anjou,45.6043808,-73.571237,Anjou
208,Jeux d'eau du parc Armand-Bombardier,"boulevard Armand-Bombardier/boulevard Perras, Montréal",Rivière-des-Prairies–Pointe-aux-Trembles,45.6384619,-73.5969446,Rivière-des-Prairies-Pointe-aux-Trembles
209,Jeux d’eau du parc Arthur-Therrien,"3750, boulevard Gaétan-Laberge, Montréal",Verdun,45.4647823,-73.5627,Verdun
210,Jeux d'eau du parc Baldwin,"4355, rue Fullum, Montréal",Le Plateau-Mont-Royal,45.5365886,-73.5680103,Le Plateau-Mont-Royal
211,Jeux d'eau du parc Beaubien - Outremont,"461, chemin de la Côte-Sainte-Catherine, Montréal",Outremont,45.51489,-73.6085193,Outremont
212,Jeux d’eau du parc Beauclerk,"1855, avenue Émile-Legrand, Montréal",Mercier–Hochelaga-Maisonneuve,45.5811828,-73.5217204,Mercier-Hochelaga-Maisonneuve
213,Jeux d'eau du parc Beaulac,"1145, rue Elizabeth, Montréal",Saint-Laurent,45.5194452,-73.6786465,Saint-Laurent
214,Jeux d'eau du parc Bélair,"7035, 2e Avenue, Montréal",Villeray–Saint-Michel–Parc-Extension,45.5543947,-73.5967734,Villeray-Saint-Michel-Parc-Extension
215,Jeux d’eau du parc Bélanger / De Chateaubriand,"542, rue Bélanger, Montréal",Rosemont–La Petite-Patrie,45.5384031,-73.6106386,Rosemont-La Petite-Patrie
216,Jeux d’eau du parc Benny,"6445 Avenue de Monkland, Montréal",Côte-des-Neiges–Notre-Dame-de-Grâce,45.4663329,-73.63240552567582,Côte-des-Neiges-Notre-Dame-de-Grâce
217,Jeux d'eau du parc Boivin,"Angle des rues de Matane et de Cabano, Montréal",LaSalle,,,
218,Jeux d'eau du parc Bourbonnière,"2800, rue Cazeneuve, Montréal",Saint-Laurent,45.5026938,-73.7024685,Saint-Laurent
219,Jeux d'eau du parc Campbell-Ouest,"1990, rue de Maricourt, Montréal",Le Sud-Ouest,45.45817415437506,-73.59135712854328,Le Sud-Ouest
220,Jeux d’eau du parc Carlos-D'Alcantara,"5451, rue De Contrecœur, Montréal",Mercier–Hochelaga-Maisonneuve,45.6107142,-73.5195256,Mercier-Hochelaga-Maisonneuve
221,Jeux d'eau du parc Cavelier-De LaSalle,"à l'angles de la 90e Avenue et des rues Angus et Red Cross, Montréal",LaSalle,,,
222,Jeux d'eau du parc Cérès,"Rue Cérès, Montréal",Pierrefonds-Roxboro,45.5023756,-73.7871593,Dollard-des-Ormeaux
223,Jeux d'eau du parc Chamberland,"800, rue Dorais, Montréal",Saint-Laurent,45.5037241,-73.6901641,Saint-Laurent
224,Jeux d'eau du parc Champdoré,"2400, rue Champdoré, Montréal",Villeray–Saint-Michel–Parc-Extension,45.5757428,-73.6314602,Villeray-Saint-Michel-Parc-Extension
225,Jeux d’eau du parc Cooney,"Rue Melrose, boul. Champlain, Montréal",Verdun,,,
226,Jeux d'eau du parc Coubertin,"4755, rue Valéry, Montréal",Saint-Léonard,45.58324,-73.6102527,Saint-Léonard
227,Jeux d'eau du parc Curé-Albert-Arnold,"6855, rue Hamilton, Montréal",Le Sud-Ouest,45.45016865,-73.59521996071429,Le Sud-Ouest
228,Jeux d'eau du parc Cyril-W.-McDonald,"rue Harry-Worth, Montréal",Pierrefonds-Roxboro,45.4870364,-73.8525412,Pierrefonds-Roxboro
229,Jeux d'eau du parc Dalmany,"9650, rue Dalmany, Montréal",LaSalle,45.429556649999995,-73.65927486875,LaSalle
230,Jeux d'eau du parc de Deauville,"Rue de Riva-Bella, Montréal",Pierrefonds-Roxboro,45.4626081,-73.8896052,Pierrefonds-Roxboro
231,Jeux d’eau du parc de l'Épervière,"rue de la Vigne, Montréal",Verdun,45.4647342,-73.5469186,Verdun
232,Jeux d’eau du parc de l'Orée-du-Fleuve,"Chemin de la Pointe-Sud, Montréal",Verdun,45.4488363,-73.5534953,Verdun
233,Jeux d'eau du parc de l'Ukraine,"6043, 12e Avenue, Montréal",Rosemont–La Petite-Patrie,45.4258953,-73.6026479,LaSalle
234,Jeux d’eau du parc de la Cité-Jardin,"5222, boulevard Rosemont, Montréal",Rosemont–La Petite-Patrie,45.5721987,-73.563388,Rosemont-La Petite-Patrie
235,Jeux d'eau du parc de la Louisiane,"4644, rue Beaubien Est, Montréal",Rosemont–La Petite-Patrie,45.5688992,-73.5740666,Rosemont-La Petite-Patrie
236,Jeux d'eau du parc de la Reine-Élisabeth,"rue Penniston, Montréal",Verdun,45.4395481,-73.5916701,Verdun
237,Jeux d’eau du parc de la Savane,"5111, rue Paré, Montréal",Côte-des-Neiges–Notre-Dame-de-Grâce,45.4857537,-73.6743386,Côte-des-Neiges-Notre-Dame-de-Grâce
238,Jeux d'eau du parc De Lestre,"8001, avenue Bloomfield, Montréal",Villeray–Saint-Michel–Parc-Extension,45.5305538,-73.6346602,Villeray-Saint-Michel-Parc-Extension
239,Jeux d'eau du parc De Mésy,"12120, rue Grenet, Montréal",Ahuntsic-Cartierville,45.5295402,-73.7161649,Ahuntsic-Cartierville
240,Jeux d'eau du parc de Montmartre,"rue De Montigny/60e Avenue, Montréal",Rivière-des-Prairies–Pointe-aux-Trembles,,,
241,Jeux d'eau du parc De Normanville,"7480, rue De Normanville, Montréal",Villeray–Saint-Michel–Parc-Extension,45.54552837311828,-73.61457552365592,Villeray-Saint-Michel-Parc-Extension
242,Jeux d'eau du parc de Peterborough,"8400, boulevard de Châteauneuf, Montréal",Anjou,45.6114756,-73.5556838,Anjou
243,Jeux d'eau du parc de Talcy,"8151, avenue de Talcy, Montréal",Anjou,45.6090245,-73.558751,Anjou
244,Jeux d'eau du parc de Verdelles,"8441, place de Verdelles, Montréal",Anjou,45.6079549,-73.5493924,Anjou
245,Jeux d’eau du parc Decelles,"845, rue Roy, Montréal",Saint-Laurent,45.5141086,-73.6786261,Saint-Laurent
246,Jeux d'eau du parc Delorme,"6060, rue de Honfleur, Montréal",Saint-Léonard,45.5935518,-73.5894974,Saint-Léonard
247,Jeux d'eau du parc des Compagnons-de-Saint-Laurent,"4375, rue Cartier, Montréal",Le Plateau-Mont-Royal,45.5334618,-73.5734263,Le Plateau-Mont-Royal
248,Jeux d'eau du parc des Épinettes,"Rue des Épinettes, Montréal",Rivière-des-Prairies–Pointe-aux-Trembles,45.6480605,-73.5068107,Rivière-des-Prairies-Pointe-aux-Trembles
249,Jeux d’eau du parc des Faubourgs,"1872, rue Dorion, Montréal",Ville-Marie,45.52620582,-73.55693920666667,Ville-Marie
250,Jeux d'eau du parc des Hirondelles,"2601, rue Sauvé Est, Montréal",Ahuntsic-Cartierville,45.5745405,-73.6405588,Ahuntsic-Cartierville
251,Jeux d’eau du parc des Joyeux-Vikings,"1763, rue Beaudry, Montréal",Ville-Marie,45.52059717027027,-73.55987535675675,Ville-Marie
252,Jeux d'eau du parc des Pins,"3995, 42e Avenue, Montréal",Rivière-des-Prairies–Pointe-aux-Trembles,45.6665499,-73.5160539,Rivière-des-Prairies-Pointe-aux-Trembles
253,Jeux d'eau du parc des Royaux,"2103, place Larivière, Montréal",Ville-Marie,45.531745881219194,-73.5564302297084,Ville-Marie
254,Jeux d'eau du parc Devonshire,"3766, rue Clark, Montréal",Le Plateau-Mont-Royal,45.514661032075466,-73.57593795283019,Le Plateau-Mont-Royal
255,Jeux d'eau du parc du Bocage,"Avenue du Bocage, Montréal",Anjou,45.5926019,-73.5509567,Anjou
256,Jeux d’eau du parc du Bois-Franc,"2145, rue du Chinook, Montréal",Saint-Laurent,45.5146427,-73.7131242,Saint-Laurent
257,Jeux d’eau du parc du Boisé,"Rue du Boisé, Montréal",Pierrefonds-Roxboro,45.5025452,-73.796251,Pierrefonds-Roxboro
258,Jeux d'eau du parc du Colombier,"824, rue du Colombier, Montréal",Rivière-des-Prairies–Pointe-aux-Trembles,45.4961766,-73.8810778,L'Île-Bizard-Sainte-Geneviève
259,Jeux d'eau du parc du Mont-Royal,"2785, rue Hill Park Circle, Montréal",Ville-Marie,,,
260,Jeux d’eau du parc du Père-Marquette,"1602, rue de Bellechasse, Montréal",Rosemont–La Petite-Patrie,45.5409785,-73.5936771,Rosemont-La Petite-Patrie
261,Jeux d’eau du parc du Quai-de-la-Tortue,"6000, boulevard LaSalle, Montréal",Verdun,45.446898,-73.5722195,Verdun
262,Jeux d'eau du parc du Sault-au-Récollet,"2008, rue Prieur Est, Montréal",Ahuntsic-Cartierville,45.5542839,-73.6650445,Ahuntsic-Cartierville
263,Jeux d'eau du parc du Vaisseau-d'Or,"3021, rue du Trianon, Montréal",Mercier–Hochelaga-Maisonneuve,45.5890102,-73.5360472,Mercier-Hochelaga-Maisonneuve
264,Jeux d’eau du parc Duquette,"990, rue Dupuis, Montréal",Verdun,45.4662845,-73.5744974,Verdun
265,Jeux d'eau du parc Edmond-Hamelin,"3642, rue Sainte-Catherine Est, Montréal",Mercier–Hochelaga-Maisonneuve,45.514618,-73.5595696,Ville-Marie
266,Jeux d'eau du parc Eugène-Dostie,"montée de l'Église, Montréal",L'Île-Bizard–Sainte-Geneviève,45.5011327,-73.8965177,L'Île-Bizard-Sainte-Geneviève
267,Jeux d’eau du parc Félix-Antoine-Savard,"2150-2200, rue Montcalm, Montréal",Ville-Marie,45.515564,-73.5501481,Ville-Marie
268,Jeux d'eau du parc Félix-Leclerc,"6700, rue François-Boivin, Montréal",Mercier–Hochelaga-Maisonneuve,45.592515,-73.5661727,Mercier-Hochelaga-Maisonneuve
269,Jeux d'eau du parc Ferland,"6020, boulevard Lavoisier, Montréal",Saint-Léonard,45.5957301,-73.6000641,Saint-Léonard
270,Jeux d'eau du parc Gary-Longhi,"7645, 20e Avenue, Montréal",Villeray–Saint-Michel–Parc-Extension,45.56787085,-73.59904185721797,Villeray-Saint-Michel-Parc-Extension
271,Jeux d'eau du parc Georges-Saint-Pierre,"999, avenue Oxford, Montréal",Côte-des-Neiges–Notre-Dame-de-Grâce,45.4685681,-73.6079398,Côte-des-Neiges-Notre-Dame-de-Grâce
272,Jeux d’eau du parc Gérard-Picard,"12200, boulevard Rodolphe-Forget, Montréal",Rivière-des-Prairies–Pointe-aux-Trembles,45.6461035,-73.5758093,Rivière-des-Prairies-Pointe-aux-Trembles
273,Jeux d'eau du parc Gilles-Lefebvre,"4535, avenue Henri-Julien, Montréal",Le Plateau-Mont-Royal,45.5230319,-73.5839462,Le Plateau-Mont-Royal
274,Jeux d'eau du parc Giuseppe-Garibaldi,"7125, rue Liénart, Montréal",Saint-Léonard,45.5863259,-73.5699367,Saint-Léonard
275,Jeux d'eau du parc Gohier,"730, rue Buchanan, Montréal",Saint-Laurent,45.5090109,-73.6814752,Saint-Laurent
276,Jeux d'eau du parc Goulet,"730, rue Buchanan, Montréal",Saint-Laurent,45.5090109,-73.6814752,Saint-Laurent
277,Jeux d'eau du parc Grier,"4590, rue des Cageux, Montréal",Pierrefonds-Roxboro,45.457475075,-73.880411325,Pierrefonds-Roxboro
278,Jeux d'eau du parc Hans-Selye,"7521, avenue André-Ampère, Montréal",Rivière-des-Prairies–Pointe-aux-Trembles,45.6309811629452,-73.60113247017148,Rivière-des-Prairies-Pointe-aux-Trembles
279,Jeux d’eau du parc Harris,"1365, avenue O'Brien, Montréal",Saint-Laurent,45.5157169,-73.6807013,Saint-Laurent
280,Jeux d'eau du parc Hartenstein,"1505, rue Cardinal, Montréal",Saint-Laurent,45.5160559,-73.6900114,Saint-Laurent
281,Jeux d'eau du parc Hayward,"avenue Orchard, Montréal",LaSalle,45.4227349,-73.6475287,LaSalle
282,Jeux d'eau du parc Henri-Bourassa,"6100, rue Pascal, Montréal",Montréal-Nord,45.6155173,-73.6244639,Montréal-Nord
283,Jeux d’eau du parc Hochelaga,"1672, rue Davidson, Montréal",Mercier–Hochelaga-Maisonneuve,45.5431452,-73.5466403,Mercier-Hochelaga-Maisonneuve
284,Jeux d'eau du parc Houde,"378, rue Gratton, Montréal",Saint-Laurent,45.4816734,-73.8608947,Pierrefonds-Roxboro
285,Jeux d'eau du parc Howard,"8505, avenue De L'Épée, Montréal",Villeray–Saint-Michel–Parc-Extension,45.533273,-73.641962,Villeray-Saint-Michel-Parc-Extension
286,Jeux d'eau du parc J.-D.-Ducharme,"Angle des rues Jean-Brillon et Rancourt, Montréal",LaSalle,,,
287,Jeux d'eau du parc J.O.R.-Leduc,"rue Béique, Montréal",LaSalle,45.4278382,-73.6311944,LaSalle
288,Jeux d'eau du parc Jacques-Blanchet,"1848, avenue Jeanne-d'Arc, Montréal",Mercier–Hochelaga-Maisonneuve,45.549127804173,-73.54086010247732,Mercier-Hochelaga-Maisonneuve
289,Jeux d’eau du parc Jean-Brillant - Côte-des-Neiges–Notre-Dame-de-Grâce,"5252, avenue Decelles, Montréal",Côte-des-Neiges–Notre-Dame-de-Grâce,45.5016065,-73.6275705,Côte-des-Neiges-Notre-Dame-de-Grâce
290,Jeux d'eau du parc Jean-Duceppe,"Rue André-Laurendeau, Montréal",Rosemont–La Petite-Patrie,45.5440527,-73.5661178,Rosemont-La Petite-Patrie
291,Jeux d'eau du parc Jean-Marie-Lamonde,"7634, avenue De Chateaubriand, Montréal",Villeray–Saint-Michel–Parc-Extension,45.543268705,-73.620962975,Villeray-Saint-Michel-Parc-Extension
292,Jeux d'eau du parc Jeanne-Lapierre,"13201, rue Ève-Gagnier, Montréal",Rivière-des-Prairies–Pointe-aux-Trembles,45.6602002,-73.5155212,Rivière-des-Prairies-Pointe-aux-Trembles
293,Jeux d'eau du parc Jeannotte,"500, rue Laplante, Montréal",LaSalle,45.432527,-73.6392309,LaSalle
294,Jeux d'eau du parc Joannette,"292, rue Hickson, Montréal",Verdun,45.4653229,-73.5765778,Verdun
295,Jeux d'eau du parc Jonathan-Wilson,"3243, boulevard Chèvremont, Montréal",L'Île-Bizard–Sainte-Geneviève,45.5000951,-73.8701403,L'Île-Bizard-Sainte-Geneviève
296,Jeux d’eau du parc Julia-Drummond,"Rue Lucien-L'Allier, Montréal",Ville-Marie,45.4939229,-73.5693733,Ville-Marie
297,Jeux d’eau du parc Kirkland,"123, rue Léo-Pétrin, Montréal",Lachine,45.4466295,-73.6479952,Lachine
298,Jeux d'eau du parc La Fontaine,"3819, avenue Calixa-Lavallée, Montréal",Le Plateau-Mont-Royal,45.5270684,-73.5693956,Le Plateau-Mont-Royal
299,Jeux d'eau du parc Lafond,"3500, avenue Laurier Est, Montréal",Rosemont–La Petite-Patrie,45.5521213,-73.5699362,Rosemont-La Petite-Patrie
300,Jeux d’eau du parc Lalancette,"2315, rue Nicolet, Montréal",Mercier–Hochelaga-Maisonneuve,45.5480242,-73.548539,Mercier-Hochelaga-Maisonneuve
301,Jeux d’eau du parc LaSalle,"10661, rue Victoria, Montréal",Lachine,45.436291,-73.6774257,Lachine
302,Jeux d'eau du parc Lawrence,"rue Beyries, Montréal",LaSalle,45.4187952,-73.6255284,LaSalle
303,Jeux d'eau du parc Le Ber,"202, avenue Ash, Montréal",Le Sud-Ouest,45.4780825,-73.5520569,Le Sud-Ouest
304,Jeux d'eau du parc Lefebvre,"8600, rue Hardy, Montréal",LaSalle,45.4373064,-73.6352858,LaSalle
305,Jeux d'eau du parc Leroux,"Angle de la rue Centrale et de l'avenue Lacharité, Montréal",LaSalle,,,
306,Jeux d’eau du parc Liébert,"2848, rue Liébert, Montréal",Mercier–Hochelaga-Maisonneuve,45.5938206,-73.5159358,Mercier-Hochelaga-Maisonneuve
307,Jeux d'eau du parc Louis-Cyr,"200, rue Saint-Ferdinand, Montréal",Le Sud-Ouest,45.4752268,-73.5830541,Le Sud-Ouest
308,Jeux d'eau du parc Loyola,"4877, avenue Doherty, Montréal",Côte-des-Neiges–Notre-Dame-de-Grâce,45.4610545,-73.6479012,Côte-des-Neiges-Notre-Dame-de-Grâce
309,Jeux d’eau du parc Luc-Durand,"600, rue des Ateliers, Montréal",Rosemont–La Petite-Patrie,45.531604099999996,-73.59634885999999,Rosemont-La Petite-Patrie
310,Jeux d'eau du parc Luigi-Pirandello,"4550, rue de Compiègne, Montréal",Saint-Léonard,45.5789687,-73.6044855,Saint-Léonard
311,Jeux d'eau du parc Mackenzie-King,"4907, avenue Saint-Kevin, Montréal",Côte-des-Neiges–Notre-Dame-de-Grâce,45.48965415,-73.63292629320819,Côte-des-Neiges-Notre-Dame-de-Grâce
312,Jeux d'eau du parc Marcelin-Wilson,"11301, boulevard de l'Acadie, Montréal",Ahuntsic-Cartierville,45.5359993,-73.6842383,Ahuntsic-Cartierville
313,Jeux d’eau du parc Marcelle-Barthe,"1844, rue Montcalm, Montréal",Ville-Marie,45.52038770504202,-73.56101188907563,Ville-Marie
314,Jeux d’eau du parc Marie-Coron,"13379, rue René-Lévesque, Montréal",Rivière-des-Prairies–Pointe-aux-Trembles,45.650304,-73.4950633,Rivière-des-Prairies-Pointe-aux-Trembles
315,Jeux d'eau du parc Marlborough,"2305, rue Beauzèle, Montréal",Saint-Laurent,45.5223451,-73.719727,Saint-Laurent
316,Jeux d'eau du parc Martin-Luther-King,"3453, avenue de Kent, Montréal",Côte-des-Neiges–Notre-Dame-de-Grâce,45.5030133,-73.63197398742423,Côte-des-Neiges-Notre-Dame-de-Grâce
317,Jeux d'eau du parc Maurice-Bélanger,"10401, avenue Hébert, Montréal",Montréal-Nord,45.5880369,-73.6320746,Montréal-Nord
318,Jeux d’eau du parc Maynard-Ferguson,"44, rue Claude-Vivier, Montréal",Verdun,45.44732243183346,-73.55803580538162,Verdun
319,Jeux d'eau du parc Ménard - LaSalle,"9640, rue Clément, Montréal",LaSalle,45.4346813,-73.6533865,LaSalle
320,Jeux d’eau du parc Ménard - Montréal-Nord,"3781, place Ménard, Montréal",Montréal-Nord,45.5869715,-73.6397725,Montréal-Nord
321,Jeux d’eau du parc Monseigneur-J.-A.-Richard,"5150, boulevard LaSalle, Montréal",Verdun,45.454556787442044,-73.56552593004854,Verdun
322,Jeux d’eau du parc Monty,"12357, avenue Monty, Montréal",Montréal-Nord,45.620836807317076,-73.62039041951219,Montréal-Nord
323,Jeux d’eau du parc Morgan,"4370, rue Sainte-Catherine Est, Montréal",Mercier–Hochelaga-Maisonneuve,45.5513926,-73.53298701947519,Mercier-Hochelaga-Maisonneuve
324,Jeux d’eau du parc Nelson-Mandela,"4920, rue Vézina, Montréal",Côte-des-Neiges–Notre-Dame-de-Grâce,45.4944866,-73.6438506,Côte-des-Neiges-Notre-Dame-de-Grâce
325,Jeux d’eau du parc Norman-Dawe,"1060, rue Woodland, Montréal",Verdun,45.452672713533836,-73.57855022255639,Verdun
326,Jeux d’eau du parc Notre-Dame-de-Grâce,"3500, avenue Girouard, Montréal",Côte-des-Neiges–Notre-Dame-de-Grâce,45.472277,-73.6112312,Côte-des-Neiges-Notre-Dame-de-Grâce
327,Jeux d'eau du parc Oscar-Peterson,"810, rue Chatham, Montréal",Le Sud-Ouest,45.4894614,-73.575003,Le Sud-Ouest
328,Jeux d'eau du parc Ottawa,"10400, avenue de Belleville, Montréal",Montréal-Nord,45.581939399999996,-73.64229353880937,Montréal-Nord
329,Jeux d'eau du parc Ouellette,"1407, rue Serre, Montréal",LaSalle,45.4320394,-73.6214194,LaSalle
330,Jeux d'eau du parc Painter,"260, rue Marcotte, Montréal",Saint-Laurent,45.5286235,-73.6774723,Saint-Laurent
331,Jeux d'eau du parc Parkinson,"Boulevard de Pierrefonds, Montréal",Pierrefonds-Roxboro,45.5036366,-73.8287305,Pierrefonds-Roxboro
332,Jeux d'eau du parc Pehr-Kalm,"rue Marcel-Raymond, Montréal",Rivière-des-Prairies–Pointe-aux-Trembles,45.6627746,-73.5545276,Rivière-des-Prairies-Pointe-aux-Trembles
333,Jeux d'eau du parc Père-Marquette - LaSalle,"Rue Bouvier, Montréal",LaSalle,45.432879,-73.6101987,LaSalle
334,Jeux d’eau du parc Persillier-Lachapelle,"2040, rue Alexandre-DeSève, Montréal",Ville-Marie,45.5248999,-73.5619042,Ville-Marie
335,Jeux d’eau du parc Philippe-Zotique-Millette,"4119, rue de Verdun, Montréal",Verdun,45.4625834,-73.5713741,Verdun
336,Jeux d'eau du parc Pierre-Blanchet,"12279, avenue Pierre-Blanchet, Montréal",Rivière-des-Prairies–Pointe-aux-Trembles,45.6299064,-73.6066391,Rivière-des-Prairies-Pointe-aux-Trembles
337,Jeux d'eau du parc Pierre-Dansereau,"Avenue de l'Épée, Montréal",Outremont,45.5222076,-73.6100403,Outremont
338,Jeux d'eau du parc Pierre-Tisseyre,"Avenue Charlemagne, Montréal",Rosemont–La Petite-Patrie,45.553326,-73.5554109,Rosemont-La Petite-Patrie
339,Jeux d'eau du parc Poirier,"900, rue Trudeau, Montréal",Saint-Laurent,45.5140984,-73.6632797,Saint-Laurent
340,Jeux d’eau du parc Poirier – Verdun,"3177, boulevard LaSalle, Montréal",Verdun,45.47056662270907,-73.56821148499009,Verdun
341,Jeux d’eau du parc Primeau,"10958, avenue Pelletier, Montréal",Montréal-Nord,45.5927611,-73.6339487,Montréal-Nord
342,Jeux d'eau du parc Raimbault,"12377, rue Notre-Dame-des-Anges, Montréal",Ahuntsic-Cartierville,45.535415709756094,-73.71761123170732,Ahuntsic-Cartierville
343,Jeux d'eau du parc Raoul-Dandurand,"Avenue Van Horne, Montréal",Outremont,45.5122695,-73.6221938,Côte-des-Neiges-Notre-Dame-de-Grâce
344,Jeux d'eau du parc Raymond-Préfontaine,"3100, rue Hochelaga, Montréal",Mercier–Hochelaga-Maisonneuve,45.5417253,-73.5542369,Mercier-Hochelaga-Maisonneuve
345,Jeux d'eau du parc René-Goupil,"8670, 25e Avenue, Montréal",Villeray–Saint-Michel–Parc-Extension,45.577649066666666,-73.61138724999999,Villeray-Saint-Michel-Parc-Extension
346,Jeux d'eau du parc Renée-Vautelet,"12725, avenue Pierre-Baillargeon, Montréal",Rivière-des-Prairies–Pointe-aux-Trembles,45.6440946,-73.579497,Rivière-des-Prairies-Pointe-aux-Trembles
347,Jeux d'eau du parc Robert-Sauvé,"15742, rue de la Caserne, Montréal",L'Île-Bizard–Sainte-Geneviève,45.48149962894737,-73.86660485,L'Île-Bizard-Sainte-Geneviève
348,Jeux d'eau du parc Roger-Rousseau,"7501, avenue Rondeau, Montréal",Anjou,45.6159526,-73.550939,Anjou
349,Jeux d'eau du parc Rosemary-Brown,"6665, avenue McLynn, Montréal",Côte-des-Neiges–Notre-Dame-de-Grâce,45.4898948,-73.64798625,Côte-des-Neiges-Notre-Dame-de-Grâce
350,Jeux d'eau du parc Rougemont,"1900, rue Bossuet, Montréal",Mercier–Hochelaga-Maisonneuve,45.5700062,-73.5285286,Mercier-Hochelaga-Maisonneuve
351,Jeux d'eau du parc Sabrevois,"10110, avenue des Récollets, Montréal",Montréal-Nord,45.5834125,-73.6327977,Montréal-Nord
352,Jeux d'eau du parc Saidye-Bronfman,"4815, rue Buchan, Montréal",Côte-des-Neiges–Notre-Dame-de-Grâce,45.4987303,-73.649381,Côte-des-Neiges-Notre-Dame-de-Grâce
353,Jeux d'eau du parc Saint-Alphonse,"8888, avenue De Chateaubriand, Montréal",Ahuntsic-Cartierville,45.5497433,-73.6405158,Ahuntsic-Cartierville
354,Jeux d'eau du parc Saint-André-Apôtre,"10550, avenue de l'Esplanade, Montréal",Ahuntsic-Cartierville,45.5467897,-73.6705826,Ahuntsic-Cartierville
355,Jeux d'eau du parc Saint-Benoît,"9887, rue Meilleur, Montréal",Ahuntsic-Cartierville,45.54018793283582,-73.66398599104478,Ahuntsic-Cartierville
356,Jeux d'eau du parc Saint-Donat,"6800, rue de Marseille, Montréal",Mercier–Hochelaga-Maisonneuve,45.5830122,-73.538208,Mercier-Hochelaga-Maisonneuve
357,Jeux d’eau du parc Saint-Édouard,"rue Saint-André, Montréal",Rosemont–La Petite-Patrie,45.5352652,-73.5993026,Rosemont-La Petite-Patrie
358,Jeux d'eau du parc Saint-Jacques,"Angle des rues Saint-André et Robin, Montréal",Ville-Marie,,,
359,Jeux d'eau du parc Saint-Joseph,"9909, 68e Avenue, Montréal",Rivière-des-Prairies–Pointe-aux-Trembles,45.4185917,-73.6273674,LaSalle
360,Jeux d'eau du parc Saint-Laurent - Arr. Saint-Laurent,"rue Poirier, Montréal",Saint-Laurent,45.5187344,-73.6983366,Saint-Laurent
361,Jeux d’eau du parc Saint-Marcel,"1647, 6e Avenue, Montréal",Rivière-des-Prairies–Pointe-aux-Trembles,45.4322439,-73.6692396,Lachine
362,Jeux d'eau du parc Saint-Michel,"Rue Saint-Dominique, Montréal",Le Plateau-Mont-Royal,45.5373594,-73.6234484,Villeray-Saint-Michel-Parc-Extension
363,Jeux d'eau du parc Saint-Paul-de-la-Croix,"9900, avenue Hamel, Montréal",Ahuntsic-Cartierville,45.5639852,-73.6614168,Ahuntsic-Cartierville
364,Jeux d'eau du parc Saint-Simon-Apôtre,"200, rue Legendre Ouest, Montréal",Ahuntsic-Cartierville,45.5408011,-73.6494022,Ahuntsic-Cartierville
365,Jeux d'eau du parc Saint-Valérien,"87e Avenue, Montréal",Rivière-des-Prairies–Pointe-aux-Trembles,45.6680144,-73.5391511,Rivière-des-Prairies-Pointe-aux-Trembles
366,Jeux d'eau du parc Saint-Vincent-Ferrier,"8172, rue Drolet, Montréal",Villeray–Saint-Michel–Parc-Extension,45.54212952727273,-73.63084887272727,Villeray-Saint-Michel-Parc-Extension
367,Jeux d'eau du parc Sainte-Marie,"Rue LaFontaine, Montréal",Ville-Marie,45.5234777,-73.57648,Le Plateau-Mont-Royal
368,Jeux d’eau du parc Soeur-Madeleine-Gagnon,"6654, rue Saint-Dominique, Montréal",Rosemont–La Petite-Patrie,45.5315555244898,-73.60954579591836,Rosemont-La Petite-Patrie
369,Jeux d’eau du parc Théodore,"2523, rue Théodore, Montréal",Mercier–Hochelaga-Maisonneuve,45.5579438,-73.536863,Mercier-Hochelaga-Maisonneuve
370,Jeux d'eau du parc Toussaint-Louverture,"127, boulevard De Maisonneuve Est, Montréal",Ville-Marie,45.5160877,-73.5603048,Ville-Marie
371,Jeux d'eau du parc Van Horne,"4900, avenue Van Horne, Montréal",Côte-des-Neiges–Notre-Dame-de-Grâce,45.5123446,-73.6222659,Côte-des-Neiges-Notre-Dame-de-Grâce
372,Jeux d'eau du parc Victoria-Girard,"1881, rue Jean-Leduc, Montréal",Rivière-des-Prairies–Pointe-aux-Trembles,45.6542415,-73.5074603,Rivière-des-Prairies-Pointe-aux-Trembles
373,Jeux d'eau du parc Vinet,"550, rue Vinet, Montréal",Le Sud-Ouest,45.4839162,-73.575239,Le Sud-Ouest
374,Jeux d'eau du parc Wilfrid-Bastien,"8255, boulevard Lacordaire, Montréal",Saint-Léonard,45.58532477582951,-73.59446599934279,Saint-Léonard
375,Jeux d'eau du parc Willibrord,"1018, rue Willibrord, Montréal",Verdun,45.4596322,-73.5760723,Verdun
376,Jeux d’eau du parc Wilson,"rue Brown, Montréal",Verdun,45.429746,-73.6288824,LaSalle
377,Jeux d'eau L'Aquaciel,"707, 75e Avenue, Montréal",LaSalle,45.4226953,-73.6289742,LaSalle
378,Jeux d'eau parc Lhasa-De Sela,"Rue Saint-Urbain, Montréal",Le Plateau-Mont-Royal,45.5104549,-73.5686116,Ville-Marie
379,Jeux d'eau parc Saint-Pierre-Claver,"Rue Fullum, Montréal",Le Plateau-Mont-Royal,45.5263356,-73.5459243,Ville-Marie
380,L'Artère fabricathèque,"14001, rue Notre-Dame Est, Montréal",Rivière-des-Prairies–Pointe-aux-Trembles,45.5858544,-73.5078805,Mercier-Hochelaga-Maisonneuve
381,L'île aux volcans,"Angle des rues De Drucourt et Marquette, Montréal",Rosemont–La Petite-Patrie,,,
382,La Piscinette,"2560, boulevard de Maisonneuve Est, Montréal",Ville-Marie,45.5160877,-73.5603048,Ville-Marie
383,"Le 3045-3051, boul. Saint-Joseph","2560, boulevard de Maisonneuve Est, Montréal",Lachine,45.5160877,-73.5603048,Ville-Marie
384,Le TAZ,"8931, avenue Papineau, Montréal",Villeray–Saint-Michel–Parc-Extension,45.5610124,-73.6347042,Villeray-Saint-Michel-Parc-Extension
385,Maison Brunet,"187, chemin du Cap-Saint-Jacques, Montréal",Pierrefonds-Roxboro,45.4699017,-73.9355192,Pierrefonds-Roxboro
386,Maison de la Pointe,"20099 Boul Gouin O, Montréal",Pierrefonds-Roxboro,,,
387,Maison du citoyen,"12090, rue Notre-Dame Est, Montréal",Rivière-des-Prairies–Pointe-aux-Trembles,45.6405344,-73.489239,Rivière-des-Prairies-Pointe-aux-Trembles
388,Marina de Lachine,"Quais en location à Lachine, Montréal",Lachine,,,
389,Marina de Verdun,"5150, boulevard LaSalle, Montréal",Verdun,45.454556787442044,-73.56552593004854,Verdun
390,Mixlab de la bibliothèque du Boisé,"2727, boulevard Thimens, Montréal",Saint-Laurent,45.5044581,-73.7048768,Saint-Laurent
391,Natatorium de Verdun,"6500, boulevard LaSalle, Montréal",Verdun,45.44337185,-73.57521708722223,Verdun
392,Parc à neige de la mairie d'arrondissement de LaSalle,"55, avenue Dupras, Montréal",LaSalle,45.4273901,-73.6623174,LaSalle
393,Parc à neige Walter-Stewart,"2455, rue Larivière, Montréal",Ville-Marie,45.5232599,-73.5630054,Ville-Marie
394,Parc de planche à roulettes de l'école secondaire de la Pointe-aux-Trembles,"15200, rue Sherbrooke Est, Montréal",Rivière-des-Prairies–Pointe-aux-Trembles,45.5531551,-73.5548571,Rosemont-La Petite-Patrie
395,Parc de planche à roulettes du parc Agnès-Vautier,"Rue Joseph-Dargent, Montréal",Rivière-des-Prairies–Pointe-aux-Trembles,45.6510134,-73.4987917,Rivière-des-Prairies-Pointe-aux-Trembles
396,Parc de planche à roulettes du parc Arthur-Therrien,"3750, boulevard Gaétan-Laberge, Montréal",Verdun,45.4647823,-73.5627,Verdun
397,Parc de planche à roulettes du parc Benny,"6445, avenue de Monkland, Montréal",Côte-des-Neiges–Notre-Dame-de-Grâce,45.4663329,-73.63240552567582,Côte-des-Neiges-Notre-Dame-de-Grâce
398,Parc de planche à roulettes du parc Delorme,"6060, rue de Honfleur, Montréal",Saint-Léonard,45.5935518,-73.5894974,Saint-Léonard
399,Parc de planche à roulettes du parc des Royaux,"2195, avenue de Lorimier, Montréal",Ville-Marie,45.5513252,-73.6071947,Villeray-Saint-Michel-Parc-Extension
400,Parc de planche à roulettes du parc Don-Bosco,"12600, avenue Rita-Lévi-Montalcini, Montréal",Rivière-des-Prairies–Pointe-aux-Trembles,45.645738,-73.589323,Rivière-des-Prairies-Pointe-aux-Trembles
401,Parc de planche à roulettes du parc du Père-Marquette,"1602, rue de Bellechasse, Montréal",Rosemont–La Petite-Patrie,45.5409785,-73.5936771,Rosemont-La Petite-Patrie
402,Parc de planche à roulettes du parc Emma-Bourbonnais,"Boulevard Saint-Jean-Baptiste, Montréal",Rivière-des-Prairies–Pointe-aux-Trembles,45.6478822,-73.5273825,Rivière-des-Prairies-Pointe-aux-Trembles
403,Parc de planche à roulettes du parc Eugène-Dostie,"Montée de l'Église, Montréal",L'Île-Bizard–Sainte-Geneviève,45.5011327,-73.8965177,L'Île-Bizard-Sainte-Geneviève
404,Parc de planche à roulettes du parc George-Vernot,"8475, 13e Avenue, Montréal",Villeray–Saint-Michel–Parc-Extension,45.568444876,-73.616728756,Villeray-Saint-Michel-Parc-Extension
405,Parc de planche à roulettes du parc Grovehill,"640, 36e Avenue, Montréal",Lachine,45.4436419,-73.6963292,Lachine
406,Parc de planche à roulettes du parc Henri-Bourassa,"6100, rue Pascal, Montréal",Montréal-Nord,45.6155173,-73.6244639,Montréal-Nord
407,Parc de planche à roulettes du parc Ignace-Bourget,"5925, avenue de Montmagny, Montréal",Le Sud-Ouest,45.4579503,-73.6042162,Le Sud-Ouest
408,Parc de planche à roulettes du parc Jarry,"205, rue Gary-Carter, Montréal",Villeray–Saint-Michel–Parc-Extension,45.5347697,-73.62337938333333,Villeray-Saint-Michel-Parc-Extension
409,Parc de planche à roulettes du parc Kirkland,"123, rue Léo-Pétrin, Montréal",Lachine,45.4466295,-73.6479952,Lachine
410,Parc de planche à roulettes du parc LaSalle,"10661, rue Victoria, Montréal",Lachine,45.436291,-73.6774257,Lachine
411,Parc de planche à roulettes du parc Marcel-Laurin,"2345, boulevard Thimens, Montréal",Saint-Laurent,45.5079871,-73.70119532827582,Saint-Laurent
412,Parc de planche à roulettes du parc Marcelin-Wilson,"11301, boulevard de l'Acadie, Montréal",Ahuntsic-Cartierville,45.5359993,-73.6842383,Ahuntsic-Cartierville
413,Parc de planche à roulettes du parc Raymond-Préfontaine,"3100, rue Hochelaga, Montréal",Mercier–Hochelaga-Maisonneuve,45.5417253,-73.5542369,Mercier-Hochelaga-Maisonneuve
414,Parc de planche à roulettes sous le viaduc Van Horne,"5855, boulevard Saint-Laurent, Montréal",Le Plateau-Mont-Royal,45.527781,-73.6029603,Le Plateau-Mont-Royal
415,Parc de planches à roulettes du parc Michel-Ménard,"1995, croissant Roy, Montréal",Lachine,45.446795,-73.6824811,Lachine
416,Parvis De Biencourt,"Rue De Biencourt, Montréal",Le Sud-Ouest,45.458493,-73.5850555,Le Sud-Ouest
417,Pataugeoire de la piscine Annie-Pelletier,"8850, avenue Dubuisson, Montréal",Mercier–Hochelaga-Maisonneuve,45.6022703,-73.5156098290587,Mercier-Hochelaga-Maisonneuve
418,Pataugeoire de la piscine Saint-Roch,"400, avenue Ball, Montréal",Villeray–Saint-Michel–Parc-Extension,45.532002950000006,-73.63077231110046,Villeray-Saint-Michel-Parc-Extension
419,Pataugeoire du parc Ahuntsic,"10555, rue Lajeunesse, Montréal",Ahuntsic-Cartierville,45.5543627,-73.664899,Ahuntsic-Cartierville
420,Pataugeoire du parc Alexis-Nihon,"2999, rue Badeaux, Montréal",Saint-Laurent,45.4972255,-73.6894491,Saint-Laurent
421,Pataugeoire du parc Arthur-Therrien,"3910, boulevard Gaétan-Laberge, Montréal",Verdun,45.4712981,-73.560214,Le Sud-Ouest
422,Pataugeoire du parc Baldwin,"4355, rue Fullum, Montréal",Le Plateau-Mont-Royal,45.5365886,-73.5680103,Le Plateau-Mont-Royal
423,Pataugeoire du parc Beaubien,"6633, 6e Avenue, Montréal",Rosemont–La Petite-Patrie,45.5534327,-73.5922784,Rosemont-La Petite-Patrie
424,Pataugeoire du parc Bélanger,"Rue Cardinal, Montréal",Saint-Laurent,45.5091974,-73.6786765,Saint-Laurent
425,Pataugeoire du parc Bourbonnière,"2800, rue Cazeneuve, Montréal",Saint-Laurent,45.5026938,-73.7024685,Saint-Laurent
426,Pataugeoire du parc Carignan,"4100, rue Provost, Montréal",Lachine,45.4420053,-73.7010692,Lachine
427,Pataugeoire du parc Chamberland,"800, rue Dorais, Montréal",Saint-Laurent,45.5037241,-73.6901641,Saint-Laurent
428,Pataugeoire du parc Charleroi,"10985, avenue Alfred, Montréal",Montréal-Nord,45.59943488333334,-73.62350405,Montréal-Nord
429,Pataugeoire du parc Chénier,"5555, avenue de l'Aréna, Montréal",Anjou,45.6027258,-73.5438688,Anjou
430,Pataugeoire du parc Dan-Hanganu (Elgar),"260, rue Elgar, Montréal",Verdun,45.4572081,-73.5468802,Verdun
431,Pataugeoire du parc De Gaspé,"6655, avenue De Gaspé, Montréal",Rosemont–La Petite-Patrie,45.5331983,-73.6092964,Rosemont-La Petite-Patrie
432,Pataugeoire du parc de l'Honorable-George-O'Reilly,"7523, boulevard LaSalle, Montréal",Verdun,45.4341031,-73.5872829,LaSalle
433,Pataugeoire du parc De La Bruère,"2200, rue Liébert, Montréal",Mercier–Hochelaga-Maisonneuve,45.5948536,-73.5197167,Mercier-Hochelaga-Maisonneuve
434,Pataugeoire du parc de la Confédération,"6265, avenue Biermans, Montréal",Côte-des-Neiges–Notre-Dame-de-Grâce,45.471707699999996,-73.63738390985344,Côte-des-Neiges-Notre-Dame-de-Grâce
435,Pataugeoire du parc de la Fontaine,"550, place de la Fontaine, Montréal",Verdun,45.4632976,-73.543825,Verdun
436,Pataugeoire du parc de la Louisiane,"4644, rue Beaubien Est, Montréal",Rosemont–La Petite-Patrie,45.5688992,-73.5740666,Rosemont-La Petite-Patrie
437,Pataugeoire du parc De Mésy,"12120, rue Grenet, Montréal",Ahuntsic-Cartierville,45.5295402,-73.7161649,Ahuntsic-Cartierville
438,Pataugeoire du parc de Saint-Aloysius,"1651, rue Nicolet, Montréal",Mercier–Hochelaga-Maisonneuve,45.5457342,-73.541273,Mercier-Hochelaga-Maisonneuve
439,Pataugeoire du parc de Sienne,"4151, 53e Rue, Montréal",Villeray–Saint-Michel–Parc-Extension,45.5821863,-73.6261744,Villeray-Saint-Michel-Parc-Extension
440,Pataugeoire du parc de Talcy,"8151, avenue de Talcy, Montréal",Anjou,45.6090245,-73.558751,Anjou
441,Pataugeoire du parc de Turin,"7205, rue Chambord, Montréal",Villeray–Saint-Michel–Parc-Extension,45.5447748,-73.6101543,Villeray-Saint-Michel-Parc-Extension
442,Pataugeoire du parc de Verdelles,"8441, place de Verdelles, Montréal",Anjou,45.6079549,-73.5493924,Anjou
443,Pataugeoire du parc Decelles,"845, rue Roy, Montréal",Saint-Laurent,45.5141086,-73.6786261,Saint-Laurent
444,Pataugeoire du parc des Vétérans,"1655, avenue Papineau, Montréal",Ville-Marie,45.52390952105263,-73.55495934035088,Ville-Marie
445,Pataugeoire du parc Don-Bosco,"12600, avenue Rita-Lévi-Montalcini, Montréal",Rivière-des-Prairies–Pointe-aux-Trembles,45.645738,-73.589323,Rivière-des-Prairies-Pointe-aux-Trembles
446,Pataugeoire du parc du Bocage,"Avenue du Bocage, Montréal",Anjou,45.5926019,-73.5509567,Anjou
447,Pataugeoire du parc du Pélican,"2590, rue Masson, Montréal",Rosemont–La Petite-Patrie,45.5451252,-73.5765343,Rosemont-La Petite-Patrie
448,Pataugeoire du parc François-Perrault,"7525, rue François-Perrault, Montréal",Villeray–Saint-Michel–Parc-Extension,45.5624595,-73.60057385,Villeray-Saint-Michel-Parc-Extension
449,Pataugeoire du parc Gabriel-Lalemant,"2244, rue Sauvé Est, Montréal",Ahuntsic-Cartierville,45.57034461774194,-73.64382128064516,Ahuntsic-Cartierville
450,Pataugeoire du parc Hartenstein,"1505, rue Cardinal, Montréal",Saint-Laurent,45.5160559,-73.6900114,Saint-Laurent
451,Pataugeoire du parc Henri-Bourassa,"6100, rue Pascal, Montréal",Montréal-Nord,45.6155173,-73.6244639,Montréal-Nord
452,Pataugeoire du parc Henri-Julien,"9300, rue Saint-Denis, Montréal",Ahuntsic-Cartierville,45.5480974,-73.6489555,Ahuntsic-Cartierville
453,Pataugeoire du parc Ignace-Bourget,"5925, avenue de Montmagny, Montréal",Le Sud-Ouest,45.4579503,-73.6042162,Le Sud-Ouest
454,Pataugeoire du parc Jarry,"205, rue Gary-Carter, Montréal",Villeray–Saint-Michel–Parc-Extension,45.5347697,-73.62337938333333,Villeray-Saint-Michel-Parc-Extension
455,Pataugeoire du parc Jean-Amyot,"6110, rue de Marseille, Montréal",Mercier–Hochelaga-Maisonneuve,45.57672766666667,-73.54067979999999,Mercier-Hochelaga-Maisonneuve
456,Pataugeoire du parc Jean-Brillant - Côte-des-Neiges–Notre-Dame-de-Grâce,"5252, avenue Decelles, Montréal",Côte-des-Neiges–Notre-Dame-de-Grâce,45.5016065,-73.6275705,Côte-des-Neiges-Notre-Dame-de-Grâce
457,Pataugeoire du parc Jean-Brillant - Pierrefonds-Roxboro,"avenue Jean-Brillant, Montréal",Pierrefonds-Roxboro,45.5083298,-73.8066251,Pierrefonds-Roxboro
458,Pataugeoire du parc John F.-Kennedy,"Avenue Outremont, Montréal",Outremont,45.517565,-73.6057208,Outremont
459,Pataugeoire du parc Joseph-Paré,"43e Avenue, Montréal",Rosemont–La Petite-Patrie,45.4183222,-73.6191356,LaSalle
460,Pataugeoire du parc Lacordaire,"12576, boulevard Lacordaire, Montréal",Montréal-Nord,45.61677611176471,-73.63084898235294,Montréal-Nord
461,Pataugeoire du parc Ladauversière,"7560, boulevard Lacordaire, Montréal",Saint-Léonard,45.5818598,-73.584296,Saint-Léonard
462,Pataugeoire du parc Lafond,"3500, avenue Laurier Est, Montréal",Rosemont–La Petite-Patrie,45.5521213,-73.5699362,Rosemont-La Petite-Patrie
463,Pataugeoire du parc LaSalle,"1450, rue Remembrance, Montréal",Lachine,45.4380887,-73.6774736,Lachine
464,Pataugeoire du parc Le Carignan,"11481, avenue P.-M.-Favier, Montréal",Montréal-Nord,45.6093388,-73.6157397,Montréal-Nord
465,Pataugeoire du parc Lucie-Bruneau,"7051, avenue de l'Alsace, Montréal",Anjou,45.6036608,-73.5825274,Anjou
466,Pataugeoire du parc Marcelin-Wilson,"11301, boulevard de l'Acadie, Montréal",Ahuntsic-Cartierville,45.5359993,-73.6842383,Ahuntsic-Cartierville
467,Pataugeoire du parc Maria-Goretti,"488, 85e Avenue, Montréal",Rivière-des-Prairies–Pointe-aux-Trembles,45.691746050000006,-73.48776636492585,Rivière-des-Prairies-Pointe-aux-Trembles
468,Pataugeoire du parc Marlborough,"2305, rue Beauzèle, Montréal",Saint-Laurent,45.5223451,-73.719727,Saint-Laurent
469,Pataugeoire du parc Martin-Luther-King,"3453, avenue de Kent, Montréal",Côte-des-Neiges–Notre-Dame-de-Grâce,45.5030133,-73.63197398742423,Côte-des-Neiges-Notre-Dame-de-Grâce
470,Pataugeoire du parc Médéric-Martin,"2329, avenue Gascon, Montréal",Ville-Marie,45.535899792537315,-73.55673144626866,Ville-Marie
471,Pataugeoire du parc Michel-Ménard,"1995, croissant Roy, Montréal",Lachine,45.446795,-73.6824811,Lachine
472,Pataugeoire du parc Nicolas-Tillemont,"7833, avenue des Érables, Montréal",Villeray–Saint-Michel–Parc-Extension,45.5540231,-73.6115754,Villeray-Saint-Michel-Parc-Extension
473,Pataugeoire du parc Noël-Nord,"2900, rue Baker, Montréal",Saint-Laurent,45.518006,-73.7285795,Saint-Laurent
474,Pataugeoire du parc Olivier-Robert,"2325, boulevard De Maisonneuve Est, Montréal",Ville-Marie,45.52856945714286,-73.54902162857142,Ville-Marie
475,Pataugeoire du parc Oscar,"10660, boulevard Saint-Michel, Montréal",Montréal-Nord,45.58202938,-73.64763232,Montréal-Nord
476,Pataugeoire du parc Ottawa,"10400, avenue de Belleville, Montréal",Montréal-Nord,45.581939399999996,-73.64229353880937,Montréal-Nord
477,Pataugeoire du parc Painter,"260, rue Marcotte, Montréal",Saint-Laurent,45.5286235,-73.6774723,Saint-Laurent
478,Pataugeoire du parc Pie-XII,"5200, boulevard Lavoisier, Montréal",Saint-Léonard,45.5876144,-73.6100005,Saint-Léonard
479,Pataugeoire du parc Pierre-Bédard,"5515, rue Lacordaire, Montréal",Mercier–Hochelaga-Maisonneuve,45.5777983,-73.5570532,Mercier-Hochelaga-Maisonneuve
480,Pataugeoire du parc Pierre-Bernard,"3170, boulevard Pierre-Bernard, Montréal",Mercier–Hochelaga-Maisonneuve,45.6060073,-73.5246295,Mercier-Hochelaga-Maisonneuve
481,Pataugeoire du parc Pilon,"11135, avenue des Récollets, Montréal",Montréal-Nord,45.5924882,-73.6421731,Montréal-Nord
482,Pataugeoire du parc Richelieu,"13600, rue Forsyth, Montréal",Rivière-des-Prairies–Pointe-aux-Trembles,45.6634768,-73.5054152,Rivière-des-Prairies-Pointe-aux-Trembles
483,Pataugeoire du parc Roger-Rousseau,"7501, avenue Rondeau, Montréal",Anjou,45.6159526,-73.550939,Anjou
484,Pataugeoire du parc Saint-Clément,"1855, rue de Ville-Marie, Montréal",Mercier–Hochelaga-Maisonneuve,45.5593715,-73.5330738,Mercier-Hochelaga-Maisonneuve
485,Pataugeoire du parc Saint-Georges,"13050, rue Prince-Albert, Montréal",Rivière-des-Prairies–Pointe-aux-Trembles,45.6726505,-73.4950313,Rivière-des-Prairies-Pointe-aux-Trembles
486,Pataugeoire du parc Saint-Jean-Baptiste,"1048, boulevard Saint-Jean-Baptiste, Montréal",Rivière-des-Prairies–Pointe-aux-Trembles,45.641424,-73.5000897,Rivière-des-Prairies-Pointe-aux-Trembles
487,Pataugeoire du parc Saint-Laurent,"11614, avenue Salk, Montréal",Montréal-Nord,45.6064452,-73.6290272,Montréal-Nord
488,Pataugeoire du parc Saint-Laurent - Arr. Saint-Laurent,"rue Poirier, Montréal",Saint-Laurent,45.5187344,-73.6983366,Saint-Laurent
489,Pataugeoire du parc Saint-Paul-de-la-Croix,"9900, avenue Hamel, Montréal",Ahuntsic-Cartierville,45.5639852,-73.6614168,Ahuntsic-Cartierville
490,Pataugeoire du parc Saint-Victor,"9175, rue Hochelaga, Montréal",Mercier–Hochelaga-Maisonneuve,45.6071275,-73.5169242,Mercier-Hochelaga-Maisonneuve
491,Pataugeoire du parc Sainte-Lucie,"9093, Montréal",Villeray–Saint-Michel–Parc-Extension,-2.8994929,-78.9722758,
492,Pataugeoire du parc Sainte-Yvette,"8950 - 10e avenue, Montréal",Villeray–Saint-Michel–Parc-Extension,45.5697428,-73.6252584,Villeray-Saint-Michel-Parc-Extension
493,Pataugeoire du parc Sauvé,"11440, avenue Éthier, Montréal",Montréal-Nord,45.5997791,-73.6354184,Montréal-Nord
494,Pataugeoire du parc Sir-Wilfrid-Laurier,"5200, rue De Brébeuf, Montréal",Le Plateau-Mont-Royal,45.5340896,-73.5886123,Le Plateau-Mont-Royal
495,Pataugeoire du parc Tardif,"6455, rue Tardif, Montréal",Montréal-Nord,45.61777,-73.6158266,Montréal-Nord
496,Pataugeoire du parc Tassé,"Rue Billeron, Montréal",Saint-Laurent,45.5086214,-73.693823,Saint-Laurent
497,Pataugeoire du parc Trenholme,"6800, rue Sherbrooke Ouest, Montréal",Côte-des-Neiges–Notre-Dame-de-Grâce,45.4615438,-73.6328837,Côte-des-Neiges-Notre-Dame-de-Grâce
498,Pataugeoire Maisonneuve du parc Francine-Léger,"4350, rue de Rouen, Montréal",Mercier–Hochelaga-Maisonneuve,45.5537445,-73.5431697,Mercier-Hochelaga-Maisonneuve
499,Pataugeoire Paul-Émile Sauvageau du parc L.-O.-Taillon,"9200, rue Notre-Dame Est, Montréal",Mercier–Hochelaga-Maisonneuve,45.60581570678325,-73.51212723975443,Mercier-Hochelaga-Maisonneuve
500,Pataugeoire Saint-Gabriel du Carré d'Hibernia,"2333, rue Mullins, Montréal",Le Sud-Ouest,45.4788706535412,-73.56401847962488,Le Sud-Ouest
501,Pataugeoires du parc La Fontaine,"3819, avenue Calixa-Lavallée, Montréal",Le Plateau-Mont-Royal,45.5270684,-73.5693956,Le Plateau-Mont-Royal
502,Patinoire Bernard Est,"77, rue Bernard Est, Montréal",Le Plateau-Mont-Royal,45.5282973,-73.60095580676591,Le Plateau-Mont-Royal
503,Patinoire Bleu Blanc Bouge de CDN-NDG,"6262, avenue Fielding, Montréal",Côte-des-Neiges–Notre-Dame-de-Grâce,45.47233625,-73.63944554731941,Côte-des-Neiges-Notre-Dame-de-Grâce
504,Patinoire Bleu Blanc Bouge du parc François-Perrault,"7525, rue François-Perrault, Montréal",Villeray–Saint-Michel–Parc-Extension,45.5624595,-73.60057385,Villeray-Saint-Michel-Parc-Extension
505,Patinoire Bleu Blanc Bouge du parc Le Carignan,"11481, avenue P.-M.-Favier, Montréal",Montréal-Nord,45.6093388,-73.6157397,Montréal-Nord
506,Patinoire Bleu Blanc Bouge du parc Willibrord,"1018, rue Willibrord, Montréal",Verdun,45.4596322,-73.5760723,Verdun
507,Patinoire De Gaspé,"Avenue De Gaspé, Montréal",Le Plateau-Mont-Royal,45.5389214,-73.624089,Villeray-Saint-Michel-Parc-Extension
508,Patinoire de l'école polyvalente Pierrefonds,"13800 Boul de Pierrefonds, Montréal",Pierrefonds-Roxboro,45.4924073,-73.8465299,Pierrefonds-Roxboro
509,Patinoire de la Maison du citoyen,"boulevard Saint-Jean-Baptiste, Montréal",Rivière-des-Prairies–Pointe-aux-Trembles,45.6478822,-73.5273825,Rivière-des-Prairies-Pointe-aux-Trembles
510,"Patinoire derrière le 3051, boul. Saint-Joseph","3051, boulevard Saint-Joseph, Montréal",Lachine,45.4334992030303,-73.6914704030303,Lachine
511,Patinoire du Glacis,"Rue du Glacis, Montréal",Ville-Marie,45.5138938,-73.5505655,Ville-Marie
512,Patinoire du parc Armand-Bombardier,"Boulevard Perras, Montréal",Rivière-des-Prairies–Pointe-aux-Trembles,45.6295693,-73.6119172,Rivière-des-Prairies-Pointe-aux-Trembles
513,Patinoire du parc Beaubien,"6633, 6e Avenue, Montréal",Rosemont–La Petite-Patrie,45.5534327,-73.5922784,Rosemont-La Petite-Patrie
514,Patinoire du parc Beauclerk,"1855, avenue Émile-Legrand, Montréal",Mercier–Hochelaga-Maisonneuve,45.5811828,-73.5217204,Mercier-Hochelaga-Maisonneuve
515,Patinoire du parc Beurling,"6001, rue Beurling, Montréal",Verdun,45.4480795,-73.5838389,Verdun
516,Patinoire du parc Camille,"9350, boulevard Gouin Ouest, Montréal",Ahuntsic-Cartierville,45.4740743,-73.8744496,L'Île-Bizard-Sainte-Geneviève
517,Patinoire du parc Carignan,"4100, rue Provost, Montréal",Lachine,45.4420053,-73.7010692,Lachine
518,Patinoire du parc Champdoré,"2400, rue Champdoré, Montréal",Villeray–Saint-Michel–Parc-Extension,45.5757428,-73.6314602,Villeray-Saint-Michel-Parc-Extension
519,Patinoire du parc Charleroi,"10985, avenue Alfred, Montréal",Montréal-Nord,45.59943488333334,-73.62350405,Montréal-Nord
520,Patinoire du parc Clémentine-De La Rousselière,"14080, rue Notre-Dame Est, Montréal",Rivière-des-Prairies–Pointe-aux-Trembles,45.5858544,-73.5078805,Mercier-Hochelaga-Maisonneuve
521,Patinoire du parc Cousineau,"1740 Avenue O'Brien, Montréal",Saint-Laurent,45.5208944,-73.6889195,Saint-Laurent
522,Patinoire du parc Dan-Hanganu (Elgar),"260, rue Elgar, Montréal",Verdun,45.4572081,-73.5468802,Verdun
523,Patinoire du parc Daniel-Johnson,"1500, boulevard du Tricentenaire, Montréal",Rivière-des-Prairies–Pointe-aux-Trembles,45.6499733,-73.4927775,Rivière-des-Prairies-Pointe-aux-Trembles
524,Patinoire du parc de Bordeaux,"12141, rue Pasteur, Montréal",Ahuntsic-Cartierville,45.5424873,-73.7011838,Ahuntsic-Cartierville
525,Patinoire du parc De Gaspé,"6655, avenue De Gaspé, Montréal",Rosemont–La Petite-Patrie,45.5331983,-73.6092964,Rosemont-La Petite-Patrie
526,Patinoire du parc De La Bruère,"2200, rue Liébert, Montréal",Mercier–Hochelaga-Maisonneuve,45.5948536,-73.5197167,Mercier-Hochelaga-Maisonneuve
527,Patinoire du parc de la Cité-Jardin,"5222, boulevard Rosemont, Montréal",Rosemont–La Petite-Patrie,45.5721987,-73.563388,Rosemont-La Petite-Patrie
528,Patinoire du parc de la Fontaine,"570, place de la Fontaine, Montréal",Verdun,45.4631961,-73.5443182,Verdun
529,Patinoire du parc de la Louisiane,"4644, rue Beaubien Est, Montréal",Rosemont–La Petite-Patrie,45.5688992,-73.5740666,Rosemont-La Petite-Patrie
530,Patinoire du parc de la Petite-Italie,"6634, rue Clark, Montréal",Rosemont–La Petite-Patrie,45.53102151558441,-73.61228258051948,Rosemont-La Petite-Patrie
531,Patinoire du parc de la Reine-Élisabeth,"rue Penniston, Montréal",Verdun,45.4395481,-73.5916701,Verdun
532,Patinoire du parc de la Savane,"5111, rue Paré, Montréal",Côte-des-Neiges–Notre-Dame-de-Grâce,45.4857537,-73.6743386,Côte-des-Neiges-Notre-Dame-de-Grâce
533,Patinoire du parc De La Vérendrye,"5900, rue Drake, Montréal",Le Sud-Ouest,45.4589717,-73.5815697,Le Sud-Ouest
534,Patinoire du parc De Lorimier,"5131, rue Chabot, Montréal",Le Plateau-Mont-Royal,45.5546107,-73.6185626,Villeray-Saint-Michel-Parc-Extension
535,Patinoire du parc de Montmartre,"60e Avenue, Montréal",Rivière-des-Prairies–Pointe-aux-Trembles,45.6558897,-73.565722,Rivière-des-Prairies-Pointe-aux-Trembles
536,Patinoire du parc De Normanville,"7480, rue De Normanville, Montréal",Villeray–Saint-Michel–Parc-Extension,45.54552837311828,-73.61457552365592,Villeray-Saint-Michel-Parc-Extension
537,Patinoire du parc de Spalding,"7901, avenue Spalding, Montréal",Anjou,45.6024592,-73.5523232,Anjou
538,Patinoire du parc des Faubourgs,"1872, rue Dorion, Montréal",Ville-Marie,45.52620582,-73.55693920666667,Ville-Marie
539,Patinoire du parc des Pins,"3995, 42e avenue, Montréal",Rivière-des-Prairies–Pointe-aux-Trembles,45.6665499,-73.5160539,Rivière-des-Prairies-Pointe-aux-Trembles
540,Patinoire du parc des Rapides,"7770, boulevard LaSalle, Montréal",LaSalle,45.4262383,-73.5961642,LaSalle
541,Patinoire du parc des Vétérans,"1655, avenue Papineau, Montréal",Ville-Marie,45.52390952105263,-73.55495934035088,Ville-Marie
542,Patinoire du parc Dixie,"257, 54e Avenue, Montréal",Lachine,45.44127506107143,-73.71738271142857,Lachine
543,Patinoire du parc du Bois-Franc,"2145 rue du Chinook, Montréal",Saint-Laurent,45.5146427,-73.7131242,Saint-Laurent
544,Patinoire du parc du Pélican,"2590, rue Masson, Montréal",Rosemont–La Petite-Patrie,45.5451252,-73.5765343,Rosemont-La Petite-Patrie
545,Patinoire du parc du Père-Marquette,"1602, rue de Bellechasse, Montréal",Rosemont–La Petite-Patrie,45.5409785,-73.5936771,Rosemont-La Petite-Patrie
546,Patinoire du parc Duquette,"990, rue Dupuis, Montréal",Verdun,45.4662845,-73.5744974,Verdun
547,Patinoire du parc Eugène-Dostie,"montée de l'Église, Montréal",L'Île-Bizard–Sainte-Geneviève,45.5011327,-73.8965177,L'Île-Bizard-Sainte-Geneviève
548,Patinoire du parc Gédéon-De Catalogne,"Rue du Square Sir-George-Étienne-Cartier, Montréal",Le Sud-Ouest,,,
549,Patinoire du parc Georges-Gauthier,"8517, place Aldéric-Beaulac, Montréal",Ahuntsic-Cartierville,45.555527,-73.6286099,Ahuntsic-Cartierville
550,Patinoire du parc Gohier,"730, rue Buchanan, Montréal",Saint-Laurent,45.5090109,-73.6814752,Saint-Laurent
551,Patinoire du parc Hans-Selye,"7521, Avenue André-Ampère, Montréal",Rivière-des-Prairies–Pointe-aux-Trembles,45.6309811629452,-73.60113247017148,Rivière-des-Prairies-Pointe-aux-Trembles
552,Patinoire du parc Henri-Julien,"9300, rue Saint-Denis, Montréal",Ahuntsic-Cartierville,45.5480974,-73.6489555,Ahuntsic-Cartierville
553,Patinoire du parc Houde,"378, rue Gratton, Montréal",Saint-Laurent,45.4816734,-73.8608947,Pierrefonds-Roxboro
554,Patinoire du parc Howard,"8505, avenue De L'Épée, Montréal",Villeray–Saint-Michel–Parc-Extension,45.533273,-73.641962,Villeray-Saint-Michel-Parc-Extension
555,Patinoire du parc Ignace-Bourget,"5952, avenue de Montmagny, Montréal",Le Sud-Ouest,45.45736441588785,-73.60375152897197,Le Sud-Ouest
556,Patinoire du parc Jacques-Parizeau,"Avenue de Vimy, Montréal",Outremont,45.51594,-73.6263347,Côte-des-Neiges-Notre-Dame-de-Grâce
557,Patinoire du parc Jean-Amyot,"6110, rue de Marseille, Montréal",Mercier–Hochelaga-Maisonneuve,45.57672766666667,-73.54067979999999,Mercier-Hochelaga-Maisonneuve
558,Patinoire du parc Jeanne-Lapierre,"13201, rue Ève-Gagnier, Montréal",Rivière-des-Prairies–Pointe-aux-Trembles,45.6602002,-73.5155212,Rivière-des-Prairies-Pointe-aux-Trembles
559,Patinoire du parc Jeanne-Mance,"4422, avenue de l'Esplanade, Montréal",Le Plateau-Mont-Royal,45.5177321,-73.58681530000001,Le Plateau-Mont-Royal
560,Patinoire du parc Jonathan-Wilson,"3243, boulevard Chèvremont, Montréal",L'Île-Bizard–Sainte-Geneviève,45.5000951,-73.8701403,L'Île-Bizard-Sainte-Geneviève
561,Patinoire du parc Joseph-Avila-Proulx,"Rue Dubuisson, Montréal",L'Île-Bizard–Sainte-Geneviève,45.4963335,-73.8808235,L'Île-Bizard-Sainte-Geneviève
562,Patinoire du parc Joseph-Paré,"43e Avenue, Montréal",Rosemont–La Petite-Patrie,45.4183222,-73.6191356,LaSalle
563,Patinoire du parc Kirkland,"150, rue des Érables, Montréal",Lachine,45.4467263,-73.6502458,Lachine
564,Patinoire du parc Lacordaire,"12576, boulevard Lacordaire, Montréal",Montréal-Nord,45.61677611176471,-73.63084898235294,Montréal-Nord
565,Patinoire du parc Lafond,"3500, avenue Laurier Est, Montréal",Rosemont–La Petite-Patrie,45.5521213,-73.5699362,Rosemont-La Petite-Patrie
566,Patinoire du parc Lalancette,"2315, rue Nicolet, Montréal",Mercier–Hochelaga-Maisonneuve,45.5480242,-73.548539,Mercier-Hochelaga-Maisonneuve
567,Patinoire du parc LaSalle,"801, rue Saint-Antoine, Montréal",Lachine,45.4397027,-73.697109,Lachine
568,Patinoire du parc Le Carignan,"11481, avenue P.-M.-Favier, Montréal",Montréal-Nord,45.6093388,-73.6157397,Montréal-Nord
569,Patinoire du parc Le Prévost,"7275, avenue Christophe-Colomb, Montréal",Villeray–Saint-Michel–Parc-Extension,45.543459920000004,-73.6139635,Villeray-Saint-Michel-Parc-Extension
570,Patinoire du parc Lefebvre,"8600, rue Hardy, Montréal",LaSalle,45.4373064,-73.6352858,LaSalle
571,Patinoire du parc Liébert,"2848, rue Liébert, Montréal",Mercier–Hochelaga-Maisonneuve,45.5938206,-73.5159358,Mercier-Hochelaga-Maisonneuve
572,Patinoire du parc Maisonneuve,"4365, rue Sherbrooke Est, Montréal",Rosemont–La Petite-Patrie,45.55896664478707,-73.55464972797775,Rosemont-La Petite-Patrie
573,Patinoire du parc Marcel-Laurin,"2345, boulevard Thimens, Montréal",Saint-Laurent,45.5079871,-73.70119532827582,Saint-Laurent
574,Patinoire du parc Marcel-Léger,"14678, rue Notre-Dame Est, Montréal",Rivière-des-Prairies–Pointe-aux-Trembles,45.5858544,-73.5078805,Mercier-Hochelaga-Maisonneuve
575,Patinoire du parc Marie-Claire-Daveluy,"12180, avenue Jean-Yves-Bigras, Montréal",Rivière-des-Prairies–Pointe-aux-Trembles,45.6490698,-73.5684006,Rivière-des-Prairies-Pointe-aux-Trembles
576,Patinoire du parc Michel-Ménard,"1830, croissant Roy, Montréal",Lachine,45.4461591,-73.6827398,Lachine
577,Patinoire du parc Molson,"2473, rue Beaubien Est, Montréal",Rosemont–La Petite-Patrie,45.5341408,-73.6047549,Rosemont-La Petite-Patrie
578,Patinoire du parc Nicolas-Viel,"11000, boulevard Saint-Laurent, Montréal",Ahuntsic-Cartierville,45.5518535,-73.6762518,Ahuntsic-Cartierville
579,Patinoire du parc Noël-Nord,"2900, rue Baker, Montréal",Saint-Laurent,45.518006,-73.7285795,Saint-Laurent
580,Patinoire du parc Oakwood,"avenue Roskilde, Montréal",Outremont,45.5133918,-73.6003715,Outremont
581,Patinoire du parc Oscar,"10660, boulevard Saint-Michel, Montréal",Montréal-Nord,45.58202938,-73.64763232,Montréal-Nord
582,Patinoire du parc Oscar-Peterson,"810, rue Chatham, Montréal",Le Sud-Ouest,45.4894614,-73.575003,Le Sud-Ouest
583,Patinoire du parc Ouellette,"1407, rue Serre, Montréal",LaSalle,45.4320394,-73.6214194,LaSalle
584,Patinoire du parc Ovila-Legaré,"9275, boulevard Pie-IX, Montréal",Villeray–Saint-Michel–Parc-Extension,45.5813975,-73.6245309,Villeray-Saint-Michel-Parc-Extension
585,Patinoire du parc Painter,"260, rue Marcotte, Montréal",Saint-Laurent,45.5286235,-73.6774723,Saint-Laurent
586,Patinoire du parc Pehr-Kalm,"Rue Marcel-Raymond, Montréal",Rivière-des-Prairies–Pointe-aux-Trembles,45.6627746,-73.5545276,Rivière-des-Prairies-Pointe-aux-Trembles
587,Patinoire du parc Petit,"1600, rue Poirier, Montréal",Saint-Laurent,45.5201621,-73.6960403,Saint-Laurent
588,Patinoire du parc Pierre-Bédard,"5515, rue Lacordaire, Montréal",Mercier–Hochelaga-Maisonneuve,45.5777983,-73.5570532,Mercier-Hochelaga-Maisonneuve
589,Patinoire du parc Pierre-Bernard,"3170, boulevard Pierre-Bernard, Montréal",Mercier–Hochelaga-Maisonneuve,45.6060073,-73.5246295,Mercier-Hochelaga-Maisonneuve
590,Patinoire du parc Poirier,"900, rue Trudeau, Montréal",Saint-Laurent,45.5140984,-73.6632797,Saint-Laurent
591,Patinoire du parc Pratt,"1801, avenue Lajoie, Montréal",Outremont,45.5136505,-73.6171757,Outremont
592,Patinoire du parc Robert-Sauvé,"15742, rue de la Caserne, Montréal",L'Île-Bizard–Sainte-Geneviève,45.48149962894737,-73.86660485,L'Île-Bizard-Sainte-Geneviève
593,Patinoire du parc Roger-Rousseau,"7501, avenue Rondeau, Montréal",Anjou,45.6159526,-73.550939,Anjou
594,Patinoire du parc Rosemont,"5625, rue D'Iberville, Montréal",Rosemont–La Petite-Patrie,45.5443941,-73.5810989,Rosemont-La Petite-Patrie
595,Patinoire du parc Rougemont,"1900, rue Bossuet, Montréal",Mercier–Hochelaga-Maisonneuve,45.5700062,-73.5285286,Mercier-Hochelaga-Maisonneuve
596,Patinoire du parc Saint-Aloysius,"1651, rue Nicolet, Montréal",Mercier–Hochelaga-Maisonneuve,45.5457342,-73.541273,Mercier-Hochelaga-Maisonneuve
597,Patinoire du parc Saint-Paul,"Rue Brisset, Montréal",Le Sud-Ouest,45.4617553,-73.585589,Le Sud-Ouest
598,Patinoire du parc Saint-Simon-Apôtre,"200, rue Legendre Ouest, Montréal",Ahuntsic-Cartierville,45.5408011,-73.6494022,Ahuntsic-Cartierville
599,Patinoire du parc Saint-Viateur,"530, avenue Querbes, Montréal",Outremont,45.52100166,-73.60600112,Outremont
600,Patinoire du parc Saint-Victor,"9175, rue Hochelaga, Montréal",Mercier–Hochelaga-Maisonneuve,45.6071275,-73.5169242,Mercier-Hochelaga-Maisonneuve
601,Patinoire du parc Sainte-Bernadette,"6825, 16e Avenue, Montréal",Rosemont–La Petite-Patrie,45.5602763,-73.5885682,Rosemont-La Petite-Patrie
602,Patinoire du parc Théodore,"2523, rue Théodore, Montréal",Mercier–Hochelaga-Maisonneuve,45.5579438,-73.536863,Mercier-Hochelaga-Maisonneuve
603,Patinoire du parc Thomas-Chapais,"5798, boulevard Pierre Bernard, Montréal",Mercier–Hochelaga-Maisonneuve,45.6066477,-73.5264755,Mercier-Hochelaga-Maisonneuve
604,Patinoire du parc Toussaint-Louverture,"127, boulevard De Maisonneuve Est, Montréal",Ville-Marie,45.5160877,-73.5603048,Ville-Marie
605,Patinoire du parc Trenholme,"6800, rue Sherbrooke Ouest, Montréal",Côte-des-Neiges–Notre-Dame-de-Grâce,45.4615438,-73.6328837,Côte-des-Neiges-Notre-Dame-de-Grâce
606,Patinoire du parc Walter-Stewart,"2455, rue Larivière, Montréal",Ville-Marie,45.5232599,-73.5630054,Ville-Marie
607,Patinoire du parc William-Bowie,"4955, avenue Trenholme, Montréal",Côte-des-Neiges–Notre-Dame-de-Grâce,45.4580869,-73.6504371,Côte-des-Neiges-Notre-Dame-de-Grâce
608,Patinoire du parc Yves-Thériault,"Avenue Yves-Thériault, Montréal",Rivière-des-Prairies–Pointe-aux-Trembles,45.6788368,-73.4995112,Rivière-des-Prairies-Pointe-aux-Trembles
609,Patinoire Espace Faubourg Québec,"12, rue de la Porte-de-Québec, Montréal",Ville-Marie,,,
610,Patinoire et anneau de glace du parc de Talcy,"8151, avenue de Talcy, Montréal",Anjou,45.6090245,-73.558751,Anjou
611,Patinoire et anneau de glace du parc Lucie-Bruneau,"7051, avenue de l'Alsace, Montréal",Anjou,45.6036608,-73.5825274,Anjou
612,Patinoire et sentier glacé du parc des Roseraies,"7070, avenue de la Nantaise, Montréal",Anjou,45.5933175,-73.5560569,Anjou
613,Patinoire extérieure au parc-école Laurier-MacDonald,"Rue Terbois, Montréal",Saint-Léonard,45.5757349,-73.5858508,Saint-Léonard
614,Patinoire extérieure de l'aréna Mont-Royal,"4365, rue Cartier, Montréal",Le Plateau-Mont-Royal,45.533331700000005,-73.57175522810255,Le Plateau-Mont-Royal
615,Patinoire extérieure du complexe sportif Saint-Léonard,"5300, boulevard Lacordaire, Montréal",Saint-Léonard,45.5834084,-73.5915222,Saint-Léonard
616,Patinoire extérieure du parc Delorme,"6060, rue de Honfleur, Montréal",Saint-Léonard,45.5935518,-73.5894974,Saint-Léonard
617,Patinoire extérieure du parc Ermanno-La Riccia,"Rue J.-B.-Martineau, Montréal",Saint-Léonard,45.5943752,-73.6194738,Saint-Léonard
618,Patinoire extérieure du parc Ferland,"6020, boulevard Lavoisier, Montréal",Saint-Léonard,45.5957301,-73.6000641,Saint-Léonard
619,Patinoire extérieure du parc Giuseppe-Garibaldi,"7125, rue Liénart, Montréal",Saint-Léonard,45.5863259,-73.5699367,Saint-Léonard
620,Patinoire extérieure du parc Ladauversière,"7560, boulevard Lacordaire, Montréal",Saint-Léonard,45.5818598,-73.584296,Saint-Léonard
621,Patinoire extérieure du parc Luigi-Pirandello,"4550, rue de Compiègne, Montréal",Saint-Léonard,45.5789687,-73.6044855,Saint-Léonard
622,Patinoire extérieure du parc Pie-XII,"5200, boulevard Lavoisier, Montréal",Saint-Léonard,45.5876144,-73.6100005,Saint-Léonard
623,Patinoire extérieure réfrigérée Bleu Blanc Bouge du parc Hayward,"Avenue Orchard, Montréal",LaSalle,45.4227349,-73.6475287,LaSalle
624,Patinoire intérieure du centre sportif Dollard-St-Laurent,"707, 75e Avenue, Montréal",LaSalle,45.4226953,-73.6289742,LaSalle
625,Patinoire parc Outremont,"45.51801274444731, -73.60484877671914, Montréal",Outremont,45.550584900000004,-73.60223174000123,Villeray-Saint-Michel-Parc-Extension
626,Patinoire réfrigérée Bleu Blanc Bouge du parc De Mésy,"12100, rue Grenet, Montréal",Ahuntsic-Cartierville,45.5230467,-73.7055235,Saint-Laurent
627,Patinoire réfrigérée de l'esplanade Tranquille,"Au cœur du Quartier des spectacles, Montréal",Ville-Marie,,,
628,Patinoire réfrigérée du parc du Mont-Royal,"2000, chemin Remembrance, Montréal",Ville-Marie,45.4985062,-73.5992864,Ville-Marie
629,Patinoire réfrigérée du square Cabot,"2330, rue Sainte-Catherine Ouest, Montréal",Ville-Marie,45.4895586,-73.5842306,Ville-Marie
630,Patinoire sur l'étang du parc La Fontaine,"3819, avenue Calixa-Lavallée, Montréal",Le Plateau-Mont-Royal,45.5270684,-73.5693956,Le Plateau-Mont-Royal
631,Patinoires de la polyvalente Saint-Henri,"3819, avenue Calixa-Lavallée, Montréal",Le Sud-Ouest,45.5270684,-73.5693956,Le Plateau-Mont-Royal
632,Patinoires du Carré d'Hibernia,"2333, rue Mullins, Montréal",Le Sud-Ouest,45.4788706535412,-73.56401847962488,Le Sud-Ouest
633,Patinoires du parc Baldwin,"4355, rue Fullum, Montréal",Le Plateau-Mont-Royal,45.5365886,-73.5680103,Le Plateau-Mont-Royal
634,Patinoires du parc Beaubien - Outremont,"461, chemin de la Côte-Sainte-Catherine, Montréal",Outremont,45.51489,-73.6085193,Outremont
635,Patinoires du parc Berthe-Louard,"9355, avenue De Galinée, Montréal",Ahuntsic-Cartierville,45.55944715,-73.64289697830372,Ahuntsic-Cartierville
636,Patinoires du parc Campbell-Ouest,"1990, rue de Maricourt, Montréal",Le Sud-Ouest,45.45817415437506,-73.59135712854328,Le Sud-Ouest
637,Patinoires du parc de Louisbourg,"5455, rue de Louisbourg, Montréal",Ahuntsic-Cartierville,45.5289435,-73.7059696,Ahuntsic-Cartierville
638,Patinoires du parc des Cageux,"Angle du boulevard Gouin Est et de la 87e Avenue, Montréal",Rivière-des-Prairies–Pointe-aux-Trembles,,,
639,Patinoires du parc des Hirondelles,"2601, rue Sauvé Est, Montréal",Ahuntsic-Cartierville,45.5745405,-73.6405588,Ahuntsic-Cartierville
640,Patinoires du parc Don-Bosco,"12600, avenue Rita-Lévi-Montalcini, Montréal",Rivière-des-Prairies–Pointe-aux-Trembles,45.645738,-73.589323,Rivière-des-Prairies-Pointe-aux-Trembles
641,Patinoires du parc du Sault-au-Récollet,"2008, rue Prieur Est, Montréal",Ahuntsic-Cartierville,45.5542839,-73.6650445,Ahuntsic-Cartierville
642,Patinoires du parc George-Vernot,"8475, 13e Avenue, Montréal",Villeray–Saint-Michel–Parc-Extension,45.568444876,-73.616728756,Villeray-Saint-Michel-Parc-Extension
643,Patinoires du parc Georges-Saint-Pierre,"999, avenue Oxford, Montréal",Côte-des-Neiges–Notre-Dame-de-Grâce,45.4685681,-73.6079398,Côte-des-Neiges-Notre-Dame-de-Grâce
644,Patinoires du parc Gérard-Vaillancourt,"13840, rue Gratton, Montréal",Rivière-des-Prairies–Pointe-aux-Trembles,45.4816734,-73.8608947,Pierrefonds-Roxboro
645,Patinoires du parc Jarry,"205, rue Gary-Carter, Montréal",Villeray–Saint-Michel–Parc-Extension,45.5347697,-73.62337938333333,Villeray-Saint-Michel-Parc-Extension
646,Patinoires du parc Jean-Brillant,"5252, avenue Decelles, Montréal",Côte-des-Neiges–Notre-Dame-de-Grâce,45.5016065,-73.6275705,Côte-des-Neiges-Notre-Dame-de-Grâce
647,Patinoires du parc Le Ber,"202, avenue Ash, Montréal",Le Sud-Ouest,45.4780825,-73.5520569,Le Sud-Ouest
648,Patinoires du parc Macdonald,"5335, avenue Clanranald, Montréal",Côte-des-Neiges–Notre-Dame-de-Grâce,45.48385145,-73.63618654999999,Côte-des-Neiges-Notre-Dame-de-Grâce
649,Patinoires du parc Mackenzie-King,"4907, avenue Saint-Kevin, Montréal",Côte-des-Neiges–Notre-Dame-de-Grâce,45.48965415,-73.63292629320819,Côte-des-Neiges-Notre-Dame-de-Grâce
650,Patinoires du parc Maria-Goretti,"488, 85e Avenue, Montréal",Rivière-des-Prairies–Pointe-aux-Trembles,45.691746050000006,-73.48776636492585,Rivière-des-Prairies-Pointe-aux-Trembles
651,Patinoires du parc Martin-Luther-King,"3453, avenue de Kent, Montréal",Côte-des-Neiges–Notre-Dame-de-Grâce,45.5030133,-73.63197398742423,Côte-des-Neiges-Notre-Dame-de-Grâce
652,Patinoires du parc Nicolas-Tillemont,"7833, avenue des Érables, Montréal",Villeray–Saint-Michel–Parc-Extension,45.5540231,-73.6115754,Villeray-Saint-Michel-Parc-Extension
653,Patinoires du parc Notre-Dame-de-Grâce,"3500, avenue Girouard, Montréal",Côte-des-Neiges–Notre-Dame-de-Grâce,45.472277,-73.6112312,Côte-des-Neiges-Notre-Dame-de-Grâce
654,Patinoires du parc Saint-Alphonse,"8888, avenue De Chateaubriand, Montréal",Ahuntsic-Cartierville,45.5497433,-73.6405158,Ahuntsic-Cartierville
655,Patinoires du parc Saint-André-Apôtre,"10550, avenue de l'Esplanade, Montréal",Ahuntsic-Cartierville,45.5467897,-73.6705826,Ahuntsic-Cartierville
656,Patinoires du parc Saint-Jean-Baptiste,"1050, boulevard Saint-Jean-Baptiste, Montréal",Rivière-des-Prairies–Pointe-aux-Trembles,45.6414302,-73.50012858333334,Rivière-des-Prairies-Pointe-aux-Trembles
657,Patinoires du parc Saint-Paul-de-la-Croix,"9900, avenue Hamel, Montréal",Ahuntsic-Cartierville,45.5639852,-73.6614168,Ahuntsic-Cartierville
658,Patinoires du parc Sauvé,"11440, avenue Éthier, Montréal",Montréal-Nord,45.5997791,-73.6354184,Montréal-Nord
659,Patinoires du parc Sir-Wilfrid-Laurier,"1115, avenue Laurier Est, Montréal",Le Plateau-Mont-Royal,45.5311632,-73.5860164,Le Plateau-Mont-Royal
660,Patinoires du parc Villeray,"8000, rue De Normanville, Montréal",Villeray–Saint-Michel–Parc-Extension,45.548225450000004,-73.62152822049896,Villeray-Saint-Michel-Parc-Extension
661,Patinoires du parc Vinet,"550, rue Vinet, Montréal",Le Sud-Ouest,45.4839162,-73.575239,Le Sud-Ouest
662,Patinoires du parc William-Hurst,"6230, rue de Terrebonne, Montréal",Côte-des-Neiges–Notre-Dame-de-Grâce,45.4703763,-73.6317409,Côte-des-Neiges-Notre-Dame-de-Grâce
663,Petite patinoire de sports d'équipe du parc La Fontaine,"3819, avenue Calixa-Lavallée, Montréal",Le Plateau-Mont-Royal,45.5270684,-73.5693956,Le Plateau-Mont-Royal
664,Piscine Annie-Pelletier,"8850, avenue Dubuisson, Montréal",Mercier–Hochelaga-Maisonneuve,45.6022703,-73.5156098290587,Mercier-Hochelaga-Maisonneuve
665,Piscine communautaire Notre-Dame-de-Grâce,"3760, boulevard Décarie, Montréal",Côte-des-Neiges–Notre-Dame-de-Grâce,45.4763044,-73.613489,Côte-des-Neiges-Notre-Dame-de-Grâce
666,Piscine de l'Académie Beurling,"6100, boulevard Champlain, Montréal",Verdun,45.44855068355263,-73.58742646907895,Verdun
667,Piscine du cégep du Vieux Montréal,"255, rue Ontario Est, Montréal","Mercier–Hochelaga-Maisonneuve, Ville-Marie",45.514574,-73.5662054,Ville-Marie
668,Piscine du centre du Plateau,"2275, boulevard Saint-Joseph Est, Montréal",Le Plateau-Mont-Royal,45.5393802,-73.5757283,Le Plateau-Mont-Royal
669,Piscine du Centre Gadbois,"5485, chemin de la Côte-Saint-Paul, Montréal",Le Sud-Ouest,45.4671852,-73.593996,Le Sud-Ouest
670,Piscine du centre Jean-Claude-Malépart,"2633, rue Ontario Est, Montréal",Ville-Marie,45.533894999999994,-73.5521092,Ville-Marie
671,Piscine du Centre sportif Côte-des-Neiges,"4880, avenue Van Horne, Montréal",Côte-des-Neiges–Notre-Dame-de-Grâce,45.49263905,-73.63776002054809,Côte-des-Neiges-Notre-Dame-de-Grâce
672,Piscine du centre sportif de la Petite-Bourgogne,"1825, rue Notre-Dame Ouest, Montréal",Le Sud-Ouest,45.4884066,-73.5686323,Le Sud-Ouest
673,Piscine du Centre sportif de Notre-Dame-de-Grâce,"6445, avenue de Monkland, Montréal",Côte-des-Neiges–Notre-Dame-de-Grâce,45.4663329,-73.63240552567582,Côte-des-Neiges-Notre-Dame-de-Grâce
674,Piscine du centre Yvon Deschamps (ASCCS),"2093, rue de la Visitation, Montréal",Ville-Marie,45.522823,-73.5626642,Ville-Marie
675,Piscine du complexe sportif Claude-Robillard,"1000, avenue Émile-Journault, Montréal",Ahuntsic-Cartierville,45.55282305,-73.63600750036849,Ahuntsic-Cartierville
676,Piscine du Complexe sportif de l'école secondaire d'Anjou,"5515, avenue de l'Aréna, Montréal",Anjou,45.6021293,-73.5420809,Anjou
677,Piscine du Complexe sportif du collège de Bois-de-Boulogne,"10500, avenue de Bois-de-Boulogne, Montréal",Ahuntsic-Cartierville,45.5378284,-73.6781961,Ahuntsic-Cartierville
678,Piscine du complexe sportif du Collège Sainte-Anne,"50, 12e Avenue, Montréal",Lachine,45.4319541,-73.6745108,Lachine
679,Piscine du Complexe sportif Marie-Victorin,"7000, rue Marie-Victorin, Montréal",Rivière-des-Prairies–Pointe-aux-Trembles,45.6174314,-73.6063948,Rivière-des-Prairies-Pointe-aux-Trembles
680,Piscine du parc Arthur-Therrien,"3910, boulevard Gaétan-Laberge, Montréal",Verdun,45.4712981,-73.560214,Le Sud-Ouest
681,Piscine du parc Baldwin,"4355, rue Fullum, Montréal",Le Plateau-Mont-Royal,45.5365886,-73.5680103,Le Plateau-Mont-Royal
682,Piscine du parc Bourbonnière,"2800, rue Cazeneuve, Montréal",Saint-Laurent,45.5026938,-73.7024685,Saint-Laurent
683,Piscine du parc Chamberland,"800, rue Dorais, Montréal",Saint-Laurent,45.5037241,-73.6901641,Saint-Laurent
684,Piscine du parc Chénier,"5555, avenue de l'Aréna, Montréal",Anjou,45.6027258,-73.5438688,Anjou
685,Piscine du parc Dan-Hanganu (Elgar),"260, rue Elgar, Montréal",Verdun,45.4572081,-73.5468802,Verdun
686,Piscine du parc de la Confédération,"6265, avenue Biermans, Montréal",Côte-des-Neiges–Notre-Dame-de-Grâce,45.471707699999996,-73.63738390985344,Côte-des-Neiges-Notre-Dame-de-Grâce
687,Piscine du parc de la Fontaine,"550, place de la Fontaine, Montréal",Verdun,45.4632976,-73.543825,Verdun
688,Piscine du parc de Verdelles,"8441, place de Verdelles, Montréal",Anjou,45.6079549,-73.5493924,Anjou
689,Piscine du parc Decelles,"845, rue Roy, Montréal",Saint-Laurent,45.5141086,-73.6786261,Saint-Laurent
690,Piscine du parc des Roseraies,"7070, avenue de la Nantaise, Montréal",Anjou,45.5933175,-73.5560569,Anjou
691,Piscine du parc Don-Bosco,"12600, avenue Rita-Lévi-Montalcini, Montréal",Rivière-des-Prairies–Pointe-aux-Trembles,45.645738,-73.589323,Rivière-des-Prairies-Pointe-aux-Trembles
692,Piscine du parc du Pélican,"2590, rue Masson, Montréal",Rosemont–La Petite-Patrie,45.5451252,-73.5765343,Rosemont-La Petite-Patrie
693,Piscine du parc Eugène-Dostie,"montée de l'Église, Montréal",L'Île-Bizard–Sainte-Geneviève,45.5011327,-73.8965177,L'Île-Bizard-Sainte-Geneviève
694,Piscine du parc Ferland,"6020, boulevard Lavoisier, Montréal",Saint-Léonard,45.5957301,-73.6000641,Saint-Léonard
695,Piscine du parc François-Perrault,"7525, rue François-Perrault, Montréal",Villeray–Saint-Michel–Parc-Extension,45.5624595,-73.60057385,Villeray-Saint-Michel-Parc-Extension
696,Piscine du parc Gabriel-Lalemant,"2244, rue Sauvé Est, Montréal",Ahuntsic-Cartierville,45.57034461774194,-73.64382128064516,Ahuntsic-Cartierville
697,Piscine du parc Giuseppe-Garibaldi,"7135, rue Liénart, Montréal",Saint-Léonard,45.5862574,-73.5739474,Saint-Léonard
698,Piscine du parc Hans-Selye,"7521, avenue André-Ampère, Montréal",Rivière-des-Prairies–Pointe-aux-Trembles,45.6309811629452,-73.60113247017148,Rivière-des-Prairies-Pointe-aux-Trembles
699,Piscine du parc Hartenstein,"1505, rue Cardinal, Montréal",Saint-Laurent,45.5160559,-73.6900114,Saint-Laurent
700,Piscine du parc Hayward,"avenue Orchard, Montréal",LaSalle,45.4227349,-73.6475287,LaSalle
701,Piscine du parc Hébert,"7555, boulevard Provencher, Montréal",Saint-Léonard,45.5722056,-73.5935881,Saint-Léonard
702,Piscine du parc John F.-Kennedy,"Avenue Outremont, Montréal",Outremont,45.517565,-73.6057208,Outremont
703,Piscine du parc Joseph-Paré,"43e Avenue, Montréal",Rosemont–La Petite-Patrie,45.4183222,-73.6191356,LaSalle
704,Piscine du parc Kirkland,"123, rue Léo-Pétrin, Montréal",Lachine,45.4466295,-73.6479952,Lachine
705,Piscine du parc Lacharité,"8762, rue Centrale, Montréal",LaSalle,45.4178137,-73.6438677,LaSalle
706,Piscine du parc Ladauversière,"7540, boulevard Lacordaire, Montréal",Saint-Léonard,45.5826993,-73.5819041,Saint-Léonard
707,Piscine du parc LaSalle,"475, 10e Avenue, Montréal",Lachine,45.43898105562012,-73.67275723970154,Lachine
708,Piscine du parc Lefebvre,"8600, rue Hardy, Montréal",LaSalle,45.4373064,-73.6352858,LaSalle
709,Piscine du parc Leroux,"Angle de la rue Centrale et de l'avenue Lacharité, Montréal",LaSalle,,,
710,Piscine du parc Lucie-Bruneau,"7051, avenue de l'Alsace, Montréal",Anjou,45.6036608,-73.5825274,Anjou
711,Piscine du parc Marcelin-Wilson,"11301, boulevard de l'Acadie, Montréal",Ahuntsic-Cartierville,45.5359993,-73.6842383,Ahuntsic-Cartierville
712,Piscine du parc Maria-Goretti,"488, 85e Avenue, Montréal",Rivière-des-Prairies–Pointe-aux-Trembles,45.691746050000006,-73.48776636492585,Rivière-des-Prairies-Pointe-aux-Trembles
713,Piscine du parc Marlborough,"2305, rue Beauzèle, Montréal",Saint-Laurent,45.5223451,-73.719727,Saint-Laurent
714,Piscine du parc Martin-Luther-King,"6262, chemin Hudson, Montréal",Côte-des-Neiges–Notre-Dame-de-Grâce,45.50584575,-73.62989485806523,Côte-des-Neiges-Notre-Dame-de-Grâce
715,Piscine du parc Ménard - LaSalle,"9640, rue Clément, Montréal",LaSalle,45.4346813,-73.6533865,LaSalle
716,Piscine du parc Michel-Ménard,"1995, croissant Roy, Montréal",Lachine,45.446795,-73.6824811,Lachine
717,Piscine du parc Noël-Nord,"2900, rue Baker, Montréal",Saint-Laurent,45.518006,-73.7285795,Saint-Laurent
718,Piscine du parc Ouellette,"1407, rue Serre, Montréal",LaSalle,45.4320394,-73.6214194,LaSalle
719,Piscine du parc Painter,"260, rue Marcotte, Montréal",Saint-Laurent,45.5286235,-73.6774723,Saint-Laurent
720,Piscine du parc Pie-XII,"5250, boulevard Lavoisier, Montréal",Saint-Léonard,45.588064466666665,-73.6096008,Saint-Léonard
721,Piscine du parc Raymond,"Boulevard Bishop-Power, Montréal",LaSalle,45.4283845,-73.6072371,LaSalle
722,Piscine du parc Richelieu,"13600, rue Forsyth, Montréal",Rivière-des-Prairies–Pointe-aux-Trembles,45.6634768,-73.5054152,Rivière-des-Prairies-Pointe-aux-Trembles
723,Piscine du parc Riverside,"625, 35e Avenue, Montréal",LaSalle,45.4195554,-73.61326899999999,LaSalle
724,Piscine du parc Robert-Sauvé,"15742, rue de la Caserne, Montréal",L'Île-Bizard–Sainte-Geneviève,45.48149962894737,-73.86660485,L'Île-Bizard-Sainte-Geneviève
725,Piscine du parc Roger-Rousseau,"7501, avenue Rondeau, Montréal",Anjou,45.6159526,-73.550939,Anjou
726,Piscine du parc Saint-Georges,"13050, rue Prince-Albert, Montréal",Rivière-des-Prairies–Pointe-aux-Trembles,45.6726505,-73.4950313,Rivière-des-Prairies-Pointe-aux-Trembles
727,Piscine du parc Saint-Laurent - Arr. Saint-Laurent,"rue Poirier, Montréal",Saint-Laurent,45.5187344,-73.6983366,Saint-Laurent
728,Piscine du parc Sainte-Lucie,"9093, 16e Avenue, Montréal",Villeray–Saint-Michel–Parc-Extension,45.5745474,-73.6250635,Villeray-Saint-Michel-Parc-Extension
729,Piscine du parc Sir-Wilfrid-Laurier,"5200, rue De Brébeuf, Montréal",Le Plateau-Mont-Royal,45.5340896,-73.5886123,Le Plateau-Mont-Royal
730,Piscine Édouard-Montpetit,"6100, avenue Pierre-De Coubertin, Montréal",Mercier–Hochelaga-Maisonneuve,45.5758185,-73.53600437276707,Mercier-Hochelaga-Maisonneuve
731,Piscine extérieure du parc Charleroi,"10985, avenue Alfred, Montréal",Montréal-Nord,45.59943488333334,-73.62350405,Montréal-Nord
732,Piscine extérieure du parc Ignace-Bourget,"5925, avenue de Montmagny, Montréal",Le Sud-Ouest,45.4579503,-73.6042162,Le Sud-Ouest
733,Piscine extérieure du parc Ottawa,"10400, avenue de Belleville, Montréal",Montréal-Nord,45.581939399999996,-73.64229353880937,Montréal-Nord
734,Piscine extérieure du parc Primeau,"10958, avenue Pelletier, Montréal",Montréal-Nord,45.5927611,-73.6339487,Montréal-Nord
735,Piscine extérieure du parc Saint-Laurent,"11614, avenue Salk, Montréal",Montréal-Nord,45.6064452,-73.6290272,Montréal-Nord
736,Piscine extérieure du square Sir-George-Étienne-Cartier,"4550, rue Sainte-Émilie, Montréal",Le Sud-Ouest,45.472774799999996,-73.5849534903985,Le Sud-Ouest
737,Piscine intérieure Calixa-Lavallée,"11345, avenue Pelletier, Montréal",Montréal-Nord,45.59681667009346,-73.63810878971962,Montréal-Nord
738,Piscine intérieure Henri-Bourassa,"12005, avenue Laurier, Montréal",Montréal-Nord,45.61400307142858,-73.62293588571428,Montréal-Nord
739,Piscine John-F.-Kennedy,"3030, rue Villeray Est, Montréal",Villeray–Saint-Michel–Parc-Extension,45.5481486,-73.6070737,Villeray-Saint-Michel-Parc-Extension
740,Piscine Joseph-Charbonneau,"8200, rue Rousselot, Montréal",Villeray–Saint-Michel–Parc-Extension,45.551413133333334,-73.62251393333334,Villeray-Saint-Michel-Parc-Extension
741,Piscine Lévesque,"955, rue Marie-Anne Est, Montréal",Le Plateau-Mont-Royal,45.5262408,-73.5776737,Le Plateau-Mont-Royal
742,Piscine Maisonneuve du parc Francine-Léger,"4350, rue de Rouen, Montréal",Mercier–Hochelaga-Maisonneuve,45.5537445,-73.5431697,Mercier-Hochelaga-Maisonneuve
743,Piscine municipale Versailles,"13207, rue Desjardins, Montréal",Pierrefonds-Roxboro,45.5118201,-73.8473676,Pierrefonds-Roxboro
744,Piscine Paul-Émile Sauvageau du parc L.-O.-Taillon,"9200, rue Notre-Dame Est, Montréal",Mercier–Hochelaga-Maisonneuve,45.60581570678325,-73.51212723975443,Mercier-Hochelaga-Maisonneuve
745,Piscine Père-Marquette,"1600, rue de Drucourt, Montréal",Rosemont–La Petite-Patrie,45.540996,-73.59493220032282,Rosemont-La Petite-Patrie
746,Piscine Pierre-Lorange,"1870, rue Davidson, Montréal",Mercier–Hochelaga-Maisonneuve,45.5424316,-73.545177,Mercier-Hochelaga-Maisonneuve
747,Piscine Quintal,"1550, rue Dufresne, Montréal",Ville-Marie,45.5289362,-73.5487538,Ville-Marie
748,Piscine René-Goupil,"4250, rue du Parc-René-Goupil, Montréal",Villeray–Saint-Michel–Parc-Extension,,,
749,Piscine Rosemont,"6101, 8e Avenue, Montréal",Rosemont–La Petite-Patrie,45.5521117,-73.5838402,Rosemont-La Petite-Patrie
750,Piscine Roussin,"12125, rue Notre-Dame Est, Montréal",Rivière-des-Prairies–Pointe-aux-Trembles,45.5858544,-73.5078805,Mercier-Hochelaga-Maisonneuve
751,Piscine Saint-Charles,"1055, rue d'Hibernia, Montréal",Le Sud-Ouest,45.4796566,-73.5636344,Le Sud-Ouest
752,Piscine Saint-Denis,"7075, rue Saint-Hubert, Montréal",Rosemont–La Petite-Patrie,45.54023688387096,-73.61193511612903,Rosemont-La Petite-Patrie
753,Piscine Saint-Henri,"4055, rue Saint-Jacques, Montréal",Le Sud-Ouest,45.4777778,-73.5857771,Le Sud-Ouest
754,Piscine Saint-Roch,"400, avenue Ball, Montréal",Villeray–Saint-Michel–Parc-Extension,45.532002950000006,-73.63077231110046,Villeray-Saint-Michel-Parc-Extension
755,Piscine Schubert,"3950, boulevard Saint-Laurent, Montréal",Le Plateau-Mont-Royal,45.5165099,-73.578606,Le Plateau-Mont-Royal
756,Piscine Sophie-Barat,"10851, avenue Saint-Charles, Montréal",Ahuntsic-Cartierville,45.5616134,-73.6677232,Ahuntsic-Cartierville
757,Piscine Valleycrest du parc Grier,"4590, rue des Cageux, Montréal",Pierrefonds-Roxboro,45.457475075,-73.880411325,Pierrefonds-Roxboro
758,Piscine Villeray,"7355, avenue Christophe-Colomb, Montréal",Villeray–Saint-Michel–Parc-Extension,45.54402605,-73.61432646549338,Villeray-Saint-Michel-Parc-Extension
759,Piscines du Complexe sportif de Saint-Laurent,"2385, boulevard Thimens, Montréal",Saint-Laurent,45.505849133333335,-73.70225604444444,Saint-Laurent
760,Piste d’athlétisme du parc Étienne-Desmarteau,"rue Beaubien Est, Montréal",Rosemont–La Petite-Patrie,45.5357782,-73.6033946,Rosemont-La Petite-Patrie
761,Piste d'initiation au ski de fond du parc Delorme,"6060 rue de Honfleur, Montréal",Saint-Léonard,45.5935518,-73.5894974,Saint-Léonard
762,Piste d'initiation au ski de fond du parc Ermanno-La Riccia,"Rue J.-B.-Martineau, Montréal",Saint-Léonard,45.5943752,-73.6194738,Saint-Léonard
763,Piste d'initiation au ski de fond du parc Giuseppe-Garibaldi,"7125 rue Liénart, Montréal",Saint-Léonard,45.5863259,-73.5699367,Saint-Léonard
764,Piste de BMX,"15200, rue Sherbrooke Est, Montréal",Rivière-des-Prairies–Pointe-aux-Trembles,45.5531551,-73.5548571,Rosemont-La Petite-Patrie
765,Piste de course extérieure du Complexe sportif Claude-Robillard,"1000, avenue Émile-Journault, Montréal",Ahuntsic-Cartierville,45.55282305,-73.63600750036849,Ahuntsic-Cartierville
766,Piste de danse de l'îlot John-Gallagher,"7000, boulevard LaSalle, Montréal",Verdun,45.4430937,-73.5774798,Verdun
767,Piste de danse du parc des Rapides,"7770, boulevard LaSalle, Montréal",LaSalle,45.4262383,-73.5961642,LaSalle
768,Piste de glissade du parc Ahuntsic,"10555, rue Lajeunesse, Montréal",Ahuntsic-Cartierville,45.5543627,-73.664899,Ahuntsic-Cartierville
769,Piste de glissade du parc Arthur-Therrien,"3750, boulevard Gaétan-Laberge, Montréal",Verdun,45.4647823,-73.5627,Verdun
770,Piste de glissade du parc Beaubien - Outremont,"461, chemin de la Côte-Sainte-Catherine, Montréal",Outremont,45.51489,-73.6085193,Outremont
771,Piste de glissade du parc de West-Vancouver,"rue Darwin, Montréal",Verdun,45.4556609,-73.5433846,Verdun
772,Piste de glissade du parc Don-Bosco,"12600, avenue Rita-Lévi-Montalcini, Montréal",Rivière-des-Prairies–Pointe-aux-Trembles,45.645738,-73.589323,Rivière-des-Prairies-Pointe-aux-Trembles
773,Piste de glissade du parc du Bois-Franc,"2145, rue du Chinook, Montréal",Saint-Laurent,45.5146427,-73.7131242,Saint-Laurent
774,Piste de glissade du parc Grovehill,"640, 36e Avenue, Montréal",Lachine,45.4436419,-73.6963292,Lachine
775,Piste de glissade du parc Hartenstein,"1505, rue Cardinal, Montréal",Saint-Laurent,45.5160559,-73.6900114,Saint-Laurent
776,Piste de glissade du parc Ignace-Bourget,"5952, avenue de Montmagny, Montréal",Le Sud-Ouest,45.45736441588785,-73.60375152897197,Le Sud-Ouest
777,Piste de glissade du parc Jarry,"205, rue Gary-Carter, Montréal",Villeray–Saint-Michel–Parc-Extension,45.5347697,-73.62337938333333,Villeray-Saint-Michel-Parc-Extension
778,Piste de glissade du parc Michel-Ménard,"1995, croissant Roy, Montréal",Lachine,45.446795,-73.6824811,Lachine
779,Piste de glissade du parc-nature de l'Île-de-la-Visitation,"2425, boulevard Gouin Est, Montréal",Ahuntsic-Cartierville,45.57849616056338,-73.65591692253521,Ahuntsic-Cartierville
780,Piste de glissade du parc-nature de la Pointe-aux-Prairies,"14905, rue Sherbrooke Est, Montréal",Rivière-des-Prairies–Pointe-aux-Trembles,45.6825409,-73.5006631,Rivière-des-Prairies-Pointe-aux-Trembles
781,Piste de glissade du parc-nature du Cap-Saint-Jacques,"20099, boulevard Gouin Ouest, Montréal",Pierrefonds-Roxboro,45.4610271,-73.9205207,Pierrefonds-Roxboro
782,Piste de glissade du parc Philippe-Laheurte,"3035, avenue Ernest-Hemingway, Montréal",Saint-Laurent,45.50734442727273,-73.7167622090909,Saint-Laurent
783,Piste de glissade du parc Saint-Jean-Baptiste,"1050, boulevard Saint-Jean-Baptiste, Montréal",Rivière-des-Prairies–Pointe-aux-Trembles,45.6414302,-73.50012858333334,Rivière-des-Prairies-Pointe-aux-Trembles
784,Piste de ski de fond du parc de la Merci,"901, boulevard Gouin Ouest, Montréal",Ahuntsic-Cartierville,45.4740743,-73.8744496,L'Île-Bizard-Sainte-Geneviève
785,Piste de ski de fond du parc de la Traversée,"Entre les rues Victoria et Prince-Albert, Montréal",Rivière-des-Prairies–Pointe-aux-Trembles,,,
786,Piste de ski de fond du parc Jeanne-Mance,"4422, avenue de l'Esplanade, Montréal",Le Plateau-Mont-Royal,45.5177321,-73.58681530000001,Le Plateau-Mont-Royal
787,Pistes de glissade du parc-nature du Bois-de-Liesse,"3555 rue Douglas-B.-Floreani, Montréal",Saint-Laurent,45.4994946,-73.7676556,Saint-Laurent
788,Pistes de glissade libre du parc du Mont-Royal,"2000, chemin Remembrance, Montréal",Ville-Marie,45.4985062,-73.5992864,Ville-Marie
789,Pistes de ski de fond du parc du Mont-Royal,"2000, chemin Remembrance, Montréal",Ville-Marie,45.4985062,-73.5992864,Ville-Marie
790,Pistes de ski de fond du parc Frédéric-Back,"2345, rue Jarry Est, Montréal",Villeray–Saint-Michel–Parc-Extension,45.5585435,-73.6161107,Villeray-Saint-Michel-Parc-Extension
791,Pistes de ski de fond du parc La Fontaine,"3819, avenue Calixa-Lavallée, Montréal",Le Plateau-Mont-Royal,45.5270684,-73.5693956,Le Plateau-Mont-Royal
792,Pistes de ski de fond du parc Maisonneuve,"4365, rue Sherbrooke Est, Montréal",Rosemont–La Petite-Patrie,45.55896664478707,-73.55464972797775,Rosemont-La Petite-Patrie
793,Pistes de ski de fond du parc-nature de l'Île-de-la-Visitation,"2425, boulevard Gouin Est, Montréal",Ahuntsic-Cartierville,45.57849616056338,-73.65591692253521,Ahuntsic-Cartierville
794,Pistes de ski de fond du parc-nature de la Pointe-aux-Prairies,"14905, rue Sherbrooke Est, Montréal",Rivière-des-Prairies–Pointe-aux-Trembles,45.6825409,-73.5006631,Rivière-des-Prairies-Pointe-aux-Trembles
795,Pistes de ski de fond du parc-nature du Bois-de-L'Île-Bizard,"2115 chemin du Bord-du-Lac, Montréal",L'Île-Bizard–Sainte-Geneviève,45.5133196,-73.8971675,L'Île-Bizard-Sainte-Geneviève
796,Pistes de ski de fond du parc-nature du Bois-de-Liesse,"3555, rue Douglas-B.-Floreani, Montréal","Pierrefonds-Roxboro, Saint-Laurent",45.4994946,-73.7676556,Saint-Laurent
797,Pistes de ski de fond du parc-nature du Cap-Saint-Jacques,"20099, boulevard Gouin Ouest, Montréal",Pierrefonds-Roxboro,45.4610271,-73.9205207,Pierrefonds-Roxboro
798,Place Andrée-Lachapelle,"Angle de l'Avenue Fairmount Est et de la rue Saint-Dominique, Montréal",Le Plateau-Mont-Royal,,,
799,Place De Castelnau,"Entre l’avenue De Gaspé et la rue Saint-Denis, Montréal",Villeray–Saint-Michel–Parc-Extension,,,
800,Place du Marché,"Rue Saint-Ambroise, Montréal",Le Sud-Ouest,45.4685291,-73.5910932,Le Sud-Ouest
801,Place Guilbault,"Rue Guilbault, Montréal",Le Plateau-Mont-Royal,45.5139585,-73.5753496,Le Plateau-Mont-Royal
802,Place Shamrock,"70, avenue Shamrock, Montréal",Rosemont–La Petite-Patrie,45.534787916666666,-73.61600075000001,Rosemont-La Petite-Patrie
803,Places D’Youville et Royale,"Places D’Youville et Royale , Montréal",Ville-Marie,,,
804,Placette Côte-des-Neiges,"Chemin du Frère André, Montréal",Côte-des-Neiges–Notre-Dame-de-Grâce,,,
805,Plage de l'Est,"16240, rue Bureau , Montréal",Rivière-des-Prairies–Pointe-aux-Trembles,45.7017206,-73.47923633259579,Rivière-des-Prairies-Pointe-aux-Trembles
806,Plage du parc-nature du Bois-de-L'Île-Bizard,"2115 chemin du Bord-du-Lac, Montréal",L'Île-Bizard–Sainte-Geneviève,45.5133196,-73.8971675,L'Île-Bizard-Sainte-Geneviève
807,Plage du parc-nature du Cap-Saint-Jacques,"21115, boulevard Gouin Ouest, Montréal",Pierrefonds-Roxboro,45.4560752,-73.933293,Pierrefonds-Roxboro
808,Plage urbaine de Verdun,"4110, boulevard LaSalle, Montréal",Verdun,45.46224058181818,-73.5631167,Verdun
809,Plancher de danse du parc Lafond,"3500, avenue Laurier Est, Montréal",Rosemont–La Petite-Patrie,45.5521213,-73.5699362,Rosemont-La Petite-Patrie
810,Plancher de danse extérieur de Lachine,"3051, boulevard Saint-Joseph, Montréal",Lachine,45.4334992030303,-73.6914704030303,Lachine
811,Planchodrome du parc Ahuntsic,"10555, rue Lajeunesse, Montréal",Ahuntsic-Cartierville,45.5543627,-73.664899,Ahuntsic-Cartierville
812,Port de plaisance,"1800, chemin des Iroquois, Montréal",Lachine,45.4297018,-73.6762086,Lachine
813,Promenade Jean-Brillant,"Rue Jean-Brillant, Montréal",Côte-des-Neiges–Notre-Dame-de-Grâce,45.4939958,-73.6235942,Côte-des-Neiges-Notre-Dame-de-Grâce
814,Promenade Ontario,"Entre le boul. Pie-IX et la rue Nicolet, Montréal",Mercier–Hochelaga-Maisonneuve,,,
815,Quais Masson,"Rue Masson, Montréal",Rosemont–La Petite-Patrie,45.5575911,-73.569419,Rosemont-La Petite-Patrie
816,Rue de Dijon,"entre l’avenue P.-M.-Favier et le boulevard Rolland, Montréal",Montréal-Nord,,,
817,Rue Decelles,"entre les rues Décarie et Sainte-Croix, Montréal",Saint-Laurent,,,
818,Rue Dufresne,"Rue Dufresne, Montréal",Ville-Marie,45.5330528,-73.5577242,Ville-Marie
819,Rue Island,"Rue Island, Montréal",Le Sud-Ouest,45.4828556,-73.566254,Le Sud-Ouest
820,Rue Marguerite-D’Youville,"Rue Marguerite-D’Youville, Montréal",Ville-Marie,45.4996133,-73.5540289,Ville-Marie
821,Rue McTavish,"Rue McTavish, Montréal",Ville-Marie,45.5045301,-73.5795495,Ville-Marie
822,Rue Prince-Arthur Est,"Rue Prince-Arthur Est, Montréal",Le Plateau-Mont-Royal,45.51481,-73.5717728,Le Plateau-Mont-Royal
823,Rue Saint-Paul Est,"Rue Saint-Paul Est, Montréal",Ville-Marie,45.5065886,-73.5530284,Ville-Marie
824,Rue Saint-Vincent,"Rue Saint-Vincent , Montréal",Ville-Marie,45.5072131,-73.5535687,Ville-Marie
825,Rue Sainte-Catherine Est,"Dans le Village, entre la rue Saint-Hubert et l’avenue Papineau, Montréal",Ville-Marie,,,
826,Rue Sainte-Catherine Ouest,"Entre la rue De Bleury et le boulevard Saint-Laurent et incluant les rues Balmoral et Clark, Montréal",Ville-Marie,,,
827,Rue Stanislas,"Entre les rues De Londres et Stanislas, Montréal",Saint-Laurent,,,
828,Rue Victoria,"Rue Victoria, Montréal",Ville-Marie,45.4390177,-73.6635501,Lachine
829,Rue Wellington,"Entre la 6e Avenue et la rue Régina, Montréal",Verdun,,,
830,Rues Saint-Denis et Émery,"Entre les rues Sherbrooke Est et De Maisonneuve Est & entre les rues Saint-Denis et Sanguinet, Montréal",Ville-Marie,,,
831,Salle d'haltérophilie du Centre Gadbois,"5485, chemin de la Côte-Saint-Paul, Montréal",Le Sud-Ouest,45.4671852,-73.593996,Le Sud-Ouest
832,Salle de boxe et de karaté du Centre Gadbois,"5485, chemin de la Côte-Saint-Paul, Montréal",Le Sud-Ouest,45.4671852,-73.593996,Le Sud-Ouest
833,Salle de conférence Germain-Prégent du Centre Gadbois,"5485, chemin de la Côte-Saint-Paul, Montréal",Le Sud-Ouest,45.4671852,-73.593996,Le Sud-Ouest
834,"Salle de judo, dojo du Centre Gadbois","5485, chemin de la Côte-Saint-Paul, Montréal",Le Sud-Ouest,45.4671852,-73.593996,Le Sud-Ouest
835,Salle omnisports du complexe sportif Claude-Robillard,"1000, avenue Émile-Journault, Montréal",Ahuntsic-Cartierville,45.55282305,-73.63600750036849,Ahuntsic-Cartierville
836,Salle polyvalente Curé-Piché,"170, 15e Avenue, Montréal",Lachine,45.43441,-73.677137,Lachine
837,Site nautique du parc de Beauséjour,"6891, boulevard Gouin Ouest, Montréal",Ahuntsic-Cartierville,45.52736062247626,-73.72970887585059,Ahuntsic-Cartierville
838,Site nautique Sophie-Barat,"En arrière de l’école Sophie-Barat (accès par le stationnement du 10851, avenue Saint-Charles), Montréal",Ahuntsic-Cartierville,,,
839,Skate Plaza,"Avenue De Lorimier, Montréal",Ville-Marie,45.5296981,-73.5607981,Ville-Marie
840,Skatepark du parc Jean-Amyot,"6110, rue de Marseille, Montréal",Mercier–Hochelaga-Maisonneuve,45.57672766666667,-73.54067979999999,Mercier-Hochelaga-Maisonneuve
841,Sportplexe Pierrefonds,"14700, boulevard de Pierrefonds, Montréal",Pierrefonds-Roxboro,45.4857293,-73.8574695,Pierrefonds-Roxboro
842,Stade de soccer de Montréal,"9235, avenue Papineau, Montréal",Villeray–Saint-Michel–Parc-Extension,45.5635806,-73.6422573,Villeray-Saint-Michel-Parc-Extension
843,Stade Éloi-Viau du parc Riverside,"625, 35e Avenue, Montréal",LaSalle,45.4195554,-73.61326899999999,LaSalle
844,Stade Hébert,"7655, rue Colbert, Montréal",Saint-Léonard,45.5722513,-73.5936636,Saint-Léonard
845,"Terrain de balle, baseball du Parc Ahuntsic","10555, rue Lajeunesse, Montréal",Ahuntsic-Cartierville,45.5543627,-73.664899,Ahuntsic-Cartierville
846,"Terrain de balle, baseball du parc Alexander","14899, rue Oakwood, Montréal",Pierrefonds-Roxboro,45.47494590931249,-73.8558238070867,Pierrefonds-Roxboro
847,"Terrain de balle, baseball du parc André-Laurendeau","8361, avenue André-Laurendeau, Montréal",Anjou,45.6043808,-73.571237,Anjou
848,"Terrain de balle, baseball du parc Aragon","rue Sunbury, Montréal",Pierrefonds-Roxboro,45.4968613,-73.8383771,Pierrefonds-Roxboro
849,"Terrain de balle, baseball du parc Armand-Bombardier","boulevard Armand-Bombardier et boulevard Perras, Montréal",Rivière-des-Prairies–Pointe-aux-Trembles,45.6384619,-73.5969446,Rivière-des-Prairies-Pointe-aux-Trembles
850,"Terrain de balle, baseball du parc Benny","Avenue Monkland, Montréal",Côte-des-Neiges–Notre-Dame-de-Grâce,45.4790573,-73.6196662,Côte-des-Neiges-Notre-Dame-de-Grâce
851,"Terrain de balle, baseball du parc Berthe-Louard","9355, avenue De Galinée, Montréal",Ahuntsic-Cartierville,45.55944715,-73.64289697830372,Ahuntsic-Cartierville
852,"Terrain de balle, baseball du parc Brook","12800, rue Brook, Montréal",Pierrefonds-Roxboro,45.5104360548896,-73.84404322853007,Pierrefonds-Roxboro
853,"Terrain de balle, baseball du parc Carignan","4100, rue Provost, Montréal",Lachine,45.4420053,-73.7010692,Lachine
854,"Terrain de balle, baseball du parc Charleroi","10985, avenue Alfred, Montréal",Montréal-Nord,45.59943488333334,-73.62350405,Montréal-Nord
855,"Terrain de balle, baseball du parc D'Auteuil","350, rue Sauvé Est, Montréal",Ahuntsic-Cartierville,45.5499636,-73.6567805,Ahuntsic-Cartierville
856,"Terrain de balle, baseball du parc Daniel-Johnson","1500, boulevard du Tricentenaire, Montréal",Rivière-des-Prairies–Pointe-aux-Trembles,45.6499733,-73.4927775,Rivière-des-Prairies-Pointe-aux-Trembles
857,"Terrain de balle, baseball du parc de la Louisiane","4644, rue Beaubien Est, Montréal",Rosemont–La Petite-Patrie,45.5688992,-73.5740666,Rosemont-La Petite-Patrie
858,"Terrain de balle, baseball du parc de Louisbourg","5455, rue de Louisbourg, Montréal",Ahuntsic-Cartierville,45.5289435,-73.7059696,Ahuntsic-Cartierville
859,"Terrain de balle, baseball du parc De Mésy","12120, rue Grenet, Montréal",Ahuntsic-Cartierville,45.5295402,-73.7161649,Ahuntsic-Cartierville
860,"Terrain de balle, baseball du parc De Normanville","7480, rue De Normanville, Montréal",Villeray–Saint-Michel–Parc-Extension,45.54552837311828,-73.61457552365592,Villeray-Saint-Michel-Parc-Extension
861,"Terrain de balle, baseball du parc des Roseraies","7070, avenue de la Nantaise, Montréal",Anjou,45.5933175,-73.5560569,Anjou
862,"Terrain de balle, baseball du parc Don-Bosco","12600, avenue Rita-Lévi-Montalcini, Montréal",Rivière-des-Prairies–Pointe-aux-Trembles,45.645738,-73.589323,Rivière-des-Prairies-Pointe-aux-Trembles
863,"Terrain de balle, baseball du parc Gabriel-Lalemant","2244, rue Sauvé Est, Montréal",Ahuntsic-Cartierville,45.57034461774194,-73.64382128064516,Ahuntsic-Cartierville
864,"Terrain de balle, baseball du parc George-Springate","4788, rue Richmond, Montréal",Pierrefonds-Roxboro,45.4920195,-73.843509,Pierrefonds-Roxboro
865,"Terrain de balle, baseball du parc George-Vernot","8475, 13e Avenue, Montréal",Villeray–Saint-Michel–Parc-Extension,45.568444876,-73.616728756,Villeray-Saint-Michel-Parc-Extension
866,"Terrain de balle, baseball du parc Grier","4590, rue des Cageux, Montréal",Pierrefonds-Roxboro,45.457475075,-73.880411325,Pierrefonds-Roxboro
867,"Terrain de balle, baseball du parc Grovehill","640, 36e Avenue, Montréal",Lachine,45.4436419,-73.6963292,Lachine
868,"Terrain de balle, baseball du parc Henri-Julien","9300, rue Saint-Denis, Montréal",Ahuntsic-Cartierville,45.5480974,-73.6489555,Ahuntsic-Cartierville
869,"Terrain de balle, baseball du parc Jean-Martucci","1207, rue Étienne-Blanchard, Montréal",Ahuntsic-Cartierville,45.5559706,-73.6337287,Ahuntsic-Cartierville
870,"Terrain de balle, baseball du parc LaSalle","801, rue Saint-Antoine, Montréal",Lachine,45.4397027,-73.697109,Lachine
871,"Terrain de balle, baseball du parc Macdonald","5335, avenue Clanranald, Montréal",Côte-des-Neiges–Notre-Dame-de-Grâce,45.48385145,-73.63618654999999,Côte-des-Neiges-Notre-Dame-de-Grâce
872,"Terrain de balle, baseball du parc Marcelin-Wilson","11301, boulevard de l'Acadie, Montréal",Ahuntsic-Cartierville,45.5359993,-73.6842383,Ahuntsic-Cartierville
873,"Terrain de balle, baseball du parc Martin-Luther-King","3453, avenue de Kent, Montréal",Côte-des-Neiges–Notre-Dame-de-Grâce,45.5030133,-73.63197398742423,Côte-des-Neiges-Notre-Dame-de-Grâce
874,"Terrain de balle, baseball du parc Pasquale-Gattuso","11770, place Gilles-Trottier, Montréal",Rivière-des-Prairies–Pointe-aux-Trembles,45.6367066,-73.5754161,Rivière-des-Prairies-Pointe-aux-Trembles
875,"Terrain de balle, baseball du parc Roger-Rousseau","7501, avenue Rondeau, Montréal",Anjou,45.6159526,-73.550939,Anjou
876,"Terrain de balle, baseball du parc Saint-Benoît","9887, rue Meilleur, Montréal",Ahuntsic-Cartierville,45.54018793283582,-73.66398599104478,Ahuntsic-Cartierville
877,"Terrain de balle, baseball du parc Saint-Joseph","9909, 68e Avenue, Montréal",Rivière-des-Prairies–Pointe-aux-Trembles,45.4185917,-73.6273674,LaSalle
878,"Terrain de balle, baseball du parc Saint-Marcel","1647, 6e Avenue, Montréal",Rivière-des-Prairies–Pointe-aux-Trembles,45.4322439,-73.6692396,Lachine
879,"Terrain de balle, baseball du parc Saint-Paul-de-la-Croix","9900, avenue Hamel, Montréal",Ahuntsic-Cartierville,45.5639852,-73.6614168,Ahuntsic-Cartierville
880,"Terrain de balle, baseball du parc Saint-Simon-Apôtre","200, rue Legendre Ouest, Montréal",Ahuntsic-Cartierville,45.5408011,-73.6494022,Ahuntsic-Cartierville
881,"Terrain de balle, baseball du parc Sainte-Marthe","boulevard Gouin Est et 19e Avenue, Montréal",Rivière-des-Prairies–Pointe-aux-Trembles,,,
882,"Terrain de balle, baseball du parc Sauvé","11440, avenue Éthier, Montréal",Montréal-Nord,45.5997791,-73.6354184,Montréal-Nord
883,"Terrain de balle, baseball du parc Villeray","8000, rue De Normanville, Montréal",Villeray–Saint-Michel–Parc-Extension,45.548225450000004,-73.62152822049896,Villeray-Saint-Michel-Parc-Extension
884,"Terrain de balle, baseball du parc Walter-Stewart","2455, rue Larivière, Montréal",Ville-Marie,45.5232599,-73.5630054,Ville-Marie
885,"Terrain de balle, baseball du parc William-Hurst","6230, rue de Terrebonne, Montréal",Côte-des-Neiges–Notre-Dame-de-Grâce,45.4703763,-73.6317409,Côte-des-Neiges-Notre-Dame-de-Grâce
886,Terrain de balle du Carré d'Hibernia,"2333, rue Mullins, Montréal",Le Sud-Ouest,45.4788706535412,-73.56401847962488,Le Sud-Ouest
887,Terrain de balle du parc Arthur-Therrien,"3750, boulevard Gaétan-Laberge, Montréal",Verdun,45.4647823,-73.5627,Verdun
888,Terrain de balle du parc Beaulac,"1145, rue Elizabeth, Montréal",Saint-Laurent,45.5194452,-73.6786465,Saint-Laurent
889,Terrain de balle du parc Chamberland,"800, rue Dorais, Montréal",Saint-Laurent,45.5037241,-73.6901641,Saint-Laurent
890,Terrain de balle du parc Clifford,"1820, avenue Clifford, Montréal",Le Sud-Ouest,45.4507064,-73.5896502,Le Sud-Ouest
891,Terrain de balle du parc Cousineau,"1740, avenue O'Brien, Montréal",Saint-Laurent,45.5208944,-73.6889195,Saint-Laurent
892,Terrain de balle du parc d'Argenson,"2900, rue Centre, Montréal",Le Sud-Ouest,45.4760513,-73.5731223,Le Sud-Ouest
893,Terrain de balle du parc de l'École secondaire de la Pointe-aux-Trembles,"15200, rue Sherbrooke Est, Montréal",Rivière-des-Prairies–Pointe-aux-Trembles,45.5531551,-73.5548571,Rosemont-La Petite-Patrie
894,Terrain de balle du parc Decelles,"845, rue Roy, Montréal",Saint-Laurent,45.5141086,-73.6786261,Saint-Laurent
895,Terrain de balle du parc Houde,"378, rue Gratton, Montréal",Saint-Laurent,45.4816734,-73.8608947,Pierrefonds-Roxboro
896,Terrain de balle du parc Juliette-Huot,"rue Sainte-Claire, Montréal",Mercier–Hochelaga-Maisonneuve,45.6107142,-73.5195256,Mercier-Hochelaga-Maisonneuve
897,Terrain de balle du parc Marcel-Laurin,"2345, boulevard Thimens, Montréal",Saint-Laurent,45.5079871,-73.70119532827582,Saint-Laurent
898,Terrain de balle du parc Noël-Sud,"3025, rue Biret, Montréal",Saint-Laurent,45.5139366,-73.7275772,Saint-Laurent
899,Terrain de balle du parc Petit,"1600, rue Poirier, Montréal",Saint-Laurent,45.5201621,-73.6960403,Saint-Laurent
900,Terrain de balle du parc Saint-Laurent - Arr. Saint-Laurent,"845 rue Poirier, Montréal",Saint-Laurent,45.5264681,-73.6867105,Saint-Laurent
901,Terrain de balle du parc Vinet,"550, rue Vinet, Montréal",Le Sud-Ouest,45.4839162,-73.575239,Le Sud-Ouest
902,Terrain de baseball du parc Beurling,"6001, rue Beurling, Montréal",Verdun,45.4480795,-73.5838389,Verdun
903,Terrain de baseball du parc Clémentine-De La Rousselière,"14080, rue Notre-Dame Est, Montréal",Rivière-des-Prairies–Pointe-aux-Trembles,45.5858544,-73.5078805,Mercier-Hochelaga-Maisonneuve
904,Terrain de baseball du parc Dalbé-Viau,"Rue Esther-Blondin et rue Duff Court, Montréal",Lachine,,,
905,Terrain de baseball du parc de la Reine-Élisabeth,"rue Penniston, Montréal",Verdun,45.4395481,-73.5916701,Verdun
906,Terrain de baseball du parc Gadbois,"5485, chemin de la Côte-Saint-Paul, Montréal",Le Sud-Ouest,45.4671852,-73.593996,Le Sud-Ouest
907,Terrain de baseball du parc Ladauversière,"7560, boulevard Lacordaire, Montréal",Saint-Léonard,45.5818598,-73.584296,Saint-Léonard
908,Terrain de baseball du parc Meadowbrook,"Rue Meadowbrook, Montréal",Lachine,45.4431651,-73.7139457,Lachine
909,Terrain de baseball du parc Pie-XII,"5200, boulevard Lavoisier, Montréal",Saint-Léonard,45.5876144,-73.6100005,Saint-Léonard
910,Terrain de baseball du Parc Sir-Wilfrid-Laurier,"5200, rue de Brébeuf, Montréal",Le Plateau-Mont-Royal,45.5340896,-73.5886123,Le Plateau-Mont-Royal
911,Terrain de pickleball du parc Giuseppe-Garibaldi,"7125, rue Liénart, Montréal",Saint-Léonard,45.5863259,-73.5699367,Saint-Léonard
912,Terrain de soccer du complexe sportif de Saint-Laurent,"2385, boulevard Thimens, Montréal",Saint-Laurent,45.505849133333335,-73.70225604444444,Saint-Laurent
913,Terrain de soccer du parc Adrien-D.-Archambault,"1000, boulevard de la Forêt, Montréal",Verdun,45.4549751,-73.5581176,Verdun
914,Terrain de soccer du parc Alexander,"14899, rue Oakwood, Montréal",Pierrefonds-Roxboro,45.47494590931249,-73.8558238070867,Pierrefonds-Roxboro
915,Terrain de soccer du parc André-Laurendeau,"8361, avenue André-Laurendeau, Montréal",Anjou,45.6043808,-73.571237,Anjou
916,Terrain de soccer du parc Arthur-Therrien,"3750, boulevard Gaétan-Laberge, Montréal",Verdun,45.4647823,-73.5627,Verdun
917,Terrain de soccer du parc Beaubien - Outremont,"461, chemin de la Côte-Sainte-Catherine, Montréal",Outremont,45.51489,-73.6085193,Outremont
918,Terrain de soccer du parc Beurling,"6001, rue Beurling, Montréal",Verdun,45.4480795,-73.5838389,Verdun
919,Terrain de soccer du parc Bishop-Whelan,"Rue René Huguet, Montréal",Lachine,45.4413832,-73.7139363,Lachine
920,Terrain de soccer du parc Campbell-Ouest,"1990, rue de Maricourt, Montréal",Le Sud-Ouest,45.45817415437506,-73.59135712854328,Le Sud-Ouest
921,Terrain de soccer du parc Carignan,"4100, rue Provost, Montréal",Lachine,45.4420053,-73.7010692,Lachine
922,Terrain de soccer du parc Catherine-Soumillard,"48e Avenue, Montréal",Lachine,45.6552718,-73.5802391,Rivière-des-Prairies-Pointe-aux-Trembles
923,Terrain de soccer du parc Claudine-Vallerand,"11750, 27e Avenue, Montréal",Rivière-des-Prairies–Pointe-aux-Trembles,45.631928078873244,-73.58345209859155,Rivière-des-Prairies-Pointe-aux-Trembles
924,Terrain de soccer du parc Conrad-Poirier,"avenue Salomon-Marion et boulevard Perras, Montréal",Rivière-des-Prairies–Pointe-aux-Trembles,,,
925,Terrain de soccer du parc Coubertin,"4755, rue Valéry, Montréal",Saint-Léonard,45.58324,-73.6102527,Saint-Léonard
926,Terrain de soccer du parc d'À-Ma-Baie,"9625, boulevard Gouin Ouest, Montréal",Pierrefonds-Roxboro,45.5041775,-73.7818377,Pierrefonds-Roxboro
927,Terrain de soccer du parc D'Auteuil,"350, rue Sauvé Est, Montréal",Ahuntsic-Cartierville,45.5499636,-73.6567805,Ahuntsic-Cartierville
928,Terrain de soccer du parc Dalbé-Viau,"rue Esther-Blondin et rue Duff Court, Montréal",Lachine,,,
929,Terrain de soccer du parc Dan-Hanganu (Elgar),"260, rue Elgar, Montréal",Verdun,45.4572081,-73.5468802,Verdun
930,Terrain de soccer du parc Daniel-Johnson,"1500, boulevard du Tricentenaire, Montréal",Rivière-des-Prairies–Pointe-aux-Trembles,45.6499733,-73.4927775,Rivière-des-Prairies-Pointe-aux-Trembles
931,Terrain de soccer du parc de Deauville,"Rue de Riva-Bella, Montréal",Pierrefonds-Roxboro,45.4626081,-73.8896052,Pierrefonds-Roxboro
932,Terrain de soccer du parc de l'École secondaire de la Pointe-aux-Trembles,"15200, rue Sherbrooke Est, Montréal",Rivière-des-Prairies–Pointe-aux-Trembles,45.5531551,-73.5548571,Rosemont-La Petite-Patrie
933,Terrain de soccer du parc de l'Honorable-George-O'Reilly,"7523, boulevard LaSalle, Montréal",Verdun,45.4341031,-73.5872829,LaSalle
934,Terrain de soccer du parc de la Louisiane,"4644, rue Beaubien Est, Montréal",Rosemont–La Petite-Patrie,45.5688992,-73.5740666,Rosemont-La Petite-Patrie
935,Terrain de soccer du parc de la Reine-Élisabeth,"rue Penniston, Montréal",Verdun,45.4395481,-73.5916701,Verdun
936,Terrain de soccer du parc de la Rive-Boisée,"307, chemin de la Rive-Boisée, Montréal",Pierrefonds-Roxboro,45.49702522643161,-73.85212605765484,Pierrefonds-Roxboro
937,Terrain de soccer du parc de Louisbourg,"5455, rue de Louisbourg, Montréal",Ahuntsic-Cartierville,45.5289435,-73.7059696,Ahuntsic-Cartierville
938,Terrain de soccer du parc de Montmartre,"rue De Montigny et 60e Avenue, Montréal",Rivière-des-Prairies–Pointe-aux-Trembles,,,
939,Terrain de soccer du parc de Roxboro,"10, 11e Rue, Montréal",Pierrefonds-Roxboro,45.5051794,-73.8030817,Pierrefonds-Roxboro
940,Terrain de soccer du parc de Talcy,"8151, avenue de Talcy, Montréal",Anjou,45.6090245,-73.558751,Anjou
941,Terrain de soccer du parc des Hirondelles,"2601, rue Sauvé Est, Montréal",Ahuntsic-Cartierville,45.5745405,-73.6405588,Ahuntsic-Cartierville
942,Terrain de soccer du parc Dixie,"695, 54e Avenue, Montréal",Lachine,45.44348,-73.7180735,Lachine
943,Terrain de soccer du parc Dollard-Morin,"11750, rue La Valinière, Montréal",Rivière-des-Prairies–Pointe-aux-Trembles,45.6278549,-73.5927167,Rivière-des-Prairies-Pointe-aux-Trembles
944,Terrain de soccer du parc du Boisé,"Rue du Boisé, Montréal",Pierrefonds-Roxboro,45.5025452,-73.796251,Pierrefonds-Roxboro
945,Terrain de soccer du parc du Château-Pierrefonds,"boulevard de Pierrefonds, Montréal",Pierrefonds-Roxboro,45.5036366,-73.8287305,Pierrefonds-Roxboro
946,Terrain de soccer du parc du Perce-Neige,"Place Talbot, Montréal",Pierrefonds-Roxboro,45.5053059,-73.7799098,Pierrefonds-Roxboro
947,Terrain de soccer du parc du Père-Marquette,"1602, rue de Bellechasse, Montréal",Rosemont–La Petite-Patrie,45.5409785,-73.5936771,Rosemont-La Petite-Patrie
948,Terrain de soccer du parc Duval,"Rue Atlas, Montréal",Pierrefonds-Roxboro,45.4645018,-73.8683822,Pierrefonds-Roxboro
949,Terrain de soccer du parc-école Barclay,"7941, avenue Wiseman, Montréal",Villeray–Saint-Michel–Parc-Extension,45.5289198,-73.63501642435133,Villeray-Saint-Michel-Parc-Extension
950,Terrain de soccer du parc-école Calixa-Lavallée,"4444, boulevard Henri-Bourassa Est, Montréal",Montréal-Nord,45.5992306,-73.6393742,Montréal-Nord
951,Terrain de soccer du parc-école du Grand-Chêne,"580, rue de Savoie, Montréal",Pierrefonds-Roxboro,45.5106398,-73.8293603,Pierrefonds-Roxboro
952,Terrain de soccer du parc-école Lakeside Academy,"Rue Sir George Simpson, Montréal",Lachine,45.4474882,-73.7047086,Lachine
953,Terrain de soccer du parc-école Saint-Vincent-Marie,"Avenue Armand-Lavergne, Montréal",Montréal-Nord,45.5960944,-73.6348715,Montréal-Nord
954,Terrain de soccer du parc François-Perrault,"7525, rue François-Perrault, Montréal",Villeray–Saint-Michel–Parc-Extension,45.5624595,-73.60057385,Villeray-Saint-Michel-Parc-Extension
955,Terrain de soccer du parc Gabriel-Lalemant,"2244, rue Sauvé Est, Montréal",Ahuntsic-Cartierville,45.57034461774194,-73.64382128064516,Ahuntsic-Cartierville
956,Terrain de soccer du parc George-Springate,"4788, rue Richmond, Montréal",Pierrefonds-Roxboro,45.4920195,-73.843509,Pierrefonds-Roxboro
957,Terrain de soccer du parc Georges-Saint-Pierre,"999, avenue Oxford, Montréal",Côte-des-Neiges–Notre-Dame-de-Grâce,45.4685681,-73.6079398,Côte-des-Neiges-Notre-Dame-de-Grâce
958,Terrain de soccer du parc Gilbert-Layton,"6975, avenue Chester, Montréal",Côte-des-Neiges–Notre-Dame-de-Grâce,45.4660839,-73.6492843,Côte-des-Neiges-Notre-Dame-de-Grâce
959,Terrain de soccer du parc Giuseppe-Garibaldi,"7125, rue Liénart, Montréal",Saint-Léonard,45.5863259,-73.5699367,Saint-Léonard
960,Terrain de soccer du parc Greendale,"Rue King, Montréal",Pierrefonds-Roxboro,45.4979788,-73.5543989,Ville-Marie
961,Terrain de soccer du parc Grier,"4590, rue des Cageux, Montréal",Pierrefonds-Roxboro,45.457475075,-73.880411325,Pierrefonds-Roxboro
962,Terrain de soccer du parc Grovehill,"40, 36e Avenue, Montréal",Lachine,45.43459193096931,-73.69664250210022,Lachine
963,Terrain de soccer du parc Hartenstein,"1505, rue Cardinal, Montréal",Saint-Laurent,45.5160559,-73.6900114,Saint-Laurent
964,Terrain de soccer du parc Henri-Bourassa,"6100, rue Pascal, Montréal",Montréal-Nord,45.6155173,-73.6244639,Montréal-Nord
965,Terrain de soccer du parc Henri-Julien,"9300, rue Saint-Denis, Montréal",Ahuntsic-Cartierville,45.5480974,-73.6489555,Ahuntsic-Cartierville
966,Terrain de soccer du parc Ignace-Bourget,"5925, avenue de Montmagny, Montréal",Le Sud-Ouest,45.4579503,-73.6042162,Le Sud-Ouest
967,Terrain de soccer du parc Joe-Beef,"1659, rue Centre, Montréal",Le Sud-Ouest,45.4784153,-73.569283,Le Sud-Ouest
968,Terrain de soccer du parc Jos-Montferrand,"2560, boulevard De Maisonneuve Est, Montréal",Ville-Marie,45.5160877,-73.5603048,Ville-Marie
969,Terrain de soccer du parc Kirkland,"123, rue Léo-Pétrin, Montréal",Lachine,45.4466295,-73.6479952,Lachine
970,Terrain de soccer du parc La Fontaine,"3819, avenue Calixa-Lavallée, Montréal",Le Plateau-Mont-Royal,45.5270684,-73.5693956,Le Plateau-Mont-Royal
971,Terrain de soccer du parc Lacordaire,"12576, boulevard Lacordaire, Montréal",Montréal-Nord,45.61677611176471,-73.63084898235294,Montréal-Nord
972,Terrain de soccer du parc Le Ber,"202, avenue Ash, Montréal",Le Sud-Ouest,45.4780825,-73.5520569,Le Sud-Ouest
973,Terrain de soccer du parc Lefebvre,"8600, rue Hardy, Montréal",LaSalle,45.4373064,-73.6352858,LaSalle
974,Terrain de soccer du parc Louis-Cyr,"167, rue Saint-Ferdinand, Montréal",Le Sud-Ouest,45.4753259,-73.5828076,Le Sud-Ouest
975,Terrain de soccer du parc Luigi-Pirandello,"4550, rue de Compiègne, Montréal",Saint-Léonard,45.5789687,-73.6044855,Saint-Léonard
976,Terrain de soccer du parc Macdonald,"5335, avenue Clanranald, Montréal",Côte-des-Neiges–Notre-Dame-de-Grâce,45.48385145,-73.63618654999999,Côte-des-Neiges-Notre-Dame-de-Grâce
977,Terrain de soccer du parc Mackenzie-King,"4907, avenue Saint-Kevin, Montréal",Côte-des-Neiges–Notre-Dame-de-Grâce,45.48965415,-73.63292629320819,Côte-des-Neiges-Notre-Dame-de-Grâce
978,Terrain de soccer du parc Marcel-Laurin,"2345, boulevard Thimens, Montréal",Saint-Laurent,45.5079871,-73.70119532827582,Saint-Laurent
979,Terrain de soccer du parc Marcelin-Wilson,"11301, boulevard de l'Acadie, Montréal",Ahuntsic-Cartierville,45.5359993,-73.6842383,Ahuntsic-Cartierville
980,Terrain de soccer du parc Maria-Goretti,"488, 85e Avenue, Montréal",Rivière-des-Prairies–Pointe-aux-Trembles,45.691746050000006,-73.48776636492585,Rivière-des-Prairies-Pointe-aux-Trembles
981,Terrain de soccer du parc Marie-Claire-Daveluy,"12180, avenue Jean-Yves-Bigras, Montréal",Rivière-des-Prairies–Pointe-aux-Trembles,45.6490698,-73.5684006,Rivière-des-Prairies-Pointe-aux-Trembles
982,Terrain de soccer du parc Marie-Victorin,"Boul. Maurice-Duplessis et boul. Albert-Hudon, Montréal",Montréal-Nord,,,
983,Terrain de soccer du parc Martin-Luther-King,"3453, avenue de Kent, Montréal",Côte-des-Neiges–Notre-Dame-de-Grâce,45.5030133,-73.63197398742423,Côte-des-Neiges-Notre-Dame-de-Grâce
984,Terrain de soccer du parc Noël-Nord,"2900, rue Baker, Montréal",Saint-Laurent,45.518006,-73.7285795,Saint-Laurent
985,Terrain de soccer du parc Oscar-Peterson,"810, rue Chatham, Montréal",Le Sud-Ouest,45.4894614,-73.575003,Le Sud-Ouest
986,Terrain de soccer du parc Ottawa,"10400, avenue de Belleville, Montréal",Montréal-Nord,45.581939399999996,-73.64229353880937,Montréal-Nord
987,Terrain de soccer du parc Painter,"260, rue Marcotte, Montréal",Saint-Laurent,45.5286235,-73.6774723,Saint-Laurent
988,Terrain de soccer du parc Pasquale-Gattuso,"11770, place Gilles-Trottier, Montréal",Rivière-des-Prairies–Pointe-aux-Trembles,45.6367066,-73.5754161,Rivière-des-Prairies-Pointe-aux-Trembles
989,Terrain de soccer du parc Philippe-Laheurte,"3035, avenue Ernest-Hemingway, Montréal",Saint-Laurent,45.50734442727273,-73.7167622090909,Saint-Laurent
990,Terrain de soccer du parc Pie-XII,"5200, boulevard Lavoisier, Montréal",Saint-Léonard,45.5876144,-73.6100005,Saint-Léonard
991,Terrain de soccer du parc Pierre-Blanchet,"12279, avenue Pierre-Blanchet, Montréal",Rivière-des-Prairies–Pointe-aux-Trembles,45.6299064,-73.6066391,Rivière-des-Prairies-Pointe-aux-Trembles
992,Terrain de soccer du parc Primeau,"10958, avenue Pelletier, Montréal",Montréal-Nord,45.5927611,-73.6339487,Montréal-Nord
993,Terrain de soccer du parc René-Goupil,"8670, 25e Avenue, Montréal",Villeray–Saint-Michel–Parc-Extension,45.577649066666666,-73.61138724999999,Villeray-Saint-Michel-Parc-Extension
994,Terrain de soccer du parc René-Masson,"9175, boulevard Perras, Montréal",Rivière-des-Prairies–Pointe-aux-Trembles,45.6515845,-73.57788754596211,Rivière-des-Prairies-Pointe-aux-Trembles
995,Terrain de soccer du parc Riverdale,"5060, boulevard des Sources, Montréal",Pierrefonds-Roxboro,45.509288600000005,-73.82409330949113,Pierrefonds-Roxboro
996,Terrain de soccer du parc Roman-Zytynsky,"1555, boulevard Jules-Poitras, Montréal",Saint-Laurent,45.5255555,-73.6712621,Saint-Laurent
997,Terrain de soccer du parc Rutherford,"3633, rue McTavish, Montréal",Ville-Marie,45.5053413,-73.58097,Ville-Marie
998,Terrain de soccer du parc Saint-André-Apôtre,"10550, avenue de l'Esplanade, Montréal",Ahuntsic-Cartierville,45.5467897,-73.6705826,Ahuntsic-Cartierville
999,Terrain de soccer du parc Saint-Benoît,"9887, rue Meilleur, Montréal",Ahuntsic-Cartierville,45.54018793283582,-73.66398599104478,Ahuntsic-Cartierville
1000,Terrain de soccer du parc Saint-Gérard,"Boulevard de Pierrefonds, Montréal",Pierrefonds-Roxboro,45.5036366,-73.8287305,Pierrefonds-Roxboro
1001,Terrain de soccer du parc Saint-Jean-Baptiste,"1050, boulevard Saint-Jean-Baptiste, Montréal",Rivière-des-Prairies–Pointe-aux-Trembles,45.6414302,-73.50012858333334,Rivière-des-Prairies-Pointe-aux-Trembles
1002,Terrain de soccer du parc Saint-Laurent,"11614, avenue Salk, Montréal",Montréal-Nord,45.6064452,-73.6290272,Montréal-Nord
1003,Terrain de soccer du parc Saint-Marcel,"1647, 6e Avenue, Montréal",Rivière-des-Prairies–Pointe-aux-Trembles,45.4322439,-73.6692396,Lachine
1004,Terrain de soccer du parc Saint-Michel,"Rue Saint-Dominique, Montréal",Le Plateau-Mont-Royal,45.5373594,-73.6234484,Villeray-Saint-Michel-Parc-Extension
1005,Terrain de soccer du parc Saint-Simon-Apôtre,"200, rue Legendre Ouest, Montréal",Ahuntsic-Cartierville,45.5408011,-73.6494022,Ahuntsic-Cartierville
1006,Terrain de soccer du parc Sainte-Odile,"4248, rue Forbes, Montréal",Ahuntsic-Cartierville,45.5338446,-73.710741,Ahuntsic-Cartierville
1007,Terrain de soccer du parc Samuel-Morse,"12100, avenue François-Larocque, Montréal",Rivière-des-Prairies–Pointe-aux-Trembles,45.6391293,-73.5842651,Rivière-des-Prairies-Pointe-aux-Trembles
1008,Terrain de soccer du parc Sir-Wilfrid-Laurier,"1115, avenue Laurier Est, Montréal",Le Plateau-Mont-Royal,45.5311632,-73.5860164,Le Plateau-Mont-Royal
1009,Terrain de soccer du parc Toussaint-Louverture,"127, boulevard De Maisonneuve Est, Montréal",Ville-Marie,45.5160877,-73.5603048,Ville-Marie
1010,Terrain de soccer du parc Victor-P.-Gray,"18e Avenue, Montréal",Pierrefonds-Roxboro,45.4360745,-73.6800956,Lachine
1011,Terrain de soccer du parc William-Bowie,"4955, avenue Trenholme, Montréal",Côte-des-Neiges–Notre-Dame-de-Grâce,45.4580869,-73.6504371,Côte-des-Neiges-Notre-Dame-de-Grâce
1012,Terrain de soccer et de baseball du parc Saint-Jean-de-Matha,"Rue Dumas, Montréal",Le Sud-Ouest,45.4590986,-73.6006824,Le Sud-Ouest
1013,Terrain de soccer et de football du parc De La Vérendrye,"5900, rue Drake, Montréal",Le Sud-Ouest,45.4589717,-73.5815697,Le Sud-Ouest
1014,Terrain de soccer et de rugby du parc de la Confédération,"6265, avenue Biermans, Montréal",Côte-des-Neiges–Notre-Dame-de-Grâce,45.471707699999996,-73.63738390985344,Côte-des-Neiges-Notre-Dame-de-Grâce
1015,Terrain de soccer St-Jean-Vianney,"12640, boulevard Gouin Est, Montréal",Rivière-des-Prairies–Pointe-aux-Trembles,45.69285655715775,-73.52226468314812,Rivière-des-Prairies-Pointe-aux-Trembles
1016,Terrain de soccer synthétique du parc Goncourt,"7130, avenue Goncourt, Montréal",Anjou,45.60283058641305,-73.5558539798913,Anjou
1017,Terrain de soccer synthétique du parc Lucie-Bruneau,"7051, avenue de l'Alsace, Montréal",Anjou,45.6036608,-73.5825274,Anjou
1018,Terrain de tennis du parc Camille,"9350, boulevard Gouin Ouest, Montréal",Ahuntsic-Cartierville,45.4740743,-73.8744496,L'Île-Bizard-Sainte-Geneviève
1019,Terrain de tennis du parc Clémentine-De La Rousselière,"14080, rue Notre-Dame Est, Montréal",Rivière-des-Prairies–Pointe-aux-Trembles,45.5858544,-73.5078805,Mercier-Hochelaga-Maisonneuve
1020,Terrain de tennis du parc Coubertin,"4755, rue Valéry, Montréal",Saint-Léonard,45.58324,-73.6102527,Saint-Léonard
1021,Terrain de tennis du parc Delorme,"6060, rue de Honfleur, Montréal",Saint-Léonard,45.5935518,-73.5894974,Saint-Léonard
1022,Terrain de tennis du parc Ferland,"6020, boulevard Lavoisier, Montréal",Saint-Léonard,45.5957301,-73.6000641,Saint-Léonard
1023,Terrain de tennis du parc Grier,"4590, rue des Cageux, Montréal",Pierrefonds-Roxboro,45.457475075,-73.880411325,Pierrefonds-Roxboro
1024,Terrain de tennis du parc Hébert,"7505, boulevard Provencher, Montréal",Saint-Léonard,45.57196665592708,-73.59268533669953,Saint-Léonard
1025,Terrain de tennis du parc Henri-Julien,"9300, rue Saint-Denis, Montréal",Ahuntsic-Cartierville,45.5480974,-73.6489555,Ahuntsic-Cartierville
1026,Terrain de tennis du parc Lacharité,"8762, rue Centrale, Montréal",LaSalle,45.4178137,-73.6438677,LaSalle
1027,Terrain de tennis du parc Ladauversière,"7560, boulevard Lacordaire, Montréal",Saint-Léonard,45.5818598,-73.584296,Saint-Léonard
1028,Terrain de tennis du parc Leroux,"Angle de la rue Centrale et de l'avenue Lacharité, Montréal",LaSalle,,,
1029,Terrain de tennis du parc Luigi-Pirandello,"4550, rue de Compiègne, Montréal",Saint-Léonard,45.5789687,-73.6044855,Saint-Léonard
1030,Terrain de tennis du parc Marcelin-Wilson," 11301, boulevard de l'Acadie, Montréal",Ahuntsic-Cartierville,45.5359993,-73.6842383,Ahuntsic-Cartierville
1031,Terrain de tennis du parc Mohawk,"rue Dalmany, Montréal",LaSalle,45.4296415,-73.659488,LaSalle
1032,Terrain de tennis du parc Philippe-Laheurte,"3035, avenue Ernest-Hemingway, Montréal",Saint-Laurent,45.50734442727273,-73.7167622090909,Saint-Laurent
1033,Terrain de tennis du parc Pie-XII,"5200, boulevard Lavoisier, Montréal",Saint-Léonard,45.5876144,-73.6100005,Saint-Léonard
1034,Terrain de tennis du parc Wilfrid-Bastien,"8255, boulevard Lacordaire, Montréal",Saint-Léonard,45.58532477582951,-73.59446599934279,Saint-Léonard
1035,Terrain de volleyball de plage du parc Jean-Duceppe,"Rue André-Laurendeau, Montréal",Rosemont–La Petite-Patrie,45.5440527,-73.5661178,Rosemont-La Petite-Patrie
1036,Terrain de volleyball de plage du parc Joseph-Paré,"43e Avenue, Montréal",Rosemont–La Petite-Patrie,45.4183222,-73.6191356,LaSalle
1037,"Terrains de balle, baseball du parc Jarry","205, rue Gary-Carter, Montréal",Villeray–Saint-Michel–Parc-Extension,45.5347697,-73.62337938333333,Villeray-Saint-Michel-Parc-Extension
1038,"Terrains de balle, baseball du parc Loyola","4877, avenue Doherty, Montréal",Côte-des-Neiges–Notre-Dame-de-Grâce,45.4610545,-73.6479012,Côte-des-Neiges-Notre-Dame-de-Grâce
1039,Terrains de baseball du parc Giuseppe-Garibaldi,"7125, rue Liénart, Montréal",Saint-Léonard,45.5863259,-73.5699367,Saint-Léonard
1040,Terrains de baseball du parc La Fontaine,"3819, avenue Calixa-Lavallée, Montréal",Le Plateau-Mont-Royal,45.5270684,-73.5693956,Le Plateau-Mont-Royal
1041,Terrains de baseball et de football du parc Le Ber,"202, avenue Ash, Montréal",Le Sud-Ouest,45.4780825,-73.5520569,Le Sud-Ouest
1042,Terrains de soccer du parc Baldwin,"4355, rue Fullum, Montréal",Le Plateau-Mont-Royal,45.5365886,-73.5680103,Le Plateau-Mont-Royal
1043,Terrains de soccer du parc Champdoré,"2400, rue Champdoré, Montréal",Villeray–Saint-Michel–Parc-Extension,45.5757428,-73.6314602,Villeray-Saint-Michel-Parc-Extension
1044,Terrains de soccer du parc Clifford,"1820, avenue Clifford, Montréal",Le Sud-Ouest,45.4507064,-73.5896502,Le Sud-Ouest
1045,Terrains de soccer du parc D'Arcy-McGee,"1500, avenue Egan, Montréal",Le Sud-Ouest,45.4525933,-73.5848812,Le Sud-Ouest
1046,Terrains de soccer du parc Ferland,"6020, boulevard Lavoisier, Montréal",Saint-Léonard,45.5957301,-73.6000641,Saint-Léonard
1047,Terrains de soccer du parc Hébert,"7505, boulevard Provencher, Montréal",Saint-Léonard,45.57196665592708,-73.59268533669953,Saint-Léonard
1048,Terrains de soccer du parc Jarry,"205, rue Gary-Carter, Montréal",Villeray–Saint-Michel–Parc-Extension,45.5347697,-73.62337938333333,Villeray-Saint-Michel-Parc-Extension
1049,Terrains de soccer du parc Loyola,"4877, avenue Doherty, Montréal",Côte-des-Neiges–Notre-Dame-de-Grâce,45.4610545,-73.6479012,Côte-des-Neiges-Notre-Dame-de-Grâce
1050,Terrains de soccer du parc Trenholme,"6800, rue Sherbrooke Ouest, Montréal",Côte-des-Neiges–Notre-Dame-de-Grâce,45.4615438,-73.6328837,Côte-des-Neiges-Notre-Dame-de-Grâce
1051,Terrains de soccer du parc Villeray,"8000, rue De Normanville, Montréal",Villeray–Saint-Michel–Parc-Extension,45.548225450000004,-73.62152822049896,Villeray-Saint-Michel-Parc-Extension
1052,Terrains de soccer synthétiques du parc Roger-Rousseau,"7501, avenue Rondeau, Montréal",Anjou,45.6159526,-73.550939,Anjou
1053,Terrains de tennis du parc Beaubien,"6633, 6e Avenue, Montréal",Rosemont–La Petite-Patrie,45.5534327,-73.5922784,Rosemont-La Petite-Patrie
1054,Terrains de tennis du parc De La Vérendrye,"5900, rue Drake, Montréal",Le Sud-Ouest,45.4589717,-73.5815697,Le Sud-Ouest
1055,Terrains de tennis du parc Martin-Luther-King,"3220, avenue Appleton, Montréal",Côte-des-Neiges–Notre-Dame-de-Grâce,45.5052121,-73.6316259,Côte-des-Neiges-Notre-Dame-de-Grâce
1056,Terrains de tennis du parc Nicolas-Viel,"11000, boulevard Saint-Laurent, Montréal",Ahuntsic-Cartierville,45.5518535,-73.6762518,Ahuntsic-Cartierville
1057,Terrains de tennis du parc Warren-Allmand (Somerled),"4900, avenue de Hampton, Montréal",Côte-des-Neiges–Notre-Dame-de-Grâce,,,
1058,Terrains de volleyball de plage du parc du Père-Marquette,"1602, rue de Bellechasse, Montréal",Rosemont–La Petite-Patrie,45.5409785,-73.5936771,Rosemont-La Petite-Patrie
1059,Terrains de volleyball de plage du parc Jarry,"205, rue Gary-Carter, Montréal",Villeray–Saint-Michel–Parc-Extension,45.5347697,-73.62337938333333,Villeray-Saint-Michel-Parc-Extension
1060,Terrains de volleyball de plage du parc Jeanne-Mance,"4422, avenue de l'Esplanade, Montréal",Le Plateau-Mont-Royal,45.5177321,-73.58681530000001,Le Plateau-Mont-Royal
1061,Terrains de volleyball de plage du parc La Fontaine,"3500, avenue Émile-Duployé, Montréal",Le Plateau-Mont-Royal,45.529779,-73.5701096,Le Plateau-Mont-Royal
1062,Terrasses Roy,"Rue Roy Est, Montréal",Le Plateau-Mont-Royal,45.515882,-73.5755018,Le Plateau-Mont-Royal
1063,Vague à Guy,"Parc des Rapides, entre les rues Raymond et Gagné, Montréal",LaSalle,,,
1064,YMCA Cartierville,"11885, Boulevard Laurentien, Montréal",Ahuntsic-Cartierville,45.5253788,-73.7107433,Ahuntsic-Cartierville
