Nom,Rue,postalCode,Latitude,Longitude,reviewsCount,totalScore
Tazza di Mattina,5 Rue du Centre Commercial local 5,H8Y 2N9,45.5100279,-73.8065166,57,4.8
Loulou Ceramique,15757 Boul. de Pierrefonds,H9H 3X6,45.4792319,-73.8676875,21,4.8
Café de Source,4499 Bd des Sources,H8Y 3C1,45.4981886,-73.8112028,123,4.7
Café Dépôt Place Vertu,3131 Boul de la Côte-Vertu Place Vertu,H4R 1Y8,45.497253,-73.704253,22,4
Café Dépôt Ville St-Laurent,"2505 Rue des Nations Bombardier, Ville",H4R 3C8,45.513123,-73.711557,376,4.2
Mr Milky,4871 Bd Saint-Charles,H9H 3E4,45.4665174,-73.8734739,44,4.8
Bar à café H8S,2130 Bd Saint-Joseph,H8S 2N7,45.4336674,-73.6837514,365,4.4
Escouade Miss Café,247 32 ieme avenue,H8T 1X8,45.4352441,-73.6923716,8,5
Café 92 Degrés,6703 Rue Sherbrooke O,H4B 1P3,45.4622199,-73.6322316,518,4.6
Café des Amis - Chalet du Mont-Royal,1196 Voie Camillien-Houde,H3H 1A1,45.5037965,-73.5874452,4489,4.5
Crew Collective & Cafe,360 Rue Saint-Jacques,H2Y 1P5,45.5023198,-73.5593173,3254,4.5
Dispatch Coffee,4021 Boul. Saint-Laurent,H2W 1Y4,45.5170266,-73.5790839,582,4.4
Café Van Houtte,"Édifice FTQ, 545 Boul Crémazie E",H2M 2V1,45.546348,-73.638561,90,3.3
Café Olimpico,419 R. Saint-Vincent,H2Y 3A6,45.5071525,-73.5532485,1511,4.6
Columbus Café & Co,5101 Av du Parc,H2V 4G3,45.519836,-73.5958618,116,4.2
Café Rosso Nero,2581 Rue Fleury E,H2B 1L7,45.5766135,-73.6468308,21,4.7
Café La Place Commune,7669 Av. Querbes,H3N 2B7,45.530246,-73.6288463,184,4.6
Café Bar Cozmos,880 Rue Jean-Talon O,H3N 1S6,45.5256086,-73.6248512,53,3.9
Café Olimpico,124 Rue Saint- Viateur O,H2T 2L1,45.5241048,-73.6002501,2906,4.6
Caravane Café,3506 Av. Lacombe,H3T 1M1,45.4973435,-73.6226701,984,4.3
Café Qu'on Sert,9155 Rue St-Hubert,H2M 1Z1,45.5517023,-73.6424529,9,4.2
Café de course,2103 Boul. Gouin E,H2B 1X1,45.5747488,-73.658969,207,4.4
OUI MAIS NON,72 Rue Jarry E,H2P 1T1,45.5397,-73.6306833,1149,4.6
Café Larue & fils,244 Rue de Castelnau E,H2R 1P5,45.5376957,-73.6179068,490,4.5
Café Larue & Fils,405 Rue Jarry E,H2P 1V2,45.5428582,-73.6292646,345,4.5
Le Café Crème,1505 Rue Fleury E,H2C 1S5,45.5627253,-73.656683,142,4.5
Jakes Café,821 Av. Sainte-Croix,H4L 3X9,45.5147493,-73.6745155,0,
Cafe TCAN,7405 Rte Transcanadienne,H4T 1Z2,45.4899982,-73.7090897,134,4.9
Café Aroma Paninotica,1520 Rue Fleury E,H2C 1S5,45.5627887,-73.6561204,146,4.9
Café Van Houtte,996 Bd Décarie,H4L 3M5,45.513947,-73.682684,248,3.9
Express o café,1015 Rue Provost,H8S 1N3,45.4418142,-73.6730718,10,4.5
Second Cup Café,1555 Blvd. Marcel-Laurin,H4R 0B7,45.5159542,-73.6965088,512,4
Transit Café,8300 Route Transcanadienne,H4S 1T9,45.488962,-73.725021,5,4.8
Second Cup Café,14845 Boul. de Pierrefonds,H9H 4M5,45.4840324,-73.860256,253,4
Café L'Isola,106 Bd Jacques Bizard,H9C 2T9,45.4891968,-73.8713994,76,4.8
Boutique Java Kap,4583 Bd Saint-Charles,H9H 3C7,45.4633926,-73.8702894,84,4.7
Express Indien Restaurant,6579 Av. Somerled,H4V 1T1,45.46708,-73.6390865,283,4.3
Vivaldi,13071 Boul Gouin O,H8Z 1X1,45.5037181,-73.8414138,698,4.5
Le Spot,9564 Boul Gouin O,H8Y 1R3,45.5034358,-73.7805216,9,4.9
Ten Restaurant,11655 Boul Gouin O,H8Y 1Y4,45.5088799,-73.8213719,271,4.4
Heritage Coffee,2795 Rue Halpern,H4S 1P8,45.4926842,-73.751098,25,2.4
McDonald's,11680 Boul. de Pierrefonds,H8Y 3C9,45.506072,-73.8206771,1247,3.5
Cremerie Cafe Tropicale,6370 Boul Gouin O,H4K 1A8,45.5292698,-73.723683,0,
Ahmed Cafe,12224 Blvd. Laurentien,H4K 1M9,45.527636,-73.7208628,57,4.4
Le Café Chez Paty,740 Boulevard Cote Vertu Ouest #158,H4L 5C8,45.5197453,-73.6747498,5,5
Café Bistro Unika,9900 Boul Cavendish,H4M 2V2,45.4959137,-73.7004052,12,4.8
Cafe La Presse,2864 Rue de Salaberry,H3M 1L3,45.5368079,-73.6978158,119,4.4
New Mondo Café,9258 Bd de l'Acadie,H4N 3C5,45.5326512,-73.6561589,396,4.6
Café 3 Etoiles,6700 Chem. de la Côte des Neiges,H3S 2A8,45.5026814,-73.6376751,2,5
Torréfaction De Cafe Gourmet,2000 Rue Lapierre,H8N 1A9,45.4364321,-73.6134235,1,5
Hibou Café,1 Rue Chabanel O,H2N 1N3,45.5442846,-73.6517872,9,4.6
Dessertcafemomo,5525 Av de Monkland,H4A 1C8,45.476666,-73.622197,382,4.8
Café District,83 R. St Viateur Est,H2T 1A7,45.5270776,-73.5980108,81,4.2
Café San Gennaro,69 Rue Saint-Zotique E,H2S 1K7,45.5328169,-73.6112888,951,4.7
Café Bar St-Laurent Frappé,3900 Boul. Saint-Laurent,H2W 1Y2,45.516249,-73.57817,269,4
Café Van Houtte,500 Rue Sherbrooke O,H3A 3C6,45.506137,-73.572016,18,3.2
Toi moi et café,244 Av. Laurier O,H2T 2N8,45.5203671,-73.5949504,823,4.3
Café Humble Lion (McGill Collège),1204 Av. McGill College,H3B 4J8,45.501556,-73.5707796,214,4.3
Café Saint Henri,3632 Notre-Dame St W,H4C 1P5,45.4793923,-73.5811184,638,4.3
PIGEON CAFÉ,5625 Av de Monkland,H4A 1E2,45.4754257,-73.6232481,648,3.7
Pâtisserie Dolci Più,849 Bd Décarie,H4L 3L7,45.5123179,-73.6793362,876,4.3
Shaughnessy Café,1455 Rue Lambert Closse,H3H 1Z5,45.4908843,-73.5846426,420,4.6
Café Tu Sol,1480 Rue Jean-Talon E,H2E 3B5,45.5464355,-73.6082356,13,4.3
Café Conca d'Oro,184 Rue Dante,H2S 1K1,45.5341769,-73.6124112,175,4.8
Ferlucci Coffee Shop,432 Rue de Castelnau E,H2R 1R3,45.5395082,-73.6169749,667,4.8
Café Saint-Henri (Marché Jean-Talon),260 Pl. du Marché-du-Nord,H2S 1A1,45.5358855,-73.614,281,4.2
Café Saint-Henri (Mile-Ex - Quartier Général),7335 Rue du Mile End,H2R 2Z7,45.5323192,-73.6232895,323,4.7
Café Inn,1111 Rue Lapierre,H8N 2J4,45.4364598,-73.6053918,4,5
Café DAX,1461 Av. Van Horne,H2V 1L3,45.5195259,-73.6159767,339,4.7
Solaris Resto-Bar,5487 Bd Décarie,H3W 3C6,45.4869865,-73.6354687,274,4.3
Café Central,2376 Rue Allard,H4E 2K9,45.4511382,-73.5928539,512,4.7
Café Ali Baba,5147A Chem. de la Côte des Neiges,H3T 1X9,45.4953879,-73.6195618,115,3.5
Café Info-Math,2920 Ch de la Tour,H3T 1N8,45.5011841,-73.6153766,21,4.7
Second Cup Café,"3755 Chemin de la Côte Ste. Catherine Pavillion B, 3755 Chem. de la Côte-Sainte-Catherine",H3T 1E2,45.4979652,-73.6295767,28,3.3
Resto Café Site Med Inc,6700 Chem. de la Côte des Neiges,H3S 2A8,45.5023574,-73.638034,16,4.1
Café étudiant L'Intermed,,H3T 1J4,45.5024663,-73.6162247,14,4.9
Jr's Café,5335 Chem. Queen Mary,H3X 1T9,45.4831478,-73.6298986,24,4.4
Le Saint-Laurent Café & Barbershop,9711 Boul. Saint-Laurent,H3L 2N4,45.5463983,-73.6573785,53,4.8
Orange Café,4011 Bd Décarie,H4A 3J8,45.4775521,-73.6155709,907,4.3
Boulevard Cafe Bistro Lounge,10215 Boul. Saint-Laurent,H3L 2N5,45.5482347,-73.6633297,38,3.9
Café-Bar 50/50,8387 Boul. Saint-Laurent,H2P 2M7,45.540354,-73.635566,43,4.7
Café Monté Bianco,8499 Bd de l'Acadie,H3N 1B8,45.5295491,-73.6437261,7,4.3
Café Mystique,166 Rue Benjamin Hudon,H4N 1H8,45.5268645,-73.6566573,33,3.8
Chatime VSL,1931 Bd Keller,H4K 2V6,45.5242858,-73.7134681,114,4.3
Fashion Cafe,410 Rue Chabanel O,H2N 1G7,45.5384986,-73.65434,1,3
Transit Café,9815 Rue Lajeunesse,H3L 2C9,45.551977,-73.656002,6,3.3
Terra Café et Thé Ltée,290 Rue de Port-Royal O,H3L 2B4,45.5417153,-73.6596874,183,4.8
Columbus Café & Co,5526 Av de Monkland,H4A 1C7,45.4763177,-73.6218182,42,4.6
Cerise Café-Buvette,234 Rue Fleury O,H3L 1T7,45.5450897,-73.6667461,38,4.6
Café Toranj,5791 Rue Sherbrooke O,H4A 1X2,45.4700821,-73.6172264,664,4.4
Second Cup Café avec Pinkberry yogourt glacé,5206 Chem. de la Côte des Neiges,H3T 1X8,45.4955785,-73.6210872,611,4
Second Cup Café,5550 Av de Monkland,H4A 1C9,45.4760695,-73.6220562,394,3.7
Grand Place Café,5511 Av de Monkland,H4A 1C8,45.4767272,-73.6220633,43,4.9
Cafe,5339 Bd Décarie,H3W 3C4,45.4857335,-73.6330039,0,
Café Dépôt Gelato Carrefour Angrignon,"Carrefour Angrignon, 7077 Newman Blvd Local 57",H8N 1X1,45.447696,-73.615538,95,3.8
Café étudiant Acquis de Droit,3101 Ch de la Tour,H3T 1J7,45.4986435,-73.6172221,19,4.3
Café Bistro Il Piceno,1371 Av Dollard,H8N 1T3,45.4266553,-73.6257847,48,4.4
Second Cup Café avec Pinkberry yogourt glacé,4795 Av. Van Horne,H3W 1H8,45.4946414,-73.6378233,397,4.1
Café Newman,7550 Bd Newman,,45.4396521,-73.6207771,8,4
Café Expressions ( Café AnaVic),"Lobby, 5885 Chem. de la Côte des Neiges",,45.5002934,-73.6301639,275,4.2
Kokkino Cafe,5673 Rue Sherbrooke O,H4A 1W6,45.4709628,-73.6154409,178,4.7
Café Le Romarin,160 Rue Fleury O,H3L 1T5,45.5460824,-73.6660988,59,4.4
Cafe Express,1600 Bd Henri Bourassa O,H3M 3E2,45.5365394,-73.6786479,5,5
Nonnina,1865 Rue Notre Dame,H8S 2E9,45.4350414,-73.6803575,427,4.8
Second Cup Café avec Pinkberry yogourt glacé,7335-7345 Rue Sherbrooke O,H4B 1R9,45.456109,-73.6409385,465,4.1
MELK Bar à Café,5612 Av de Monkland,H4A 1E3,45.4752778,-73.6227778,627,4.6
Café Choco-Latté,1870 Av Dollard,H8N 1T8,45.4295851,-73.633465,408,4.7
Café Santé,,,45.5008289,-73.6608586,0,
Transit Café,5455 Bd Décarie,H3W 3C6,45.486579,-73.63456,2,3.5
Java-U Cafe,5345 Rue Ferrier,H4P 1M1,45.4966718,-73.6591088,85,4
Chez Céramique Bistro,1916 Bd Thimens,H4R 2K2,45.5123067,-73.6932842,29,4.8
CAFFE IRAZU,8106 Rte Transcanadienne,H4S 1M5,45.488686,-73.7205904,2,5
Café Van Houtte,4983 Rue Levy,H4R 2N9,45.495295,-73.737187,7,4.1
Cafe Bistro Ryan's,"6363, Rte Transcanadienne",H4T 1Z9,45.4955435,-73.6864637,3,2.7
Café Ilios,9641 Bd LaSalle,H8R 2N6,45.4251108,-73.658263,171,5
Hingston Cafe,7141 Rue Sherbrooke O,H4B 1R6,45.4584934,-73.6406396,1,5
Café Triangle,5000 Rue Buchan Lobby 1,H4P 1T2,45.4978122,-73.6507698,168,4.7
Café Orchidée,4985 Av. Walkley,H4V 2M3,45.4671002,-73.6418223,0,
Élémentaire Café,6565 Av. Somerled,H4V 1T1,45.4672065,-73.6391337,102,4.4
Le Brûloir,318 Rue Fleury O,H3L 1V3,45.54363,-73.6675385,554,4.6
Cafe Restaurant,979 Blvd. Marcel-Laurin,H4M 2N3,45.5099561,-73.6870893,0,
Café Le VSL,753 Bd Décarie,H4L 3L3,45.5112908,-73.6776128,105,4.5
Cafe beyrouth,1470 Boulevard Cote Vertu Ouest,H4L 1Z7,45.5143575,-73.6822075,28,4.3
Transit Café,975 Blvd. Marcel-Laurin,H4M 2N3,45.5099223,-73.6870351,1,5
Café Les Bourrelets,908 Bd Décarie,H4L 3M4,45.5128791,-73.6809665,107,4.9
Studio 85,7445 Chem. de la Côte de Liesse,,45.4801223,-73.7007389,8,4.6
Chinchina Coffee Inc,9434 Ch de la Côte de Liesse,H8T 1A1,45.4717978,-73.7098343,0,
Lia's Cafe,1625 32e Avenue,H8T 3J1,45.4596005,-73.704915,0,
Expresso Bar,12245 Blvd. Laurentien,H4K 1N4,45.5289573,-73.7215661,268,4.5
Starbucks,3131 Boulevard Cote Vertu Ouest,H4R 1Y8,45.4975258,-73.7058882,377,3.8
Café De L'aréna,2345 Bd Thimens,H4R 1T4,45.5077312,-73.7008092,1,5
S&M Coffee Services,3512 Rue Ashby,H4R 2C1,45.4993161,-73.715322,4,4.8
Louza,4625 Boulevard Cote Vertu Ouest #104,H4S 1C8,45.4870595,-73.7179114,12,5
Café Chez Charlotte,4601 Rue de Verdun,H4G 1M6,45.4585494,-73.5719091,57,4
TAS Café Bistro Lounge,6300 Av du Parc,H2V 4H8,45.5265692,-73.6125959,37,4.8
Café-In,1375 Avenue Thérèse-Lavoie-Roux Campus MIL - Local B-0110.1,H2V 0B3,45.5228569,-73.619948,23,4.4
Second Cup Café avec Pinkberry yogourt glacé,1275 Av. Bernard,H2V 1V8,45.5196004,-73.6094307,177,4.2
Casa Pablo Boutique Café,50 Rue Jean-Talon O,H2R 2W7,45.5339318,-73.6188083,38,4.9
Café de la Gare,700 Boulevard René-Lévesque O,H3B 1X8,45.5014131,-73.5675083,8,4.4
"RUBY CAFÉ MTL, Pet Friendly Restaurant, Brunch Restaurant Montreal",3824 Rue Saint-Patrick,H4E 1A4,45.4689029,-73.5824396,146,4.4
Oliveraies Ktima Barakaris,6000 Rue Sherbrooke O,H4A 1X9,45.4683842,-73.6196325,287,4.7
La Finca café & marché local,1067 Rue de Bleury,H2Z 1N1,45.5046201,-73.5629504,1237,4.7
Micro Espresso Café,417 Rue Saint-Pierre Suite 102,H2Y 2M4,45.5015378,-73.5567052,217,4.9
Café Différance,449 Av. Viger O,H2Z 1G6,45.5026997,-73.5628155,325,4.7
Café C C,1440 Rue Stanley,H3A 1P7,45.4994483,-73.5748669,2,3
Café Nocturne,19 Rue Prince Arthur O,H2X 1S4,45.513585,-73.5729521,490,4.6
Café Van Houtte,1515 Sainte-Catherine O,H3G 2W1,45.495368,-73.577996,212,4
Club Social PS,"Parc Yamaska entrance, 5090A Notre-Dame St W",H4C 1T1,45.4698226,-73.5917437,65,4.7
Le Café Bloom,1940 Rue Centre,H3K 1J2,45.4822453,-73.5629676,699,4.5
Café Vienne,400 Av. Atlantic,H2V 4H9,45.5273481,-73.6165143,4,1
Café Lounge 5,67 Rue Jarry E,H2P 1T1,45.5399911,-73.6308921,36,3.7
Café DOMO,6712 Rue Clark,H2S 3E9,45.5314008,-73.6133224,51,4.3
Café Jardin,4437 Rue Wellington,H4G 1W6,45.459663,-73.567424,281,4.8
Restaurant le Café Fréjus,5810 Rue de Verdun,H4H 1L9,45.4492295,-73.5724152,534,4.7
La FOUMAGERIE - Sandwiches / Salads - Espresso / Coffee / Tea - Cafe en Vrac - Catering / Traiteur,4906 Rue Sherbrooke O,H3Z 1H3,45.4781115,-73.6041975,104,4.3
La Base Café Buvette,5898 Rue de Verdun,H4H 1M4,45.4483612,-73.5725059,82,4.8
Café Bénédictins,5511 Rue de Verdun,H4H 1K9,45.4523163,-73.572525,399,4.3
Café de la Maison Ronde,2330 Sainte-Catherine O,H3H 1N2,45.4892374,-73.5839007,69,4.6
Cordova,4606 Notre-Dame St W,H4C 1S4,45.473486,-73.587958,349,4.5
Café Komma Rosta,5300 Rue Wellington,H4H 1N2,45.4535531,-73.5677129,211,4.9
Starbucks,4943 Rue Sherbrooke O,H3Z 1H2,45.477537,-73.605416,547,4.1
Restaurant Crème Café,1 8e Avenue,H8P 1Y5,45.4285199,-73.5945893,234,4.1
Campanelli,4634 Notre-Dame St W,H4C 1S4,45.4732361,-73.5880883,191,4.5
Café Moccaccino,4945 Notre-Dame St W,H4C 1S9,45.470722,-73.5909049,38,4.4
TT Café,5544 Rue Saint-Patrick,H4E 0A1,45.4630605,-73.59659,200,4.8
Café la Planck,"Avenue Thérèse-Lavoie-Roux, Montréal, QC H2V",,45.5232027,-73.6200277,37,4.9
Presse Café,7077 Av du Parc,H3N 1X7,45.5299706,-73.6200993,70,4.1
Cafe Le St-Roch,690 Rue Saint-Roch,H3N 1L1,45.528581,-73.6297699,95,4.8
Café Liégeois Canada,"Stationnement Mckiernan - Entrée GYM CANAL, 5524 Rue Saint-Patrick",H4E 1A8,45.4636727,-73.5950313,113,4.4
Presse Café,1001 Bd Décarie,H4A 3J1,45.4727305,-73.6017573,23,3
Comptoir Veritas Cafe,1001 Bd Décarie,H4A 3J1,45.4733308,-73.6008526,20,4.2
Cafe BOB,9320 Rue Charles-de-LaTour,H4N 1M2,45.5309409,-73.6593798,53,4.5
Second Cup Cafe,5073 Chem. Queen Mary,H3W 1X4,45.4857081,-73.6277099,136,4.2
Maté Latte,5837 Rue Sherbrooke O,H4A 1X4,45.4696158,-73.6180275,217,4.7
IKEA Montreal - Restaurant,9191 Boul Cavendish,H4T 1M8,45.491986,-73.6913528,193,4.2
Le cafe bomnal,6543a Av. Somerled,H4V 1S7,45.4675638,-73.6386962,159,4.8
Cafe Eviza,7685 Rue Centrale,H8P 1L7,45.4302429,-73.5983102,57,4.9
Cafe Pab,1875 Av Dollard,H8N 1T9,45.430124,-73.6329207,0,
La Brise du large,1800 Chem. des Iroquois,H8S 4J5,45.4295989,-73.6761218,0,
Uno Gelato,1798 Bd Saint-Joseph,H8S 2N2,45.4329847,-73.6805415,123,4.6
Cafe,1008 Bd Saint-Joseph,H8S 2M6,45.4319036,-73.6728737,1,5
Sélection 1 Inc,3100 Boulevard Cote Vertu Ouest,H4R 2J8,45.4979356,-73.7023542,3,4
Café de' Mercanti,6128 Av de Monkland,H4A 1H4,45.4699572,-73.6277992,473,4.6
Comptoir St-Jo,1000 Bd Saint-Joseph,H8S 2M6,45.431905,-73.6728731,49,4.7
PASTA ANDREA,1718 Bd Saint-Joseph,H8S 2N2,45.432881,-73.679989,823,4.1
Starbucks,8460 Bd Newman,H8N 1Y5,45.4318433,-73.6300142,1157,4.2
McDonald's,"Chemin De La, 3330 Boulevard Cote Vertu Ouest",H4R 1R3,45.4957361,-73.7042753,2657,3.6
Brazilian Canadian Coffee,252 Bd Lebeau,H4N 1R4,45.5250608,-73.656972,2,5
CasaCrypto,413 Rue Chabanel O,H2N 0E1,45.5391083,-73.6547099,2,5
Thé Station,3131 Boulevard Cote Vertu Ouest,H4R 1Y8,45.4976463,-73.7056876,2,4.5
Presse Café,7250 Rue du Mile End,H2R 3A4,45.5318282,-73.623123,27,3.6
Bistro Black Rose,1350 Rue Mazurette Suite 103,H4N 1H2,45.5324002,-73.6592548,20,5
Patisserie Cremino,9394 Bd de l'Acadie #103,H4N 3H1,45.5334351,-73.6586079,489,3.6
Saison des pluies,301 Rue Guizot E,H2P 1M5,45.5423969,-73.6331674,196,4.8
Baristello,709B Rue Jarry E,H2P 1W2,45.545604,-73.627263,268,4.9
Milton B - Cafétéria urbaine,3498 Av du Parc,H2X 2H5,45.5091853,-73.5737272,1048,4.1
Cafe El Mundo,"Tour Jean Talon, Basement, 600 Rue Jean-Talon E",H2R 3A8,45.5406403,-73.6133677,6,4.2
Café Bistro Toquoi,1525 Av. Van Horne,H2V 1L4,45.5187634,-73.616648,30,4.1
Pastel Rita,5761 Boul. Saint-Laurent,H2T 1S9,45.5271518,-73.6015446,350,4.6
Le Dépanneur Café,206 Rue Bernard O,H2T 2K4,45.52475,-73.6043944,494,4.5
Cafe Louvain,,,45.5707315,-73.6323439,4,3.3
Le Bleu - Café-boutique,6900 Rue St-Hubert,H2S 2M6,45.5388824,-73.6094656,2,5
Moustache Café,35 Rue Beaubien E,H2S 1P7,45.5307469,-73.6081954,415,4.5
Café 8oz. Chez l'Éditeur - Villeray,7240 Rue St-Hubert,H2R 2N1,45.541251,-73.6147369,306,4.5
Café Lino espresso,7050 Boul. Saint-Laurent,H2S 3E2,45.533571,-73.616294,73,4.7
Cafe Guerrero,6750 Av. de l'Esplanade,H2V 4M1,45.52964,-73.6162847,70,4.8
Le Café Du Marché,236 Pl. du Marché-du-Nord,H2S 1A1,45.535683,-73.614185,119,4.1
Café Dispatch,267 Rue Saint-Zotique O,H2V 1A4,45.5288896,-73.6161231,309,4.7
Noble Café,7060 Rue Alexandra,H2S 3J4,45.5314631,-73.6184255,52,4.9
Café Holocène,1375 Ave.Thérèse-Lavoie-Roux,H2V 0B3,45.5230649,-73.6200414,6,5
Café Perko,753 Rue Villeray,H2R 1J2,45.5438564,-73.6214728,488,4.4
"Rose - Crèmes, Café & Amour",26 Rue Gounod,H2R 1X1,45.5383108,-73.627951,167,4.5
Café Velours,373 Rue Villeray,H2R 1H1,45.5404105,-73.623428,158,4.7
McDonald's,1021 F Rue du Marché Central,H4N 1J8,45.5345995,-73.6599184,2255,3.3
Boîte à Café,1738 Rue Fleury E,H2C 1T2,45.5664689,-73.6541636,51,4.1
Café Vito,151 Rue Villeray,H2R 1G4,45.5384181,-73.6245508,783,4.7
Cafe Loche,1352 Rue Sauvé E,H2C 2A2,45.5586801,-73.6514163,47,4.5
Café Suprême,255 Boul Crémazie E,,45.5440543,-73.6404856,12,3.8
Resto Unik,805 Bd Décarie,H4L 3L7,45.5119438,-73.6787204,62,3.8
UNCLE PETE'S cafe,7018 Boul. Saint-Laurent,H2S 3E2,45.5333091,-73.6158476,39,4.2
Maison O Thé Saint-Laurent,625 Bd Décarie,H4L 3L2,45.5098152,-73.6753677,481,4.6
Treats Coffee & Fresh Tea.,8250 Decarie Blvd #130B,H4P 2P5,45.4991202,-73.6619925,16,5
Café Da Ciro,2905 Rue Fleury E,H2B 1M3,45.57913,-73.6446733,31,3.9
Café Sandrino,718 Rue Legendre E,H2M 1G9,45.550551,-73.6437115,103,5
Acropolis,7295 Av. Bloomfield,H3N 2H1,45.5279571,-73.6257634,23,4.4
La Prep,433 Rue Chabanel O Suite 102,H2N 2J4,45.53897,-73.654705,40,4.1
Chabanelle,315 Rue Chabanel O,H2N 2G1,45.5399533,-73.6539725,40,4.3
Café Dounia,2225 Rue Jean-Talon E,H2E 1V5,45.5510441,-73.6045237,58,4.1
Massaya Café Lounge,7494 Rue St-Hubert,H2R 2N4,45.5427425,-73.6178743,6,4.8
Pâtisserie Mr. Puffs Pastry,9191 Bd de l'Acadie,H4N 3K1,45.5333333,-73.6552778,677,4.4
JURA - Montréal,10118 Boul. Saint-Laurent,H3L 2N7,45.5475399,-73.6621284,91,4.7
Café Paninoteca,5250 Ferrier St #100,H4P 1L4,45.4981108,-73.6566662,16,4.4
Café Vesuvio,7238 Rue Hutchison,H3N 2X9,45.5298157,-73.6236319,20,4.2
Bar Café Loutraki,950 Rue Jarry O,H3N 1H2,45.5285347,-73.6371954,11,4.3
Berendo Gourmet Café Inc.,9880 Rue Clark,H3L 2R3,45.5458032,-73.6602609,6,3.7
Servicafe,625 Bd Décarie,H4L 3L2,45.5098276,-73.6753846,0,
Cafétéria Collège de Bois-de-Boulogne,,H4N 1L3,45.5363858,-73.6740697,0,
Cafe 18-30 D'Ahuntsic,1362 Rue Sauvé E,H2C 2A2,45.5588356,-73.6513256,0,
Café Dépôt,"Uqam, 225 Av. du Président-Kennedy",H2X 3Y8,45.509007,-73.568517,25,3.9
Barley - Bar à Céréales,2613 Notre-Dame St W,H3J 1N9,45.4825,-73.5761111,853,4
Universel Déjeuners et Grillades,2055 Rue Peel,H3A 1T5,45.5014889,-73.575625,2559,4.2
La Boulangerie Moderne - Café Dejeuner - Pizza Sandwiches Salads - Boite a Lunch Traiteur,1447 Rue Stanley,H3A 1N4,45.499944,-73.574501,30,4.3
Bar Gerts,3480 Rue McTavish,H3A 1X9,45.5036082,-73.5781314,75,4.4
Café Des Touristes,1001 Rue du Square Dorchester,H3B 1N1,45.5001458,-73.5720264,0,
Mangia,"Le 2000 Peel, 1101 Boul. de Maisonneuve Ouest",H3A 3K1,45.5008879,-73.5750829,59,4.1
Green Traiteur et Café,"Les Cours Mont-Royal, 1455 Peel St #227",H3A 1T5,45.5007175,-73.5732282,17,3.5
Second Cup Coffee,1648 Avenue du Mont-Royal E,H2J 1Z5,45.5321905,-73.5749963,313,3.7
Transit Café,4090 Rue Bélanger Suite E,H1X 1C1,45.5645861,-73.5874056,8,3.5
Café Melbourne,4615 Boul. Saint-Laurent,H2T 1R2,45.5211284,-73.5880797,375,4.3
Café Dei Campi,6201 Rue Chabot,H2G 2T3,45.5428618,-73.5923341,587,4.8
Céramic Café Studio Montréal,4338 R. Saint-Denis,H2J 2K8,45.5226123,-73.5804882,1275,4.4
Café Chat l'heureux,172 Av. Duluth E,H2W 1H3,45.5186402,-73.5776851,2734,4.5
MyWay Café Lounge,2340 Rue Jean-Talon E,H2E 1V7,45.5520629,-73.6031913,77,3.6
Columbus Café & Co,1200 Avenue du Mont-Royal E,H2J 1Y2,45.5287523,-73.5782997,281,3.8
Café Saint-Henri (Square Victoria),690 Rue du Square-Victoria suite 716,H3C 1E8,45.5013151,-73.5603975,10,4.8
Café Tuyo,370 Rue Marie-Anne Est,H2W 1B3,45.5226284,-73.5807335,400,4.6
Café Dépot,125 Boulevard René-Lévesque O Local 276,H2X 3X5,45.5074529,-73.5634177,384,4
Café Centre (Le),1290 Rue De La Gauchetière O,H3B 2S2,45.4976288,-73.5686498,8,3.8
Second Cup Café,895 Rue De La Gauchetière O,H3B 4G1,45.4994915,-73.5665959,133,3.9
Café District,717 Rue William,H3C 1N9,45.4984059,-73.5582925,45,4.5
Les Cafe V.P. Inc,910 Rue Peel,H3C 2H8,45.4969585,-73.5675645,1,4
LE VRAC DU MARCHÉ - Epicerie - Café / Thé - Noix / Epicé,Av. Atwater,H4C 2G3,45.479179,-73.5762888,15,4.3
Presse Café (BNP),1981 Av. McGill College,H3A 2W8,45.5034005,-73.5725873,4,3.3
Café Et Compagnies,"Niveau Metro Level, 2001 Blvd Robert-Bourassa",H3A 2A6,45.5045218,-73.5718577,7,4.4
Café Dépôt,2074 Rue Aylmer,H3A 2E3,45.505792,-73.572139,12,3
MELK Bar à café Stanley,1206 Rue Stanley,H3B 2S7,45.498491,-73.5720341,733,4.6
Café Et Bagels,"625 Avenue du Président-Kennedy, Montréal, QC H3A 1K2 Av. du Président-Kennedy",H3A 1K2,45.5046817,-73.5724886,16,4.3
Columbus Café & Co Atwater,2153 Sainte-Catherine O,H3H 1M6,45.4909421,-73.5828899,79,4.4
Café Imagination,1335 Boulevard René-Lévesque O,H3G 1T3,45.4964829,-73.5729147,0,
Café Vasco da Gama,1472 Rue Peel,H3A 1S8,45.5006345,-73.5745293,768,4.4
Café Kanapka,1160 Rue St Mathieu,H3H 2P4,45.4922792,-73.5770696,9,5
Café Central Portugais,4051 Rue Saint-Dominique,H2W 2A8,45.5175626,-73.5789621,102,4.7
Café Terrasse Montebello,1336 Rue Jean-Talon E,H2E 1S1,45.545007,-73.609406,17,3.9
Café des Ateliers,4663 Av du Parc,H2V 4E4,45.5180326,-73.5917461,35,4.2
Kahwa Café,331 Avenue du Mont-Royal E,H2T 1P8,45.5233015,-73.5836349,562,4.5
Café terrasse CARTHAGE,3391 Rue Bélair,H2A 2A6,45.5592645,-73.5942888,49,4.1
Café Ketch,4707 R. Saint-Denis,H2J 2L5,45.52528,-73.585362,13,4.8
Café Replika,252 Rue Rachel E,H2W 1E5,45.5203549,-73.5793781,451,4.4
Le Saint Louis café,4800 Rue de Bullion,H2T 1Y8,45.5229662,-73.5880921,172,4.8
Presse Café,1100 Av. des Canadiens-de-Montréal,H3C 3E4,45.4974171,-73.5686548,20,4.1
Café-Marché Petite Bourgogne,1845 Rue Saint-Jacques,H3J 1H1,45.4894631,-73.5721088,8,4.5
Sweet Lee's Rustic Bakery,4150 Rue Wellington,H4G 1V7,45.4621968,-73.5669416,760,4.4
Second Cup Café,7 Pl. du Commerce Unit 101,H3E 2B5,45.4680851,-73.5432761,368,4.2
Café St-Paul,5617 Rue Hadley,H4E 3M8,45.4622087,-73.5925901,0,
Mollo Café & Gelato,2069 Rue Wellington,H3K 1W7,45.4783941,-73.559195,281,4.7
Second Cup Café avec Pinkberry yogourt glacé,2200 Av. McGill College,H3A 3P8,45.5031953,-73.5742028,396,4
Café Tozzi,"2115 Rue Crescent 2095, 2121 Crescent St #2085",H3G 2C1,45.4985081,-73.5778087,2,5
Hinnawi Bros Bagel & Café - Mackay,2002 Rue Mackay,H3G 2J1,45.4966295,-73.5790202,403,4.2
Cafe Sandwich,"Le Faubourg Sainte Catherine, 1616 Saint-Catherine St W",H3H 1L7,45.493982,-73.5787514,0,
Second Cup Café avec Pinkberry yogourt glacé,1602 Rue Sainte-Catherine O. Unité C,H3H 2S7,45.4948141,-73.5778192,425,3.6
Parma café,1202 R. Bishop,H3G 2E3,45.4957744,-73.575097,522,4.5
Café Van Houtte — René-Lévesque,1600 Boulevard René-Lévesque O,H3H 1P9,45.493467,-73.574993,21,3.9
Café 100%,5445 Av. de Gaspé,H2T 3B2,45.5268579,-73.5954369,9,4.4
Café-Librairie Zorba,5851 Rue St-Hubert,H2S 2L7,45.5336882,-73.5973467,37,4.8
Café Rose de Mai,500 Rue Bélanger,H2S 1G4,45.5379212,-73.6109626,57,4.8
180g café - disquaire,5866 Av. De Lorimier,H2G 2N9,45.5425,-73.588467,249,4.9
Café Resto Sidi Bou,3583 Rue Jean-Talon E,H2A 1X4,45.5621932,-73.5955646,89,4.7
Café Zezin,2351 Rue Jean-Talon E,H2E 1W1,45.5526224,-73.6031899,458,4.7
Café Basma,7632 Rue St-Hubert,H2R 2N6,45.5438414,-73.6203261,48,4.1
Lana Café Bistro,7140 Rue St-Hubert,H2S 2M9,45.5404745,-73.6130368,478,4.1
Olives Et Café Noir,"1239 de, Rue de Bellechasse",H2S 1Y8,45.5377135,-73.5973804,229,4.6
Café Reine Garçon,611 Av. Duluth E,H2L 1A9,45.5223118,-73.5745968,345,4.7
Café nigelle,1963 Rue des Carrières,H2G 1W7,45.5410015,-73.5880096,169,4.8
Café Safir,3413 Rue Jean-Talon E,H2A 1W7,45.560755,-73.596909,93,4.5
Café Lézard,3119 Rue Masson,H1Y 1X9,45.5495308,-73.5742303,575,4.5
Café Rosé,907 Bd Rosemont,H2S 1Z8,45.5340116,-73.596015,47,5
Maison de thé Cha Noir - Thé & Tisanes,4611 Rue Wellington,H4G 1X1,45.4582422,-73.5676255,444,4.7
Florence Cafe,2425 Rue Centre,H3K 1J9,45.4796616,-73.5676339,293,4.7
Clarke Café,2483 Rue Centre,H3K 1J9,45.4792978,-73.5682252,573,4.8
"Pétale Sucré, Café & Fleurs",3480 Bd LaSalle #101,H4G 1Z3,45.4690051,-73.5671799,41,4.7
Bistro Garage Café,275 Rue Hickson,H4G 2J7,45.4650108,-73.5674696,1351,4.4
Café Redwood,2604 Rue Saint-Patrick,H3K 1B8,45.4795243,-73.5716864,118,4.7
THE STANDARD WESTMOUNT,5135 Rue Sherbrooke O,H4A 1T3,45.476053,-73.607086,237,4.1
Pavillon Snack Bar,5200 Rue Wellington,H4H 1M9,45.4544159,-73.5675856,178,4.9
Caféto,1500 Av. Atwater,H3Z 1X5,45.4888929,-73.5859988,52,3.5
Brulerie Urbaine,5252 Chem. de la Côte des Neiges,H3T 1X8,45.4957696,-73.6214574,672,4.1
Hive Café Solidarity Cooperative,1455 de Maisonneuve W H-239,H3G 1M8,45.4972727,-73.5790238,43,4.3
Café Orr,5368 Av. Papineau,H2H 1W2,45.5373737,-73.5846638,309,4.6
Café Montallegro,1991 Rue Bélanger,H2G 1B8,45.5479318,-73.6022465,15,4.3
Café Code Noir,4615 Boul. Saint-Laurent,H2T 1R2,45.5211281,-73.5880807,2,5
Café Sidou,2015 Rue Jean-Talon E,H2E 1V2,45.5499333,-73.6054361,49,4.1
Café Code Noir,4095 Boul. Saint-Laurent,H2W 1Y7,45.517472,-73.580196,283,4.4
Café Colibri,1952 Rue Beaubien E,H2G 1M1,45.5443814,-73.5953102,112,4.9
Café des Amis - maison Smith,1260 Chem. Remembrance,H3H 1A2,45.5015604,-73.5931063,17,4
Noble Café,430 Avenue Laurier E,H2J 1E5,45.527325,-73.5889926,556,4.6
La Brassée,2522 Rue Beaubien E,H1Y 1G2,45.5492228,-73.5911874,243,4.6
Le Café Station 54,,,45.5325134,-73.59659,6,4
Café Gaspé,5455 Av. de Gaspé,H2T 2A4,45.5274701,-73.5966168,86,3.2
Cafe Cantinova,4035 Rue Saint-Ambroise #102,H4C 2E1,45.4757582,-73.5803747,28,4.2
Bernice,5135 Notre-Dame St W o,H4C 1T4,45.4697465,-73.5925605,160,4.8
Station W café - Verdun,3852 Rue Wellington,H4G 1V2,45.4654839,-73.5666378,794,4.5
Café Saint-Henri (Verdun),4327 Rue Wellington,H4G 1W3,45.4606646,-73.5673431,439,4.4
Mr. PUFFS,6334 Rue Sherbrooke O,H4B 1M7,45.4653823,-73.6253974,0,
Saint JJH & Café,3323 Rue Evelyn,H4G 1N9,45.4705902,-73.5697122,201,4.7
Resto Bar Milan,5055 Rue de Verdun,H4G 1N5,45.4556937,-73.5721316,50,4.1
Le Tonique,4710 Rue Saint-Ambroise #112,H4C 2C7,45.4704116,-73.585741,9,4.2
September Cafe,2471 Notre-Dame St W,H3J 1N6,45.4831828,-73.5750025,708,4.6
Café St-Barth,3500 Av du Parc,H2X 2H7,45.5094606,-73.5738433,596,4.4
Café Névé,151 Rue Rachel E,H2W 1E1,45.5195045,-73.5804661,633,4.4
Café Lina,1874 Rue Jean-Talon E,H2E 1T6,45.5485752,-73.6061881,156,4
Café Odessa,65 Rue Beaubien E,H2S 1R1,45.5311156,-73.6077957,181,4.4
Café Le loup bleu,1279 Rue Marie-Anne,H2J 2C1,45.5287315,-73.5753675,295,4.7
Code & Café,4304 R. Saint-Denis,H2J 2K8,45.5223358,-73.5799173,246,4.8
Café Ma Bicyclette,2727 Saint-Patrick St. #101,H3K 0A8,45.4787376,-73.573606,75,4.5
Café de l'artisanat,3436 Rue Dandurand,H1X 1M8,45.5534939,-73.5750724,62,4.9
Columbus Café & Co,1370 Sainte-Catherine O,H3G 1P8,45.4968835,-73.5756107,226,4.3
Café Névé,781 Avenue du Mont-Royal E,H2J 1W8,45.5259243,-73.5814209,238,4.5
Café Santropol,3990 Rue Saint-Urbain,H2W 1T7,45.5155778,-73.5805058,1597,4.5
Café Mucho Gusto,2536 Rue Beaubien E,H1Y 1G2,45.5494544,-73.591002,216,4.2
Café Ambrose,3422 Rue Stanley,H3A 1R8,45.5013986,-73.5782696,27,4.6
