Nom,totalScore,Latitude,Longitude,Rue,postalCode,reviewsCount
Aux vivres a emporter,3.8,45.521198,-73.5884522,4631 St Laurent Blvd,H2T 1R2,18
Le Bistro Fit,4.3,45.4838533,-73.7868672,2101 Trans Canada Route,H9P 1J1,11
District Bagel - Lucerne,4.6,45.5028948,-73.6448694,709 Lucerne Rd,H3R 2H7,494
Capitaine Sandwich,4.8,45.5183185,-73.5783183,"4050 de, Rue de Bullion",H2W 2E5,271
Mandy's,4.5,45.5023978,-73.5561864,425 Rue Saint-Nicolas,H2Y 2P4,1059
Maestro Café,4.6,45.5247089,-73.5997236,80 Rue Saint- Viateur O,H2T 2K8,80
Copper Branch,4.2,45.4683841,-73.828962,301 Brunswick Blvd,H9R 4Y2,603
Abe & Mary's - TMR,3.4,45.5061209,-73.6610312,2346 Lucerne Rd,H3R 2J8,122
Sana Restaurant Halal ( CRESCENT ),4.1,45.4963377,-73.5737942,1175A Crescent St,H3G 2B1,1249
Tapi Go!,4.7,45.5171294,-73.5794478,4057 St Laurent Blvd,H2W 1Y7,40
sandwicherie chez ta mère,4.6,45.5242606,-73.5946167,15 Av. Fairmount E,H2T 1C7,254
Cultures,2.2,45.507809,-73.565201,"Complexe Desjardins, 150 Saint-Catherine St W",H2X 3Y2,34
Cultures,4.2,45.501014,-73.56448,"700 de la Gauchetière Tower, 700 Rue De La Gauchetière O",H3B 5M2,16
Mandy’s,4.3,45.4984317,-73.577816,2067 Crescent St,H3G 2C1,1263
Café Vasco da Gama,4.4,45.5006345,-73.5745293,1472 Peel St,H3A 1S8,770
Liv salades,3.7,45.5247059,-73.5968312,5350 St Laurent Blvd,H2T 1S1,61
Copper Branch,3.7,45.50781,-73.565201,"Complexe Desjardins, 150 Saint-Catherine St W",H2X 3Y2,67
Resto Végo St-Denis,4.3,45.5154587,-73.5646343,1720 Saint Denis St,H2X 3K6,1569
Obscène Végan,3.4,45.5143258,-73.572431,17 Rue Prince-Arthur E,H2X 1B2,30
LOV,4.3,45.4974058,-73.5746344,1232 Rue de la Montagne,H3G 1Z1,1666
Foodchain,4.4,45.5015664,-73.5708183,1212 McGill College Ave,H3B 4J8,357
Copper Branch,4,45.5067962,-73.6625626,2392 Lucerne Rd,H3R 2J8,295
LOV,4.4,45.5006017,-73.5590705,464 McGill St,H2Y 2H2,2441
Mimi & Jones,4.6,45.5201967,-73.5967414,5149 Park Ave,H2V 4G3,222
Sham Mont-Royal,4.9,45.530606,-73.5770135,1371 Mont-Royal Ave E,H2S 1B4,192
SPIRULINA,4.3,45.4786547,-73.6032037,392 Victoria Ave,H3Z 2N4,44
Hello 123,4.6,45.4743285,-73.6237128,5700 Monkland Ave,H4A 1E4,533
Panthère Verte / Green Panther Organic Plant Based Restaurant,4.4,45.5271629,-73.5974463,160 St Viateur St. E,H2T 1A8,938
Archway,4.7,45.4669696,-73.56676,3683 Wellington St,H4G 1V1,372
Aux Vivres Plateau,4.5,45.5211797,-73.5883938,4631 St Laurent Blvd,H2T 1R2,2722
Lola Rosa Café,4.5,45.5073078,-73.5757826,545 Rue Milton,H2X 1W5,1538
Copper Branch,4.1,45.5294325,-73.5780517,1251 Mont-Royal Ave E,H2J 1Y4,596
Green Panther Organic,4.4,45.5216106,-73.5851816,145 Mont-Royal Ave E,H2T 1N9,695
Restaurant Tendresse,4.7,45.519173,-73.5557668,1259 St Catherine St E,H2L 2H3,545
Muffin Plus,4,45.489027,-73.58587,1500 Atwater Place Alexis Nihon,H3Z 1X5,42
Copper Branch,4,45.5041066,-73.5711053,600 Boul. de Maisonneuve Ouest,H3A 3J2,504
Shushu Haru,4.9,45.4794868,-73.5716017,2602 Saint-Patrick St.,H3K 1B8,49
Burger Fiancé,4.6,45.501407,-73.5594186,417 Notre-Dame St W,H2Y 1V2,580
ECOLLEGEY- Marché Santé / Bio / Organic / Vegan / Vegetarian - Seafood / Fromagerie - Delivery,4.1,45.4700592,-73.6281819,6131 Monkland Ave,H4A 1H5,166
La Prep,2.9,45.5008056,-73.5603556,612 Rue Saint-Jacques,H3C 4M8,15
Toasties,4.7,45.4880779,-73.8499027,4712 Boul. Saint-Jean,H9H 4B2,354
La Fabrique de Bagel Montréal - Westmount,4.1,45.4875857,-73.5862882,4084 Saint-Catherine St W,H3Z 1P2,57
Cultures,,45.495802,-73.572626,1360 René-Lévesque Blvd W,H3G 2W4,0
The Midnight Kitchen,5,45.5035806,-73.5781636,3480 Mc Tavish St,H3A 0E7,5
Cultures,2.2,45.498175,-73.566385,1000 Rue De La Gauchetière O,H3B 4W5,19
Copper Branch,3.6,45.4968795,-73.5557479,"SAP Building, 111 Blvd Robert-Bourassa",H3C 2M1,84
Freshii,3.7,45.5006033,-73.5747312,1102 Boul. de Maisonneuve Ouest,H3A 1M7,216
Bowled,4.8,45.4815015,-73.6306782,5476 Queen Mary Rd,H3X 1V6,9
Copper Branch Stanley,4.3,45.5000064,-73.575442,"1180 boul. de Maisonneuve Ouest, Stanley St",H3A 1N5,120
Mandy's,3.9,45.4852617,-73.8011776,"11602-B De, Salaberry Blvd",H9B 2R8,385
Akai Bowl Health food smoothie and bowl of Acai,4.9,45.5029123,-73.5716799,705 Saint-Catherine St W,H3B 4G5,51
Bagels on Greene,4.4,45.4862525,-73.5875134,4160 Saint-Catherine St,H3Z 1P4,723
Subway,3.8,45.4578709,-73.7499034,"Intl Airport-Air Terminal Bldg, boul. Roméo-Vachon N",H4Y 1H1,652
Mandy's,4.3,45.4768368,-73.6061782,5033 Sherbrooke St W,H4A 1S8,821
La FOUMAGERIE - Sandwiches / Salads - Espresso / Coffee / Tea - Cafe en Vrac - Catering / Traiteur,4.3,45.4781115,-73.6041975,4906 Sherbrooke St W,H3Z 1H3,104
Aux Vivres Westmount,4.5,45.4782444,-73.6039374,4896 Sherbrooke St W,H3Z 1H1,510
Les Marchés TAU,4,45.4795488,-73.7965953,2345 Trans-Canada Hwy,H9R 5Z5,438
Veganarie - Resto Végan,5,45.5090213,-73.8056974,19H Rue du Centre Commercial,H8Y 2N9,51
Subway,4,45.4845382,-73.7959549,3339K Sources Blvd,H9B 1Z8,156
Dagwoods La Sandwicherie,4.3,45.4803,-73.840426,4289 Boul. Saint-Jean,H9G 2R4,154
Dagwoods La Sandwicherie,3.9,45.484999,-73.796356,3343 Sources Blvd,H9B 1Z8,183
Subway,3.7,45.4651155,-73.7870209,1856-1866 Sources Blvd Suite A & B,H9R 5B1,128
Subway,4.2,45.4621279,-73.8190026,"183-A2, Boul Hymus",H9R 1E9,171
La Prep,4.2,45.4060089,-74.0425166,"Méga-Centre, 3206 Bd de la Gare",J7V 8W5,145
Subway,3.5,45.4174585,-73.9186058,90 Rue Morgan Unit A01012a,H9X 3A8,68
Tanoura Restaurant,4.2,45.4800119,-73.8425552,4230 Boul. Saint-Jean,H9H 3X4,145
Burger Fiancé,4.9,45.4879534,-73.7998884,3627 Sources Blvd,H9B 2K4,124
Subway,3.2,47.7310334,-122.1733598,12523 NE 144th St,98034,78
Subway,3.4,47.677136,-122.2036944,255 Central Way,98033,82
Jersey Mike's Subs,4.2,47.705396,-122.210955,11631 98th Ave NE,98034,230
Subway,4.4,47.7047589,-122.176421,11613 124th Ave NE Suite G,98034,104
Freshii - Woodinville,3.9,47.7550381,-122.1504475,14184 NE Woodinville Duvall Rd,98072,78
Sarducci's Specialty Subs,4.4,47.6671909,-122.1969079,955 6th St South,98033,253
M Fitness,3.9,45.4914394,-73.6499707,6900 Bd Décarie #200,H3X 2T8,101
Rachelle-Bery health stores,4,45.521505,-73.589687,4810 St Laurent Blvd,H2T 1R5,230
GreenSoul Organics,4.3,-38.0470068,145.3686429,Shop 2/46-50 Old Princes Highway,3807,64
Subway,3.9,-38.0449715,145.3681788,"Shop 4, 55 Old Princes Highway Beaconsfield Shopping Plaza",3807,60
Mr Black Juicery,4.6,-38.0301024,145.3463789,1 Blackburne Square,3806,373
Hello 123,4.4,43.6433736,-79.4234717,1122 Queen St W,M6J 1H9,1038
Revital Beaconsfield,2.7,51.610056,-0.644998,"12 The Highway, Station Rd",HP9 1QQ,15
Subway,3.3,51.6103373,-0.6446796,192 Maxwell Rd,HP9 1QU,60
Dagwoods La Sandwicherie,4.3,45.432242,-73.849011,50 Saint-Charles Blvd,H9W 2X3,159
M.T.L. Bagel,4.7,45.4584742,-73.6608543,5452 Av. Westminster,H4X 2A5,411
Just Poke Kirkland,4.5,47.6754268,-122.2056055,117 Kirkland Ave #117,98033,450
Emerald City Smoothie (Inside LA Fitness),4.9,47.708763,-122.1798014,12321 120th Pl NE,98034,11
Cafe 128,4,47.7156761,-122.1794845,12040 NE 128th St,98034,44
Pressed,2.6,47.7124163,-122.1794638,12540 120th Ave NE Suite 112,98034,32
Homegrown,4.4,47.6753015,-122.2062447,104 Lake St,98033,387
Plantiful Superfoods,4.6,47.6778913,-122.1993063,425 Urban Plz #245,98033,185
Cafe Organique,4.4,47.7055792,-122.2101886,11656 98th Ave NE,98034,50
Kel’salad,,14.4689962,-60.9219407,10 rue joliot curie,97228,0
