Nom,totalScore,Latitude,Longitude,Rue,postalCode,reviewsCount
Restaurant Chez To Go,4.5,45.6036834,-73.5127869,9041 Notre-Dame St. East,H1L 3M9,301
Comptoir Sushi Yatta,4.6,45.5318119,-73.5754755,1576 Mont-Royal Ave E,H2J 1Z2,22
Montreal Asian Food,,45.5187183,-73.587453,102 Mont-Royal Ave W,H2T 2T1,0
Thaï Mix Pointe-aux-Trembles,4.3,45.6424365,-73.5025571,1305 Bd Saint-Jean-Baptiste,H1B 4A2,140
Restaurant Shekz,4.2,45.6234916,-73.6011289,7272 Bd Maurice-Duplessis,H1E 4A7,186
MajesThé Bistro Bar,4.3,45.5048275,-73.5727648,2077 Blvd Robert-Bourassa,H3A 2M3,536
Cambo Thai,4.4,45.5527227,-73.6191153,1660 Rue Jarry E,H2E 1B3,172
Thai Express Restaurant Montréal,2.9,45.495919,-73.578919,1570 Boul. de Maisonneuve Ouest,H3G 1N1,225
Restaurant PM,4,45.493737,-73.5796397,1809 Saint-Catherine St W,H3H 1M2,862
Scratch Kitchen,,45.5162977,-73.5782743,3910 St Laurent Blvd,H2W 1Y2,0
Chez Doval,4.2,45.520514,-73.582702,150 Marie-Anne St E,H2W 1A5,635
Restaurant Chinatown Kim Fung,3.9,45.5077179,-73.5618084,1111 Rue Saint-Urbain M05,H2Z 1Y6,1645
Restaurant Ethan,3,45.507239,-73.560352,72 Rue De La Gauchetière O,H2Z 1B9,642
Sushi Shop,4.3,45.594248,-73.574251,6687 Rue Jean-Talon E,H1S 0A5,168
Restaurant Keung Kee,3.9,45.507253,-73.560407,70 Rue De La Gauchetière O,H2Z 1C1,1098
Thai Express Restaurant Montréal,3.4,45.474673,-73.608659,5259 Sherbrooke St W,H4A 1V1,233
Asian restaurant,,45.5045149,-73.5590012,888 Saint Francois Xavier St,H2Y 0A8,0
Hoshi Dong Que,4.3,45.5360012,-73.5938056,1210 Bd Rosemont,H2S 2A5,372
IMADAKE IZAKAYA,4.5,45.4888413,-73.5845934,4006 Saint-Catherine St,H3Z 1P2,2176
Dynastie,3.8,45.5073778,-73.5599083,107-1008 Rue Clark,H2Z 1J9,458
Thai Express Restaurant Montréal,3.6,45.492213,-73.655338,5510 Rue Jean-Talon O,H4P 2T5,250
Restaurant Delicieux&Beau Thé,3.7,45.4986403,-73.6269892,5665 Chem. de la Côte des Neiges,H3T 1Y8,298
Restaurant Ruby Rouge,3.6,45.507321,-73.5598156,1008 Rue Clark,H2Z 1J9,1055
Mulan Dumpling,4,45.529813,-73.5777048,1291 Mont-Royal Ave E,H2J 1Y4,277
Restaurant Kim Hour,4.1,45.5616501,-73.6052225,7682 Bd Saint-Michel,H2A 3A5,441
Fung Shing Chinese Restaurant,4.1,45.5084469,-73.561151,1102 St Laurent Blvd,H2Z 1J5,361
白家老汤 Northwestern Chinese Cuisine,4.1,45.4933857,-73.5793959,1818 Saint-Catherine St W,H3H 1M1,176
银记肠粉 Yin Ji Chang Fen,4.3,45.4930924,-73.5803182,1861 Saint-Catherine St W,H3H 1M2,385
Le Filet,4.7,45.5180412,-73.588493,219 Mont-Royal Ave W,H2T 2T2,584
L'Gros Luxe Mile End,4.2,45.525554,-73.6038078,150 Rue Bernard O,H2T 2K2,1090
L'Gros Luxe Plateau,3.9,45.521456,-73.5754245,451 Av. Duluth E,H2L 1A6,1408
Mai Xiang Yuan Dumpling Chinatown,4.1,45.5082653,-73.560729,1082 St Laurent Blvd,H2Z 1J5,1135
Grenade - Resto-bar et terrasse,4.2,45.5250097,-73.5601494,1603 Ontario St E,H2L 1S5,1201
Banh Mi Banh Yiu,4.5,45.522819,-73.601829,255a Rue Saint- Viateur O,H2V 1Y1,310
Bistro Sawadika,4.2,45.5103483,-73.6866901,1800 Boulevard Cote Vertu Ouest,H4L 2A6,759
Côba Sushi,4.4,45.5170867,-73.5978208,1124 Av. Laurier O,H2V 2L4,364
Deux Saisons Thé aux Bulles,4.7,45.5199025,-73.5743636,3922 Saint Denis St,H2W 2M2,105
Nikkei MTL,4.5,45.5350663,-73.58255,1577 Laurier Ave E,H2J 1J1,299
HÀ Vieux-Montréal,4.2,45.4997314,-73.5562062,600 William St,H3C 1N6,669
Sushi Shop,3.2,45.510102,-73.575315,3550 Park Ave,H2X 2H7,179
Resto Café Royal,4.5,45.4963241,-73.6641426,5473 Royalmount Ave,H4P 1J3,78
Maison de Cari Golden,3.9,45.5238014,-73.5949511,5210 St Laurent Blvd,H2T 1S1,240
Pho Hao,4.1,45.5009518,-73.6327717,6230 Chem. de la Côte des Neiges,H3S 2A1,519
Chez Chili,4.5,45.5076218,-73.5603825,1050b Rue Clark,H2Z 1K3,1289
Chez Chine,3.9,45.506767,-73.5599746,999 Rue Saint-Urbain,H2Z 0B4,41
Qing Hua Dumpling - (ChinaTown & Boul. St-Laurent),4.2,45.508143,-73.559573,1019 St Laurent Blvd,H2Z 1J4,1890
Thai Express Restaurant Montréal,3,45.50111,-73.572242,"Carrefour Industrielle Alliance, 977 Saint-Catherine St W",H3B 4W3,27
Restaurant Noodle Factory,4.4,45.5067346,-73.5607787,1018 Rue Saint-Urbain,H2Z 1K6,1139
Le Blossom - Bar à Sake,4,45.5183731,-73.5586106,1101 Boul. de Maisonneuve E,H2L 1Z6,631
Wok Cafe,4,45.4932398,-73.5801484,1845 Saint-Catherine St W,H3H 1M2,905
Restaurant Noraka,4.4,45.4982093,-73.6483061,4820 Rue Jean-Talon O,H4P 1W9,71
Thai Express Restaurant Montréal,3.3,45.489505,-73.585265,"Place Alexis Nihon, 1500 Atwater Ave",H3Z 1X5,65
Biiru,4.5,45.5050012,-73.5686458,1433 City Councillors St,H3A 2E4,1509
Thai Express Restaurant Montréal,4.1,45.503964,-73.572286,"AXA Center, Blvd Robert-Bourassa",H3A 2A5,123
Mae Sri Comptoir Thai,4.5,45.5104003,-73.5726811,224 Rue Milton,H2X 1V6,920
Kum Mon Restaurant,3.4,45.5024307,-73.6350453,6565 Chem. de la Côte des Neiges,H3S 2A5,210
KINKA IZAKAYA MONTREAL,4.2,45.494056,-73.57853,1624 Saint-Catherine St W,H3H 2S7,1422
Nouilles Zhonghua - Chinese Noodles - Cold Noodle Xi'an - Chinese Hamburger - Delivery,4.5,45.5032847,-73.5749407,908 Sherbrooke St W,H3A 1G3,380
La Belle Tonki,4.7,45.5405424,-73.5994458,1335 Rue Beaubien E,H2G 1K7,998
KAM SHING Restaurant,4.1,45.5032173,-73.6381055,6730 Chem. de la Côte des Neiges,H3S 2B2,746
Sushi Dépanneur,4.5,45.5267046,-73.5801786,928 Mont-Royal Ave E,H2J 1X2,313
Tsukuyomi Ramen,4.5,45.5241782,-73.5947659,5207 St Laurent Blvd,H2T 1S4,1377
Khyber Pass Restaurant,4.5,45.5218722,-73.5746611,506 Duluth Ave E,H2L 1A7,1414
HARBIN DUMPLING,4.6,45.5197084,-73.5729963,3829 Saint Denis St,H2W 2M4,185
L’Entrepôt Mont-Royal,4.1,45.5276358,-73.5797401,1019 Mont-Royal Ave E,H2J 1X7,2999
Restaurant Les Garçons,4.5,45.5148958,-73.6455389,1789 Graham Blvd,H3R 1G7,61
Teochew Foodie,4.7,45.5201947,-73.574933,3964a Saint Denis St,H2W 2M2,41
Sushi Shop,3.1,45.50733,-73.661711,2342 Ch Lucerne Ville,H3R 2J8,80
AMBER,4.5,45.520564,-73.5791225,266 Rue Rachel E,H2W 1E6,527
H2 Hyderabad House Indian Restaurant,4.4,45.5254298,-73.5854767,4723 Saint Denis St,H2J 2L5,1014
Juste Nouilles,3.5,45.550165,-73.5739401,3181 Rue Masson,H1Y 1Y2,502
La Belle Corée,4.2,45.5226173,-73.5958145,101 Av. Fairmount O,H2T 2M4,358
Chef Panda's Resto Bar + Event Venue,4.8,45.4931951,-73.6709755,8355 Chem. Montview,H4P 2L9,12
Tri Express,4.6,45.5353661,-73.5817987,1650 Laurier Ave E,H2J 1J2,821
Sumi Dojo,4,45.5131492,-73.5706024,3479 St Laurent Blvd,H2X 2T6,365
,,,,,,0
Restaurant Petit Seoul,4.5,45.5243761,-73.5952938,5245 St Laurent Blvd,H2T 1S4,524
Restaurant Mikado,4.4,45.5189601,-73.5967566,399 Av. Laurier O,H2V 2K3,452
Qing Hua Dumpling - (Maisonneuve),4.2,45.4949188,-73.5803364,1675 Boul. de Maisonneuve Ouest,H3H 1J6,1289
Szechuan par Mr Ma,4.5,45.5015733,-73.5590174,400 Notre-Dame St W,H2Y 1V3,283
Cuisine Szechuan,3.8,45.4963086,-73.5814676,2350 Guy St,H3H 2M2,285
Fondue Chinoise Express,4.4,45.4942309,-73.5782501,1610 Sainte-Catherine O #411,H3H 2S2,37
Gia Ba,4.2,45.4735786,-73.6243941,5766 Monkland Ave,H4A 1E9,244
Asie Moderne,4.2,45.5193033,-73.6973964,1676 Rue Poirier,H4L 1J3,240
Thai Express Restaurant Montréal-Nord,3.9,45.589271,-73.636365,10734 Pie-IX Blvd,H1H 4A7,225
Itamea sushi,4.2,45.5441246,-73.5954869,1898 Rue Beaubien E,H2G 1L9,482
Nori Sushi,4.6,45.5415111,-73.5604472,2967 Sherbrooke St E,H1W 1B2,178
Épicerie Pumpui,4.5,45.5328529,-73.6111091,83 Rue Saint-Zotique E,H2S 1K7,701
ShangHai Grill,3.5,45.4877674,-73.5861333,4050 Saint-Catherine St W,H3Z 1P2,131
Restaurant Vip,4.2,45.5079917,-73.5607082,1077 Rue Clark,H2Z 1K3,1184
Restaurant Shi Tang,4,45.4952405,-73.5793928,1622 Boul. de Maisonneuve Ouest,H3H 1J5,76
Tao Restaurant,3.8,45.4788312,-73.6193884,4242 Decarie Blvd,H4A 3K3,108
Chef Lee,4.4,45.492845,-73.5807318,1901 Saint-Catherine St W,H3H 1M3,290
Atelier Asie,4,45.502603,-73.562942,453 Av. Viger O,H2Z 2B8,105
Beijing Restaurant,4.1,45.5069299,-73.56056,92 Rue De La Gauchetière O,H2Z 1C1,1346
Le Lotus Bleu,4.3,45.5076999,-73.5592908,988 St Laurent Blvd,H2Z 9Y9,426
A&W Canada,3.9,45.600599,-73.5639007,7999 Bd des Galeries d'Anjou,H1M 1W9,298
P’tit Frère Dumpling,4.5,45.5211818,-73.5753308,430 Duluth Ave E,H2L 1A3,132
Kitano Shokudo(OTTO BISTRO),4.8,45.521575,-73.5852095,143 Mont-Royal Ave E,H2T 1N9,305
The Dumpling Hut,4.7,45.5132871,-73.5725563,3591 Rue Clark,H2X 2R9,599
Fenêtre Sur Kaboul,4.3,45.5244013,-73.5759543,901 Rue Rachel E,H2J 2J2,675
Jun I,4.6,45.5211166,-73.5943092,156 Av. Laurier O,H2T 2N7,729
Restaurant Chillax,4.7,45.5089615,-73.5729074,3460A Park Ave,H2X 2H5,132
Sushi Bonsa,4.6,45.5253299,-73.5862438,4818 Saint Denis St,H2J 2L6,200
Ramen Isshin,4.4,45.529044,-73.5785391,1217 Mont-Royal Ave E,H2J 1Y2,218
Le Bay Cà Phê,4.6,45.5244958,-73.5957079,5263 St Laurent Blvd,H2T 1S4,387
Spicy Noodle Express Liang,3.6,45.510347,-73.5750613,3575 Park Ave,H2X 3P9,156
Sandwicherie Sue - Duluth,4.5,45.5239555,-73.5731259,951 Av. Duluth E,H2L 4X5,101
Poké Bon,4.9,45.5205004,-73.5862151,23 Mont-Royal Ave E,H2T 1N4,51
Yokato Yokabai Ramen,4.6,45.5212262,-73.5785399,4185 Drolet St,H2W 2L5,3925
Restaurant Hansang,4.7,45.5197108,-73.5967383,5136 Park Ave,H2V 4G5,333
Yuukai sushi,4.4,45.5220694,-73.6012203,5407 Park Ave,H2V 4G9,294
Sushi Shop,4,45.519181,-73.587488,85 Mont-Royal Ave W,H2T 2S5,65
M. Ramen,4.3,45.5367237,-73.5707106,2222 Mont-Royal Ave E,H2H 1K4,78
Vieux-Port Steakhouse,4.2,45.506179,-73.5534659,39 Rue Saint-Paul E,H2Y 1G2,3584
Azalea,4.9,45.5224257,-73.5799502,4306 Saint Denis St,H2J 2K8,63
Thai Express Restaurant Montréal,3,45.589869,-73.539313,"Place Versailles, 7275 Sherbrooke St E",H1N 1E9,131
Akita,4.4,45.5998717,-73.5775619,6985 Rue Jarry E,H1P 3B5,160
Kazu,4.7,45.493037,-73.579836,1844 Saint-Catherine St W,H3H 1M1,2000
Restaurant Dobe & Andy,4.3,45.5073271,-73.5612908,1071 Rue Saint-Urbain R-12,H2Z 1Y6,646
Uchi,4.4,45.519574,-73.561362,1799 R. Atateken,H2L 3L7,664
Restaurant Kien-Giang Exp,4.6,45.5344125,-73.5517764,2669 Ontario St E,H2K 1X1,237
Sun Heng Chinese Food,4,45.6227454,-73.6238268,6349 Bd Léger,,295
Sake Sushi,4.6,45.5803481,-73.5451361,6365 Sherbrooke St E,H1N 1C4,197
Sésame,4,45.4795936,-73.575661,141 Atwater Ave,H3J 2Z6,473
Jatoba,4.5,45.5032786,-73.567343,1184 R. du Square-Phillips,H3B 3C8,1084
Nouilles Star,4.2,45.4929995,-73.580451,1871 Saint-Catherine St W,H3H 1M2,1041
Tiki-Ming,4.3,45.592141,-73.541016,"7275 rue Sherbrooke Est, 123 Place Versailles",H1N 1E9,160
Nouilles de Lan Zhou - Noodle Shop,4.5,45.5077382,-73.5596307,1006 St Laurent Blvd,H2Z 9Y9,2568
Fondue Kim Long,4.2,45.562774,-73.6054732,3250 Boul Crémazie E,H2A 3N9,251
Chez Lin Chinese Food Restaurant,4.4,45.5084774,-73.559592,26 Rue de la Gauchetière E,H2X 1P3,34
Chez Lien,4.3,45.5845674,-73.5417824,6780 Sherbrooke St E,H1N 1E1,571
Restaurant coréen Luna/Korean Restaurant Luna- Apportez votre vin/ Bring your own wine,4.7,45.5246069,-73.575802,"CA, 917 Rue Rachel E",H2J 2J2,602
Restaurant La Petite Dînette,4.3,45.5215845,-73.5780521,4186 Saint Denis St,H2W 2M5,144
Sushi 111,4.4,45.5370613,-73.5703942,2260 Mont-Royal Ave E,H2H 1K6,239
Thai Express Restaurant Montréal,3.2,45.510102,-73.575315,"Galerie du Parc, 3550 Park Ave",H2X 3P9,206
Ken sushi,4.4,45.5354695,-73.5723733,2113 Mont-Royal Ave E,H2H 1J9,98
Au 14,4.4,45.5135693,-73.5726786,14 Prince Arthur St W,H2X 1S3,191
Sushi Beaumont-Sushi BMT,4,45.5212302,-73.6236864,1248 Beaumont Ave,,1384
RAKU,4.2,45.5183284,-73.5812513,12 Rue Rachel E,H2W 1C5,168
Copper Branch,4.1,45.5294325,-73.5780517,1251 Mont-Royal Ave E,H2J 1Y4,596
Ohana Sushi Vegan,4.8,45.5232756,-73.5833892,330 Mont-Royal Ave E,H2T 1P7,471
Aiko Sushi,3.7,45.5324459,-73.5748258,1680 Mont-Royal Ave E,H2J 1Z5,232
Bistro CÔ ÚT - Montréal,4.7,45.5218748,-73.5702607,3807 St Andre St,H2L 3V9,386
Restaurant Pho 911,4.4,45.5367358,-73.5711354,2229 Mont-Royal Ave E,H2H 1K5,310
Szechuan et Nouilles,3.5,45.5235686,-73.6057951,355 Rue Bernard O,H2V 1T6,126
Yoshi Sushi,4.3,45.5352416,-73.5823415,1601 Laurier Ave E,H2J 1J1,107
Haruko Sushi,4,45.5367109,-73.5711478,2223 Mont-Royal Ave E,H2H 1K5,35
Mai Xiang Dumpling Mont-Royal,5,45.5273145,-73.580093,961 Mont-Royal Ave E,H2J 1X4,4
Jelissa,,45.518112,-73.569495,3609 Saint Denis St,H2X 3L6,0
WOW SUSHI,4.6,45.5184988,-73.5810698,50 Rachel St E,H2W 1C6,16
Soupe & Roll,3.9,45.5721452,-73.5368129,5865 Rue Hochelaga,H1N 1X2,171
Sama fusion,4.3,45.5575701,-73.6596512,945 Rue Fleury E,H2C 1P5,286
Chopstix Restaurant,3.6,45.5534063,-73.6694844,325 Boul Henri-Bourassa E,H3L 1C2,108
Zone d'Asie,4.1,45.5503327,-73.604593,2106 Rue Jean-Talon E,H2E 1V3,299
Sésame,4,45.5067299,-73.5668181,305 Saint-Catherine St W,H2X 2A3,1216
Restaurant Mon Nan,4.2,45.5085792,-73.5597671,43 Rue de la Gauchetière E,H2X 1P4,1316
Freres Restaurant,3.7,45.5481859,-73.5424591,3892 Ontario St E,H1W 1S6,348
Restaurant Phuket,4.3,45.5773927,-73.5980496,4673 Rue Jarry E,H1R 1X6,648
Oriental Fusion,3.8,45.4946291,-73.6518564,"Sous-Sol, 7373 Bd Décarie",H4P 2G8,109
Saint Sushi Plateau,4.6,45.5211176,-73.5753568,424 Duluth Ave E,H2L 1A3,945
Maneki Comptoir Asiat',4,45.5420356,-73.5546207,3121 Rue Hochelaga,H1W 1G3,447
Sésame,4.2,45.5019364,-73.559413,380 Rue Saint-Jacques,H2Y 1S1,654
Montreal Asian Food,,45.5441309,-73.5955522,1898 Rue Beaubien E,H2G 1L9,0
Restaurant Phoenix Oriental,4.2,45.6230432,-73.602393,7230 Bd Maurice-Duplessis,H1E 4A7,273
Takumi Sushi,4.1,45.517186,-73.5675984,405A Sherbrooke St E,H2L 1J9,1574
Restaurant Pho Mont Royal,4,45.5311406,-73.5764545,1459 Mont-Royal Ave E,H2J 1Y9,410
Royal Sushi,3.6,45.5237185,-73.5832918,367 Mont-Royal Ave E,H2T 1R1,380
Hoya,4.6,45.5229207,-73.5836775,300 Mont-Royal Ave E,H2T 1P7,404
Yum Yum Soupe Dumpling,4.7,45.5200224,-73.5738012,3887 Saint Denis St,H2W 2M4,411
Harbin Dumpling,4.5,45.5216,-73.5893745,4801 St Laurent Blvd,H2T 1R6,1033
Wok Du Chef,,45.5292534,-73.5783918,1241 Mont-Royal Ave E,H2J 1Y2,0
Krapow,4.8,45.5285396,-73.5788929,1139a Mont-Royal Ave E,H2J 1X9,248
Le Caractère Chinois,4.4,45.5302264,-73.5665652,1870 Rue Gauthier,H2K 1A3,75
La Cuisine d'Iva,5,45.5342762,-73.5735854,4507 Rue Chabot,H2H 1Y1,2
Mei Le Café Chinois,4.4,45.5246803,-73.5960054,5309 St Laurent Blvd,H2T 1A5,282
Dumplings Imagine,4.2,45.5183457,-73.5812288,16 Rue Rachel E,H2W 1C5,241
Asahi,4.7,45.5146164,-73.5737908,3671 St Laurent Blvd,H2X 2V5,6
Ichi Sushi,4.4,45.5187183,-73.587453,102 Mont-Royal Ave W,H2T 2T1,424
Pamika,4.5,45.5221605,-73.5911233,4902 St Laurent Blvd,H2T 1R5,1514
Kasa Sushi,4.1,45.5362968,-73.5711617,2190 Mont-Royal Ave E,H2H 1K3,188
LinJu Asiatique Express,4.8,45.5375428,-73.5700458,2300 Mont-Royal Ave E,H2H 1K8,32
BIBIKO,4.4,45.5263542,-73.5987689,31 St Viateur St. E,H2T 1A5,218
Thai Express Restaurant Montréal,2.5,45.524025,-73.582669,4497 Saint Denis St,H2J 2L2,186
Restaurant Thaïlande,4.3,45.5262556,-73.6029853,88 Rue Bernard O,H2T 2J8,647
Thai Express Restaurant Mont-Royal,3.1,45.528196,-73.648123,"Centre Rockland, 2305 Rockland Rd",H3P 3E9,35
Hinata Wok & Sushi TMR,4.5,45.5171441,-73.6443999,1383 Chem. Canora,H3P 2J6,84
Négasaké,4,45.5145399,-73.57178,70 Rue Prince-Arthur E,H2X 1B3,286
Soleil de Saigon,4.7,45.5291095,-73.578354,1227 Mont-Royal Ave E,H2J 1Y2,119
31 Latitude,4.7,45.5142587,-73.573092,3627 St Laurent Blvd,H2X 2V5,85
HÀ Mont-Royal,4.3,45.51775,-73.5888222,243 Mont-Royal Ave W,H2T 2T2,639
Tô Comptoir Asiatique,4.9,45.5105327,-73.5726065,212 Rue Milton,H2X 1V6,53
Thai Express Restaurant Montréal,3.5,45.516562,-73.560079,833 Boul. de Maisonneuve E,H2L 1Y7,177
Restaurant Sho-dan,4.4,45.5017117,-73.5746173,2020 Metcalfe St,H3A 1X8,578
Maison Thaï,3.6,45.5304947,-73.5771915,1351 Mont-Royal Ave E,H2J 1Y8,344
Wing Phat,4.4,45.5729146,-73.6017423,4201 Rue Jarry E,H1R 1W9,1901
Chez Tomio,4.4,45.5361224,-73.5812491,5161 Av. Papineau,H2H 1W1,205
Cuisine AuntDai,4.5,45.4943194,-73.5803435,1448 St Mathieu St,H3H 2H9,725
Mayhem Saveurs Asiatiques - Bar à sangria + Traiteur + Événement privé -,4.7,45.5236775,-73.5818662,"H2j2l2, 4433 Saint Denis St",H2J 2L2,143
Restaurant Rizière,4.8,45.520141,-73.5862005,4495 St Laurent Blvd,H2W 1Z8,364
Ichigo Ichie Izakaya,4.6,45.521307,-73.57846,360 Rue Rachel E,H2W 1E9,1368
Thai Express Restaurant Montréal,2.7,45.519945,-73.586697,11 Mont-Royal Ave W,H2T 2R9,93
Soy,4.1,45.5241503,-73.5956063,5258 St Laurent Blvd,H2T 1S1,276
Restaurant Itamea,4,45.539729,-73.599901,1283 Rue Beaubien E,H2S 1V1,288
Beni Hana Cuisine Japonaise,4.4,45.5725,-73.5486999,5666 Sherbrooke St E,H1N 1A1,1365
Restaurant Dragon Magnifique,4.4,45.5804811,-73.581014,5444 Rue Jean-Talon E,H1S 1L6,386
Nouilles Etc,4.1,45.5831872,-73.5424461,6666 Sherbrooke St E,,730
Le Mēkong,4.5,45.5268438,-73.5804779,921 Mont-Royal Ave E,H2J 1X3,306
Panda Thai,3.8,45.5259771,-73.581489,783 Mont-Royal Ave E,H2J 1W8,193
ChuChai,4.6,45.5208866,-73.5767429,4088 Saint Denis St,H2W 2M5,942
Tampopo,4.1,45.526886,-73.579531,4449 Mentana St,H2J 3B4,573
Satay Brothers Resto 3721 Notre-Dame,4.5,45.4793169,-73.5818739,3721 Notre-Dame St W,H4C 1P8,2286
Le Red Tiger - Pub Vietnamien,4.3,45.5192046,-73.557834,1201 Boul. de Maisonneuve E,H2X 2A1,987
Restaurant Kim Jian,3.9,45.5592404,-73.5976793,3270 Rue Jean-Talon E,H2A 1W3,69
Chez O,4.3,45.575574,-73.5478947,5849 Sherbrooke St E,H1M 2N2,281
Café Asia,3.6,45.5332279,-73.5741484,1828 Mont-Royal Ave E,H2H 1J1,224
East Pan Asiatique Cuisine et Bar,4.3,45.5027778,-73.5694444,"1250, Boulevard Robert-Bourassa, Street Level",H3B 3B8,289
Restaurant 2K Fusion,3.2,45.5356392,-73.6172845,89 Rue Jean-Talon E,H2R 1S6,253
Restaurant Kim San,3.9,45.604837,-73.5304038,8731 Sherbrooke St E,H1L 1C2,205
Chalet Thaï,4,45.4033981,-73.9516507,96 Sainte Anne St,H9X 1L8,195
Golden,4.4,45.4979545,-73.7839368,1113 Hyman St,H9B 1M5,188
Cebu's Taste,4.6,45.4801722,-73.8427665,4230 Boul. Saint-Jean Suite 107,H9H 3X4,64
Pho Zui Zui,4.3,45.4937058,-73.805925,9 Rue Sunnydale,H9B 1E2,577
Peking Garden Restaurant,3.6,45.4888033,-73.8507418,4794 Boul. Saint-Jean,H9H 5G9,387
Matjip - Korean BBQ & Chicken,4.5,45.4849564,-73.7963286,3343-A Sources Blvd,H9B 1Z8,396
Aikawa Sushi Restaurant West Island Montreal,4.4,45.4847502,-73.7953054,55 Brunswick Blvd,H9B 1P7,499
Sushi Shop,4,45.467377,-73.824327,6321 Trans-Canada Hwy,H9R 5A5,133
Restaurant Ken Ching,4.1,45.5213485,-73.7939406,270 Blvd. Samson,H7X 3C1,377
Restaurant Pompom Rouge,4.4,45.52713,-73.811591,545 Blvd. Samson,H7X 1J5,44
San Fu West Island,5,45.5035049,-73.8418211,13087 Boul Gouin O,H8Z 1X1,6
Oko Sushi,4.5,45.4579444,-73.862891,114 Rue du Barry,H9H 4P8,153
Mandy's,3.9,45.4852617,-73.8011776,"11602-B De, Salaberry Blvd",H9B 2R8,385
MALA EXPRESS,4.7,45.4571246,-73.8645552,3630 Saint-Charles Blvd,H9H 3C3,54
Pizza Salvatoré,4,45.4852075,-73.7963073,3343 Bd des Sources E,H9B 1Z8,349
Elixor,4.2,45.4828016,-73.7935806,3237 Sources Blvd,H9B 1Z6,921
Enoteca Monza Pizzeria Moderna,4.2,45.4741549,-73.8368847,3800 Boul. Saint-Jean,H9G 1X1,1276
Restaurant Boustan,4.2,45.4859597,-73.7998149,3510A Sources Blvd,H9B 1Z9,172
Ten Restaurant,4.4,45.5088799,-73.8213719,11655 Boul Gouin O,H8Y 1Y4,272
Marathon Souvlaki,4.4,45.4833079,-73.7939721,3313 Sources Blvd,H9B 1Z6,1666
Chateau Kabab West Island,4.3,45.5023946,-73.8151377,4705 Sources Blvd,H8Y 3C6,1220
Madisons Restaurant & Bar,4.1,45.485883,-73.801349,11590 Salaberry Blvd,H9B 2R8,934
Boustan St-Jean,4.2,45.4746866,-73.8374632,3980 Boul. Saint-Jean,H9G 1W9,1202
3 Soeurs,4.6,45.4722298,-73.8328374,3693 Boul. Saint-Jean,H9G 1X2,127
Masala Art,4.6,45.4850803,-73.8015222,11612 Salaberry Blvd,H9B 2R8,373
Marché Sheng Tai,3.9,45.5034215,-73.8172184,4850 Sources Blvd,H8Y 3C7,1031
Riccardos Restaurant,4.5,45.4776171,-73.8385487,4071 Boul. Saint-Jean,H9G 2R4,413
Thai Express Restaurant Pierrefonds,3.5,45.483832,-73.858677,"Plaza Pierrefonds, 14850 Pierrefonds Blvd.",H9H 4Y6,155
Rotisserie Panama,4.2,45.4850612,-73.801322,11604 Salaberry Blvd,H9B 2R8,418
Bâton Rouge Grillhouse & Bar,4.2,45.47449,-73.834818,3839 Boul. Saint-Jean,H9G 1X2,1304
Becks Cuisine and Catering,4.8,45.5044478,-73.8184335,4886B Sources Blvd,H8Y 3C7,103
K-BBQ,4.2,45.4814935,-73.8428672,4337 Boul. Saint-Jean,H9H 2A4,867
Tandoor et Grille Restaurant & Reception Hall (Known as Tandoori Grill),3.8,45.5014176,-73.8154407,4690 Sources Blvd,H8Y 3C4,1169
Tanoura Restaurant,4.2,45.4800119,-73.8425552,4230 Boul. Saint-Jean,H9H 3X4,145
Restaurant Basha (D.D.O),4.5,45.484296,-73.795638,3339 Sources Blvd,H9B 1Z8,449
Restaurant Aryana,4.4,45.5043275,-73.8184695,4886 Sources Blvd,H8Y 3C7,222
Le Poké Station,4.3,45.485981,-73.7994496,3496 Sources Blvd,H9B 1Z9,46
YUNNAN Nouilles de Riz West Island 十秒到过桥米线西岛店,4.2,45.4803075,-73.8404621,4291 Boul. Saint-Jean,H9G 2R4,38
Bistro Nolah,4.7,45.47211,-73.8322562,3669 Boul. Saint-Jean,H9G 1X2,751
Sushi Belle,4,45.4872488,-73.8480845,4701 Q Boul. Saint-Jean,H9H 2A7,48
MOUSHI,4.3,45.4706577,-73.8316431,3593 Boul. Saint-Jean,H9G 1W9,413
K-BROS Restaurant Coréen,4.9,45.4772845,-73.8381929,4057 Boul. Saint-Jean #101,H9G 2R4,181
Sushi Sama (DDO),3.9,45.4773355,-73.8382608,4059 Boul. Saint-Jean,H9G 2R4,91
Dumpling King,4.4,45.4632098,-73.8699469,4559 Saint-Charles Blvd,H9H 3C7,150
Sushi Japango,4.2,45.4847092,-73.8024808,11672 Bd De Salaberry,H9B 2R8,78
Sushi Shop,4,45.485149,-73.796306,3343F Sources Blvd,H9B 1Z8,178
Nouveau Maison Kam,3.7,45.507426,-73.822323,11779 Pierrefonds Blvd.,H8Z 1V6,236
Saveurs Thaï,4.3,45.492894,-73.849974,13900 Pierrefonds Blvd.,H9A 1A8,168
"Sahib Indian Restaurant - Dine-in, Take-Out & Delivery",4.2,45.4592786,-73.8236103,225B Hymus Blvd,H9R 1G4,1323
Koryo Korean Barbeque,4,45.464035,-73.8313499,6801 Route Trans Canadienne Unit FC03,H9R 5J2,145
Matsuno Sushi Fusion,4.2,45.4741,-73.8344694,3811 Boul. Saint-Jean,,2172
Maiko Sushi,4.5,45.4841921,-73.7957027,3339 Sources Blvd D,H9B 1Z8,1261
Phở Thành Restaurant,4.2,45.5037258,-73.8178788,4858 Sources Blvd,H8Y 3C7,557
Manchu Wok,3.5,45.464404,-73.831552,"6815 route Transcanadien FC09, Fairview Pointe Claire",H9R 5J2,70
Sushi St-Jean,3.6,45.4698357,-73.8320345,1000 Boul. Saint-Jean,H9R 5P1,2175
Restaurant Chez Lien,4,45.4721458,-73.8322905,3671 Boul. Saint-Jean,H9G 1X2,110
KIWAMI Sushi Bar & Sake House,4.4,47.6756615,-122.2062588,104 Kirkland Ave,98033,515
Pho Mignon,4.4,47.7126696,-122.1871698,12557 116th Ave NE,98034,568
Avocado Sushi du village,4.5,45.4291679,-73.8242029,270 Chem. du Bord-du-Lac-Lakeshore,H9S 4K9,345
Hoshi bbq coréen & sushi,4.4,45.4813709,-73.7967689,48-D Brunswick Blvd,H9R 4W3,409
Thai Golden Bowl,4.3,47.729456,-122.243278,14130 Juanita Dr NE #109,98034,192
Szechuan Supreme Inc,4.3,45.484497,-73.8029602,11710 Salaberry Blvd,H9B 2R8,38
Thumra Thai Restaurant,4.3,47.7124604,-122.1877084,12549 116th Ave NE,98034,175
颐香园 Impérial (西岛),1,45.4813489,-73.7959455,"2315h, Trans-Canada Hwy",H9R 5Z5,1
Dough Zone - Kirkland,4.4,47.6786631,-122.1982455,520 Uptown Ct,98033,162
Ken Zaburo,4.1,47.7085339,-122.1749145,12413 NE 124th St,98034,367
Hanuman Thai Cafe,4.2,47.676329,-122.2075159,115 Central Way,98033,286
Katoreya Sushi Restaurant,4.4,45.4652006,-73.7870336,1864 Sources Blvd,H9R 5B1,309
Mongolian Grill Kirkland,4.5,47.7057677,-122.2111481,9738 NE 117th Ln ste c,98034,594
Restaurant Impérial (Pointe-Claire),3.1,45.4808317,-73.7964517,"2315h, Trans-Canada Hwy",H9R 5Z5,55
Beijing O'Chef,3.9,47.676565,-122.2045604,206 Main St,98033,348
Noppakao | Thai Restaurant,3.9,47.705497,-122.2109511,9745 NE 117th Ln,98034,454
The Box & Burgers Eatery,4.7,47.7090757,-122.185157,12305 120th Ave NE suite c,98034,512
Thai Wisdom Bistro Kirkland,4.4,47.6797548,-122.1773861,8516 122nd Ave NE,98033,257
Great China Restaurant,4.3,47.7211111,-122.2083333,13501 100th Ave NE,98034,498
Spicy Talk Bistro Chinese Szechuan Food,4.5,47.7089033,-122.1851989,12305 120th Ave NE h,98034,382
Isarn Thai Soul Kitchen,4.4,47.6742781,-122.2058266,170 Lake St S,98033,1701
Yang’s Dumpling House,4,47.679582,-122.1773757,8510 122nd Ave NE,98033,353
Kalapaw,4.2,45.484254,-73.795811,3339 E Sources Blvd,H9B 1Z8,95
Emerald Garden Restaurant & Lounge,4.2,47.706708,-122.2097621,11842 98th Ave NE,98034,120
Fan Tang Asian Cafe,4.5,47.6659597,-122.1978738,10615 NE 68th St,98033,164
Vinason Pho Kitchen - Kirkland,4.2,47.67813,-122.1986033,499 Urban Plz,98033,111
SOI Thai Restaurant & Bar,4.3,47.6778818,-122.1985287,425 Urban Plz Ste 285,98033,116
Soupe Et Noodle,4.2,45.3609784,-73.7339648,83 Boulevard d'Anjou,J6J 2R1,117
Harmonie Orientale,4,45.4282555,-73.6294058,1615 Dollard Ave,H8N 1T3,170
Restaurant Yi Pin Xiang,4,45.5111798,-73.6774754,735 Decarie Blvd,H4L 3L3,339
Bangkok Express,3.9,45.4753247,-73.6233058,5645 Monkland Ave,H4A 1E2,646
Restaurant La Perle,4.1,45.4801722,-73.8427665,4230 Boul. Saint-Jean suite #109,H9H 3X4,261
Montrose Restaurant,3.4,45.4669372,-73.6387485,6550 Somerled Ave,H4V 1S9,125
Le Taklamakan,4.5,45.4407972,-73.6214825,7401 Newman Blvd A35,H8N 1X3,200
Montreal Chinese Crepes & Dumplings,4.7,45.4529474,-73.6451627,37 Westminster Ave N,H4X 1Y8,216
Kimbob Cafe,4.6,45.450292,-73.7678678,1771 Cardinal Ave,H9P 2W4,234
T & M Sushi Bar,4.6,45.4406947,-73.7297386,398 Chem. du Bord-du-Lac-Lakeshore,H9S 2A6,85
Restaurant Emeraude de Bangkok,4.2,45.4451975,-73.7213556,413 Av. Bourke,H9S 3W8,507
Chow's Restaurant,3.7,45.4448183,-73.7405871,335 Av. Dorval,H9S 3H6,425
Sammi & Soupe Dumpling - (Ste-Catherine St. O),4.4,45.4926923,-73.5807852,1909 Saint-Catherine St W,H3H 2E8,2440
Restaurant Park,4.7,45.4783516,-73.6029401,378 Victoria Ave,H3Z 2N4,3
Gourmet Taouk Da Fino's,3.7,45.487425,-73.5872682,1 Car Westmount,H3Z 2P9,7
Ono Pokii (poke) - Westmount,4.6,45.4779198,-73.6043902,4914 Sherbrooke St W,H3Z 1H3,281
Sushi Shop,3.3,45.476101,-73.607046,5133 Sherbrooke St W,H4A 1T2,176
Shushu Thai Bar À Nouille + Riz,4.9,45.4832963,-73.5748461,2455 Notre-Dame St W,H3J 1N6,63
Saint Sushi Westmount,4.4,45.4876824,-73.5907579,1359 Greene Ave,H3Z 2A9,303
Pick Thai,4.3,45.473579,-73.605118,5221 Boul. de Maisonneuve Ouest,H4A 0A4,425
Nouilles Dragon,4,45.4875284,-73.5873915,1 Westmount Sq,H3Z 2P9,14
Soba Restaurant,4.3,45.475,-73.6083332,5227 Sherbrooke St W,H4A 1T7,555
Sushi Bar Kim,4.5,45.4871901,-73.5881802,1 Westmount Sq,H3Z 2P9,121
Kashima sushi Restaurant,4.4,45.4864508,-73.5887137,1232 Greene Ave,H3Z 2A3,151
Park,4.3,45.4785112,-73.6027978,378 Victoria Ave,H3Z 2N4,1001
Ryu,4.4,45.4864598,-73.587807,4185 Saint-Catherine St,H3Z 3K2,253
Thai Bong,3,45.4872186,-73.5879546,"CA Québec Montréal, Westmount Sq",H3Z 2P9,2
Man Li Restaurant,3.6,45.5078103,-73.8204775,4991 Sources Blvd,H8Y 3E3,133
Szechuan Thai,4.5,45.4039588,-74.0317399,486 Av. Saint-Charles,J7V 2N7,2
Thai Express Restaurant Dollard-Des-Ormeaux,4,45.484256,-73.795583,"Promenades des Sources, 3339 Sources Blvd",H9B 1Z8,299
West Island Lanzhou Beef Noodles / West Island Nouilles au Boeuf de Lanzhou,4.7,45.4702391,-73.8312763,995 Boul. Saint-Jean,H9R 5M3,251
wok cafe des sources,3.8,45.4859382,-73.7998701,3510 Sources Blvd,H9B 1Z9,95
Subway,3.5,45.4174585,-73.9186058,90 Rue Morgan Unit A01012a,H9X 3A8,68
Ai Dumpling,4.4,45.4667907,-73.6388845,6592 Somerled Ave,H4V 1S9,268
Ming Pavillion,,45.484244,-73.629012,5255 Queen Mary Rd,H3W 2Z9,0
DELI BOYZ - Kosher,4.2,45.475526,-73.6658463,5800 Cavendish Blvd,H4W 2T5,75
Tchang Kiang by Yangtze,4,45.467883,-73.6205399,6066 Sherbrooke St W,H4A 1Y1,276
Restaurant Chez Ping,3.8,45.4424284,-73.6221739,7401 Newman Blvd,H8N 1X3,319
Kam Shing Van Horne Restaurant,4.3,45.4947932,-73.637542,4771 Ave Van Horne,H3W 1H8,659
Restaurant Souvenirs Thai,4.3,45.4134854,-74.0413963,980 Av. Saint-Charles,J7V 8P5,235
Dak Hing Barbecue,4.7,45.4952421,-73.6371092,4705 Ave Van Horne,H3W 1H8,213
Pekin Garden Restaurant,3.6,45.484244,-73.629012,5255 Queen Mary Rd,H3W 1Y3,374
Thai Express Restaurant Pointe-Claire,3.9,45.464035,-73.8313499,"CF Fairview, 6815 Trans-Canada Hwy",H9R 5J1,100
Yuan Lei Restaurant Gourmet,3.6,45.5041775,-73.8181124,4880 Sources Blvd,,134
Mui Mui Montréal,4.8,45.5331438,-73.6198701,149 Rue Jean-Talon O,H2R 2W9,192
Mama Dumplings - (Saint Jean),4.4,45.470768,-73.8317601,3597 Boul. Saint-Jean,H9G 1W9,403
Thai Express Saint-Charles Boulevard,4.1,45.448915,-73.85593,3006 Saint-Charles Blvd,H9H 3B7,238
Restaurant Hoai Huong,4.4,45.4915927,-73.6309427,5485 Victoria Ave,H3W 2P9,722
Double 8 Sushi,4.2,45.4653833,-73.6552063,7155 Côte Saint Luc Rd,H4V 1J2,77
Restaurant Mr. Spicy,4,45.4632395,-73.7833844,1701 Sources Blvd,H9R 5A2,665
Thai Express Restaurant Dollard-Des-Ormeaux,3.6,45.473541,-73.836343,3700 Boul. Saint-Jean,H9G 1X1,78
Metsuyan Sushi Express,4.1,45.475494,-73.6658729,5800 Cavendish Blvd,H4W 2T5,13
Wok Express,3.6,45.446023,-73.8143991,303 Boul. Saint-Jean,H9R 3J1,60
Sushi Sama,4.2,45.4704176,-73.6491338,6606 Côte Saint Luc Rd,H4V 1G8,39
Thai Express Restaurant Kirkland,3.5,45.4416366,-73.8900464,3410 Jean Yves St,H9J 2R6,149
Super Noodles,3.9,45.4796105,-73.6241843,5397 Côte Saint Luc Rd,H3X 2C3,140
Knot d'Asie,4.4,45.4058337,-74.0413559,3200 Bd de la Gare Suite 100,J7V 9R2,60
Fay Wong,3.8,45.465732,-73.6533975,7020 Côte Saint Luc Rd,H4V 1J3,228
Wok Cafe Kirkland,3.8,45.4580365,-73.8627326,118 Rue du Barry,H9H 4P8,583
Thai Express Restaurant L'Île-Perrot,2.9,45.387887,-73.9622691,100 Bd Don-Quichotte,J7V 6L7,225
Sunnee’s Restaurant,5,45.4265004,-73.9162023,20000 Trans-Canada Hwy,H9X 0A2,2
