Nom,totalScore,Latitude,Longitude,Rue,postalCode,reviewsCount
Via,4.4,45.5928982,-73.6288672,4711 Rue d'Amiens,,220
Pizza Hut TMR,3.2,45.5047796,-73.643123,3777 Rue Jean-Talon O,H3R 2G4,274
Pizza Dagostino,4.5,45.6247836,-73.5989825,7470 Bd Maurice-Duplessis,H1E 3Y1,248
Mikasa Sushi Bar,4,45.5620725,-73.7456195,175 Prom. Du Centropolis,H7T 0B3,559
Restaurant Homa - Apportez votre vin,4.3,45.5813701,-73.5309443,6830 Rue Hochelaga,H1N 1Y4,259
Giulietta Pizzéria,4.1,45.600357,-73.6095199,5950 Bd des Grandes-Prairies,H1P 1A2,301
Restaurant Rizière,4.8,45.520141,-73.5862005,4495 St Laurent Blvd,H2W 1Z8,355
Pizza 4 Frères,4.1,45.5887641,-73.5598754,6646 Rue Beaubien E,H1M 3B3,433
Caffe Un Po' Di Piu,4.4,45.5055737,-73.5532532,3 Rue de la Commune E,H2Y 0B1,378
Nouveau Chaumont,4.2,45.609809,-73.548106,8621 Av. Chaumont,H1K 1N3,134
Pizza Il Focolaio,4.6,45.504014,-73.56821,1223 R. du Square-Phillips,H3B 3E9,4994
Restaurant Paragon (Jarry),3.9,45.5766222,-73.5976505,4640 Rue Jarry E,H1R 1X3,457
Pizza Roma,4,45.5397268,-73.6335852,8251 St Laurent Blvd,H2P 2M1,226
Deuxlux,4.3,45.53722,-73.6072235,"6703 de, Av. De Chateaubriand",H2S 2N9,175
Gerry's Delicatessen,3.9,45.5493194,-73.5416597,3982 Ontario St E,H1W 1S9,1331
Restaurant Shekz,4.2,45.6234916,-73.6011289,7272 Bd Maurice-Duplessis,H1E 4A7,185
Knuckles Cantine & Vins,4.7,45.5412618,-73.6301822,241 Rue Jarry E,H2P 1T6,188
Pizza Ekoo,3.7,45.6177753,-73.6151489,11861 Bd Langelier,,142
Sushi Shoten Beaubien,5,45.5546375,-73.5862681,3226 Rue Beaubien E,H1Y 1H7,133
L'Usine de Spaghetti,4.4,45.5081871,-73.5522983,273 Rue Saint-Paul E,H2Y 1H2,2073
La Baia Dei Formaggi,4.7,45.5475363,-73.6076594,1715 Rue Jean-Talon E,H2E 1T3,229
Le Rose-Marie,4.6,45.5277986,-73.5497258,"Entrée sur Maisonneuve, 1550 Rue Fullum",H2K 3M4,279
Antipode,4.7,45.5351113,-73.5820662,1602 Laurier Ave E,H2J 1H9,222
Rooftop Bates Restaurant,4.8,45.5163448,-73.6274538,184 Ch. Bates,H2V 1B2,11
Panthère Verte / Green Panther Organic Plant Based Restaurant,4.4,45.5271629,-73.5974463,160 St Viateur St. E,H2T 1A8,937
Larrys,4.5,45.5241343,-73.5948195,5201 St Laurent Blvd,H2T 1S4,847
Capitaine Sandwich,4.8,45.5183185,-73.5783183,"4050 de, Rue de Bullion",H2W 2E5,270
Le Virunga,4.6,45.5240844,-73.5761953,851 Rue Rachel E,H2J 2H9,264
Wilensky's Light Lunch Inc,4.6,45.5233617,-73.5947831,34 Av. Fairmount O,H2T 2M1,902
Café chez Téta,4.8,45.5202377,-73.5799072,227 Rue Rachel E,H2W 1E4,464
Caffé Grazie-Mille Fairmount,4.6,45.5231759,-73.5949513,58 Av. Fairmount O,H2T 2M2,312
Fenêtre Sur Kaboul,4.3,45.5244013,-73.5759543,901 Rue Rachel E,H2J 2J2,673
Rites Berberes Restaurant,3.5,45.5230505,-73.5877811,4697 Rue de Bullion,H2T 1Y8,81
Pizza Pizza,3.5,45.520197,-73.597488,5184 Park Ave,H2V 4G6,359
Khyber Pass Restaurant,4.5,45.5218722,-73.5746611,506 Duluth Ave E,H2L 1A7,1411
La Maison Grecque,4.2,45.5213236,-73.5752217,450 Duluth Ave E,H2L 1A5,889
La Marinara Express,5,45.5203438,-73.5909048,4808 Rue Saint-Urbain,H2T 2W2,1
Monsieur B,4.1,45.525025,-73.586277,371 Rue Villeneuve E,H2J 2L5,319
Rita,4.6,45.4670473,-73.5667602,3681 Wellington St,H4G 1V1,624
Cora,4,45.530719,-73.576485,1396 Mont-Royal Ave E,H2J 1Y7,638
Pizza Madona,3.9,45.5330207,-73.5528586,2002 Rue Frontenac,H2K 1W5,130
Pizza YE,4.2,45.6045547,-73.5305616,8715 Sherbrooke St E,H1L 1C1,319
Café Buongiorno,4.7,45.5855152,-73.5802969,5833 Rue Jean-Talon E,H1S 1M4,57
Cafe Baristello Jarry,4.9,45.545604,-73.627263,709B Rue Jarry E,H2P 1W2,268
Da Enrico Pizzeria,3.5,45.5340954,-73.6095437,264 Rue Saint-Zotique E,H2S 1L3,198
BOSSA Prêt à manger,4.8,45.5495144,-73.5736802,3136 Rue Masson,H1Y 1X8,248
Restaurant Le Vieux Four de Laval,4.3,45.6114084,-73.6449366,5070 Boul Lévesque E,H7C 1N1,716
Les Deux Fours,4.3,45.5512989,-73.599495,2379 Bélanger Est,H2G 1E4,749
Pizza Le Regal,3.9,45.598169,-73.6399801,4334 Boul Henri-Bourassa E,H1H 1L8,76
Restaurant Buon Gusto Inc,4.6,45.599898,-73.684043,2495 Boul Saint-Martin Est,H7E 4X6,631
Gema Pizzeria,4.5,45.5333468,-73.6129903,6827 Saint Dominique St.,H2S 3B1,1111
Martini Pizzeria,4.2,45.5503452,-73.6509733,9481 Rue Lajeunesse,H2M 1S5,424
Moccione Pizza,4.8,45.5404455,-73.6230275,380 Rue Villeray,H2R 1G9,64
Primo & Secondo,4.6,45.5344664,-73.615481,7023 Saint Dominique St.,H2S 3B6,159
Restaurant La Corvette,4.2,45.5471227,-73.5756414,2801 Rue Masson,H1Y 2S8,351
Pizzeria Napoletana,4,45.5343792,-73.612602,189 Rue Dante,H2S 1K1,3180
Miteras Pizzeria,3.9,45.5446631,-73.587619,2320 Bd Rosemont,H2G 1T8,237
Café Novanta,4.8,45.5219632,-73.593476,90 Av. Laurier O,H2T 2N4,146
Clébard,3.8,45.5245968,-73.5836371,4557 Saint Denis St,H2J 2L4,1115
Juliette & Chocolat,4.2,45.5138499,-73.5727642,3600 St Laurent Blvd,H2X 2V4,2392
Aldea,4.6,45.519576,-73.5848344,4403 St Laurent Blvd,H2W 1Z8,385
Restaurant Zaika,4.3,45.5221345,-73.5776314,420 Rue Rachel E,H2J 2G7,318
Smile Chez Clara,4.4,45.5256278,-73.5987806,5486 St Laurent Blvd,H2T 1S1,218
La Petite Marche,4.1,45.5267457,-73.5886482,5035 Saint Denis St,H2J 2L9,1227
ACROPOLIS PIZZA - Resto Grec / Italien,3.6,45.5940501,-73.5499639,7291 Av. de la Malicorne,H1M 1H2,424
Aux Iles Bleues,4.4,45.5233028,-73.5733833,900 Duluth Ave E,H2L 1B6,271
Le Square,4.2,45.515444,-73.5710385,162 Rue Prince-Arthur E,H2X 1B7,368
Fameux Viande Fumée Et Charcuterie,3.8,45.523861,-73.583154,4500 Saint Denis St,H2J 2L3,755
La Prunelle,4.1,45.5201265,-73.5766065,327 Av. Duluth E,H2W 1J1,626
Bistro Tôt ou Tard,4.5,45.5215834,-73.5664997,1030 Rue Cherrier,H2L 1H7,1543
Pizzeria Zac Végane | Vegan Pizza,4.8,45.5171696,-73.5790995,8 Duluth Ave E,H2W 1G6,175
Chez Victoire,4.5,45.5310956,-73.5765248,1453 Mont-Royal Ave E,H2J 1Z1,822
Restaurant Salonica,3.1,45.5280837,-73.5915598,5261 Saint Denis St,H2J 2L8,279
Casa Del Popolo,4.4,45.5221793,-73.5905247,4873 St Laurent Blvd,H2T 1R6,700
Restaurant coréen Luna/Korean Restaurant Luna- Apportez votre vin/ Bring your own wine,4.7,45.5246069,-73.575802,"CA, 917 Rue Rachel E",H2J 2J2,598
Restaurant Pizzeria Hochelaga,4.1,45.5593846,-73.5441493,4743 Rue Hochelaga,H1V 1E2,350
Café San Gennaro,4.7,45.5328169,-73.6112888,69 Rue Saint-Zotique E,H2S 1K7,954
Mirazu,4.4,45.5241379,-73.5948184,5215 St Laurent Blvd,H2T 1S4,560
Cafe Gentile Chabanel,4.5,45.5383638,-73.6544177,9299 Park Ave,H2N 2A2,1033
Diane Deli & Grill Restaurant,3.9,45.6262305,-73.5019901,10941 Notre-Dame St. East,H1B 2V1,356
Place Tevere,3.1,45.5916674,-73.5414882,7275 Sherbrooke St E,H1M 2S5,19
Lucca,4.8,45.5328814,-73.6135204,12 Rue Dante,H2S 1J5,427
Pizzeria Cortina,4.2,45.638789,-73.579428,8660 Bd Maurice-Duplessis,H1E 3L1,233
Brama - Usine à bouffe,4.9,45.5449878,-73.6603738,9850 Rue Saint-Urbain Local 101,H3L 2T2,152
La Grotte des Fromages,4.6,45.5799298,-73.5960971,4919 Rue Jarry E,H1R 1Y1,218
Industria Pizzeria + Bar,4.1,45.600662,-73.564402,"Les Galeries d'Anjou, 7999 Bd des Galeries d'Anjou",H1M 1W9,776
Pizza Campanello,4.8,45.5442995,-73.6284835,587 Rue Jarry E,H2P 1V6,228
Art Kebab,4,45.5708535,-73.5873908,4528 Rue Jean-Talon E,H1S 1K2,135
Resto Chez Tony,4.6,45.5851273,-73.570944,6083 Rue Bélanger,H1T 3T4,14
Restaurant La Veranda pizzeria,4.4,45.6097417,-73.6114449,6363 Boul Henri-Bourassa E,H1G 2V5,172
Broadway Pizzeria,3.5,45.6037786,-73.5310839,8655 Sherbrooke St E,H1L 1B8,471
Le Filet,4.7,45.5180412,-73.588493,219 Mont-Royal Ave W,H2T 2T2,583
La Sirene de la Mer,4.4,45.5161111,-73.6302778,114 Av. Dresden,H3P 2B6,1028
Napoli Pizzeria,3.7,45.51536,-73.563689,1675 Saint Denis St,H2X 3K4,661
Bistro 360,4.3,45.5428223,-73.5463611,3353 Ontario St E,H1W 1P8,299
Pizza Momo,4,45.5102706,-73.5706511,173 Sherbrooke St W,H2X 1X4,461
India Rosa,4.5,45.5292766,-73.5782363,1241 Mont-Royal Ave E,H2J 1Y2,1860
Pizza Nino,4.3,45.453026,-73.5937942,6588 Bd Monk,H4E 3J1,547
Café Bistro Roccella,4.8,45.5332378,-73.5838209,1322 Laurier Ave E,H2J 1H3,19
Villa Armando,4.5,45.5089704,-73.6606522,3201 Graham Blvd,H3R 1K1,222
L'Avenue,4.6,45.526695,-73.580273,922 Mont-Royal Ave E,H2J 1X1,3661
Atlas Pizza,4,45.5233625,-73.5736532,4051 St Andre St,H2L 3W4,383
Pizza Toni,4.5,45.5244075,-73.6000101,104 Rue Saint- Viateur O,H2T 2L1,502
Bis Ristorante,4.4,45.4977498,-73.574221,1229 Rue de la Montagne,H3G 1Z2,513
Vincent Sous-Marins Montréal-Nord,4,45.5951138,-73.6436114,4031 Boul Henri-Bourassa E,H1H 1L2,430
Philinos Restaurant,4.4,45.5181835,-73.5929208,4806 Park Ave,H2V 4E7,414
HÀ Mont-Royal,4.3,45.51775,-73.5888222,243 Mont-Royal Ave W,H2T 2T2,638
La Binerie Mont-Royal,4.5,45.5217603,-73.5776943,4167 Saint Denis St,H2W 2M7,784
Roseline - Bar à Vin,4.4,45.5224649,-73.591968,5014 St Laurent Blvd,H2T 1R7,148
Restaurant Pho Mont Royal,4,45.5311406,-73.5764545,1459 Mont-Royal Ave E,H2J 1Y9,410
Pizzeria Dei Compari,4.5,45.5149925,-73.5637476,1668 Saint Denis St,H2X 3K4,2034
Le Richmond,4.1,45.488753,-73.56675,377 Ave Richmond,H3J 1T9,945
Bacaro Pizzeria - Monkland,3.9,45.4716464,-73.6262112,5950 Monkland Ave,H4A 1G8,536
Café Milano Montréal,4.5,45.582135,-73.592961,5188 Rue Jarry E,H1R 1Y4,2330
Marconi Pizzeria,4.3,45.5465764,-73.5935009,2222 Rue Beaubien E,H2G 1M7,983
Impasto,4.3,45.5331078,-73.613192,48 Rue Dante,H2S 1J6,561
Beniamino Traiteur & Restaurant,4.7,45.596404,-73.585521,8279 Boul Langelier,H1P 2B7,157
Restaurant Corneli,4.4,45.532248,-73.612363,6741 St Laurent Blvd,H2S 3C7,2037
Restaurant L'Académie,3.8,45.597257,-73.561709,7275 Bd des Galeries d'Anjou,H1M 2W2,1556
"Pizzéria NO.900 - Fleury, Montréal",4.1,45.558075,-73.659359,1021 Rue Fleury E,H2C 1P8,687
Pizzeria Geppetto Beaubien,4.3,45.5491018,-73.5912942,2510 Rue Beaubien E,H1Y 1G2,576
Surprise Pizza,4,45.5955598,-73.5347437,7868 Sherbrooke St E,H1L 1A5,184
Cafe Danesi,4.5,45.6233899,-73.6019298,7244 Bd Maurice-Duplessis,H1E 4A7,167
Restaurant Vesta,4.3,45.5408712,-73.6299498,206 Rue Jarry E,H2P 1T5,366
Da Lillo,4.3,45.544635,-73.6281821,615 Rue Jarry E,H2P 1V8,749
Du Boucher a la Table,4.5,45.5799298,-73.5960971,4919 Rue Jarry E,H1R 1Y1,715
Bagatelle Bistro Apportez votre vin,4.5,45.5529052,-73.539774,4323 Ontario St E,H1V 1K5,962
L’Entrepôt Mont-Royal,4.1,45.5276358,-73.5797401,1019 Mont-Royal Ave E,H2J 1X7,2992
Stella pizzeria,4.7,45.5410421,-73.6081784,1100 Rue Bélanger,H2S 2H3,78
Tuscolo,4.2,45.4976891,-73.5772199,1466 Crescent St,H3G 2B7,233
Casa Grecque,3.9,45.515872,-73.570836,200 Rue Prince-Arthur E,H2X 1B9,896
Restaurant La Raclette,4.4,45.5295646,-73.5828915,1059 Rue Gilford,H2J 1P7,581
Comptoir 400 (Mile End),4.7,45.5214498,-73.6000991,5329 Park Ave,H2V 4G9,243
Restaurant La Popessa,4,45.5055392,-73.5586762,115 Rue Saint-Antoine O,H2Z 1K4,208
Osteria Gallo,4.8,45.5454577,-73.6244166,7950 Rue St-Hubert,H2R 2P3,146
Pasta Casareccia,4.4,45.4695396,-73.6182876,5849 Sherbrooke St W,H4A 1X4,511
Slice + Soda,4.1,45.5249651,-73.5995243,56 Rue Saint- Viateur O,H2T 2K8,175
Moleskine,4.4,45.5083794,-73.5716646,3412 Park Ave,H2X 2H5,672
Restaurant Mont-Royal Hot Dog,3.8,45.5275137,-73.5798293,1001 Mont-Royal Ave E,H2J 1X7,762
Pizza Mega,4,45.5334826,-73.5739079,1856 Mont-Royal Ave E,H2H 1J1,188
Bacaro Pizzeria Express - Rockland,3.6,45.5281968,-73.6481237,2305 Rockland Rd local 5614,H3P 3E9,59
Resto Capucine,4.4,45.619387,-73.6095141,7000 Bd Maurice-Duplessis,H1G 0A1,90
PIZZA MOTTA,4.3,45.536249,-73.6133589,303 Av. Mozart E,H2S 2V8,857
Le Muscadin,4.8,45.5074838,-73.5538224,443 R. Saint-Vincent,H2Y 3A6,259
Pizzéria NO.900,4.4,45.5344502,-73.5831626,1481 Laurier Ave E,H2J 1H8,626
Trattoria La Villetta,4.3,45.5123447,-73.6932531,1898 Boulevard Thimens,H4R 2K2,189
Mucca,4.8,45.5338047,-73.6098032,236 Rue Saint-Zotique E,H2S 1L1,167
Antonietta,4.7,45.5444548,-73.5997081,6672 Av. Papineau,H2G 2X2,211
Il Bazzali,4.5,45.532834,-73.606244,285 Rue Beaubien E,H2S 1R7,634
Hollywood Pizzeria,4.2,45.6295892,-73.5867298,8011 Av. Blaise-Pascal,H1E 3X7,251
Bacaro Pizzeria - St-Léonard,4.3,45.5949813,-73.5719869,6820 Rue Jean-Talon E,H1S 0A5,266
Restaurant Paolino,4.7,45.5413758,-73.6369352,8497 Saint Dominique St.,H2P 2L4,99
Restaurant Fresco,4.3,45.6012356,-73.6094962,"1A2, 6040 Bd des Grandes-Prairies",H1P 1A2,262
Elvita Italian Fusion Cuisine,4.7,45.5484703,-73.5748761,2931 Rue Masson,H1Y 1X5,221
Chez Dany Pizza,3.9,45.5227246,-73.5806002,4348 Saint Denis St,H2J 2K8,286
Da Bologna Pizzeria,4.5,45.6004131,-73.6248203,5185 Rue de Charleroi,H1G 3A2,614
Restaurant La Molisana,3.8,45.557943,-73.6591053,1014 Rue Fleury E,H2C 1P7,427
Slice + Soda,4,45.5159852,-73.5766241,3845 St Laurent Blvd,H2W 1X6,113
Restaurant le Colbert,4.3,45.5437425,-73.6110972,1235 Rue Jean-Talon E,H2R 1W1,390
Pizza Tifosi Rachel,4,45.533032,-73.5673489,2113 Rue Rachel E,H2H 1R1,949
La Medusa,4,45.4979333,-73.5731121,1218 Drummond St,H3G 1V7,426
Graffiti's Restaurant-Bar,2.4,45.5988121,-73.572716,8100 Av. de Neuville,H1J 2T2,9
Restaurant Sandhu,3.9,45.5331631,-73.5755876,4548 Av. Papineau,H2H 1V3,712
Pasta Express,4.2,45.5627225,-73.6566164,1501 Rue Fleury E,H2C 1S5,539
Pizza St-Viateur,4.3,45.5269457,-73.6027105,27 Rue Bernard O,H2T 2J6,551
La Marinara,4.2,45.4986232,-73.5722892,1218 Stanley St,H3B 2S7,245
Pasta E Pasta,4,45.5202208,-73.5965652,5145 Park Ave,H2V 4G3,23
Restaurant Moccione,4.9,45.540075,-73.6199398,7495 Saint Denis St,H2R 2E5,426
Restaurant Le Saint-Jacques,4.8,45.57812,-73.5499647,6001 Rue de Jumonville,H1M 1R5,308
Royal Sous-Marins,4,45.5270426,-73.6022612,10 Rue Bernard O,H2T 2J7,139
Barcola Bistro Audio - Audio Foodies - Italian Restaurant - Tasting Menu,4.6,45.5227766,-73.602948,5607 Park Ave,H2V 4H2,176
Pizzeria Magpie Mile End,4.4,45.5246946,-73.5955078,16 Maguire St,H2T 1B8,826
Restaurant Vincent,4,45.5927414,-73.5921482,6005 Bd Robert,H1P 1M9,320
Le Restaurant New Milano,4.1,45.5815544,-73.539505,6625 Rue de Marseille,H1N 1M1,308
Tiramisu,4,45.5078904,-73.559039,989 St Laurent Blvd,H2Z 1J4,454
Sorino (Apportez votre vin - BYOW),4.5,45.5210878,-73.575721,411 Av. Duluth E,H2W 2M7,133
Diabolissimo,4.8,45.5293644,-73.5776784,1256 Mont-Royal Ave E,H2J 1Y3,127
Eduardo Duluth,4,45.5209817,-73.5755734,404 Duluth Ave E,H2L 1A3,613
Stella Pizzeria,4.4,45.533423,-73.584177,1327 Laurier Ave E,H2J 1H4,692
Bacaro Pizzeria - Lucerne,4.3,45.5058862,-73.6614613,2358 Lucerne Rd,H3R 2J8,296
La Panzeria Café - Panzerotti - Cuisine,4.8,45.5208609,-73.5766261,4084 Saint Denis St,H2W 2M5,331
Le Pontiac,4.3,45.5254096,-73.5819774,701 Mont-Royal Ave E,H2J 1W7,315
Pizzédélic Mont-Royal,4.2,45.529351,-73.5777851,1250 Mont-Royal Ave E,H2J 1Y3,863
Mammina Pizzeria,4.4,45.6052192,-73.6356005,4972 Bd Léger,H1G 1J6,290
Alto Restaurant,4.4,45.5092624,-73.5727453,3469 Park Ave,H2X 2H6,800
Lasagne du Plateau,4.7,45.519331,-73.5946561,5007 Park Ave,,71
Fiorellino (Laurier),4.1,45.5191313,-73.5967169,381 Av. Laurier O,H2V 2K3,418
Elio Pizzeria,4.4,45.5320694,-73.6026667,351 Rue de Bellechasse,H2S 1X1,2102
Restaurant La Piccola,4.2,45.5705889,-73.6514133,2050 Rue Fleury E,H2B 1J3,390
Kesté,4.3,45.5209321,-73.5974551,275 Av. Fairmount O,H2V 0A1,647
Drogheria Fine,4.5,45.5229987,-73.595104,68 Av. Fairmount O,H2T 2M2,788
Il Pagliaccio,4.6,45.5193568,-73.5962759,"Canada, 365 Av. Laurier O",H2V 2K5,130
Il Miglio,4.5,45.5243401,-73.5951136,5235 St Laurent Blvd,H2T 1S4,198
Pizzeria Etc,4.4,45.6174677,-73.5936881,7303 Boul Henri-Bourassa E,H1E 2Z6,150
Restaurant Panzzerotti,4.6,45.550559,-73.6049599,2115 Rue Jean-Talon E,H2E 1V4,300
Chez Di Vito‎,4.2,45.518483,-73.5926569,4815 Park Ave,H2V 4E7,82
Restaurant Nouveau Paragon Beaubien,4.2,45.5871657,-73.5616835,6491 Rue Beaubien E,H1M 1B1,123
Prima Luna,4.4,45.6173799,-73.5939941,7301 Boul Henri-Bourassa E,H1E 2Z6,600
Pacini Langelier,4,45.5823283,-73.543642,6583 Sherbrooke St E,H1N 1C5,1410
Artigiani,4.4,45.524973,-73.5847663,4657 Saint Denis St,H2J 2L5,658
Buona Sera,4.1,45.6051035,-73.6262521,5337 Boul Henri-Bourassa E,H1G 2T1,687
Maison des Pâtes Fraîches (la),4.6,45.5242688,-73.5760882,865 Rue Rachel E,H2J 2H9,731
Resto Le Quattro,4.7,45.5852797,-73.6349117,3943 Rue Fleury E,H1H 2T8,116
Amelias,4.4,45.5107415,-73.5726663,201 Rue Milton,H2X 1V5,723
Bacaro Pizzeria - Plateau Mont-Royal,3.8,45.5297527,-73.5771627,1302 Mont-Royal Ave E,H2J 1Y5,224
La Maison Des Pâtes Fraîches,4.3,45.533918,-73.573915,1887 Mont-Royal Ave E,H2H 2N9,119
La Pizzaiolle (Ville Mont-Royal),4.4,45.5162972,-73.6434944,1275 Chem. de Dunkirk,H3R 3L3,1295
Restaurant Pizzarella,4.3,45.6425737,-73.5552433,9580 Boul Henri-Bourassa E,H1E 2S4,193
Trattoria Il Ritrovo,4.6,45.5789106,-73.6449491,2895 Rue Fleury E,H2B 1M1,259
Heirloom Vin & Pizza,4.5,45.5493972,-73.5420583,3991 Ontario St E,H1W 1T1,1149
Gallo Nero Restaurant Trattoria,4.5,45.5815971,-73.5933888,5138 Rue Jarry E,H1R 1Y4,252
Pizzeria Gusto,4.5,45.5817978,-73.593202,5152 Rue Jarry E,H1R 1Y4,317
Tomate Basilic Pointe aux Trembles,4.4,45.6509867,-73.5120378,12585 Sherbrooke St E,H1B 1C8,1221
Restaurant Per Te,4.7,45.5431391,-73.6327092,371 Rue Guizot E,H2P 2G9,111
Luciano Trattoria,4.8,45.5403247,-73.6038394,1212 Rue Saint-Zotique E,H2S 1N5,375
La Bella Italiana,4.6,45.5857283,-73.579659,5884 Rue Jean-Talon E,H1S 1M2,903
Restaurant Il Pazzesco,4.4,45.6006383,-73.5770093,7031 Rue Jarry E,H1J 1G3,431
Restaurant San Marzano,4.5,45.6381607,-73.5795338,11935 Av. Rita-Levi-Montalcini,H1E 5K7,162
Enoteca Monza Pizzeria Moderna,4.5,45.572415,-73.5487984,5660 Sherbrooke St E,H1N 1A1,504
Restaurant Panuozzo,4.6,45.5155718,-73.5766009,3820 St Laurent Blvd,H2W 1X6,226
Cuisine Pronto MTL,4.5,45.534926,-73.5728731,2025 Mont-Royal Ave E,H2H 1J7,220
Lafayette Pizzeria,4.1,45.5258484,-73.6031747,112 Rue Bernard O,H2T 2K1,335
Resto Mini Moushi,,45.5202266,-73.5742095,3917 Saint Denis St,H2W 2M3,0
La casina,4.3,45.5209241,-73.5998767,5314 Park Ave,H2V 4G7,204
Restaurant Di Menna,4.2,45.5934833,-73.5831939,6313 Rue Jarry E,H1P 1W1,540
Bacaro Pizzeria - Lachine,4,45.4357185,-73.6876638,2825 Victoria St,H8S 1Z3,463
Almira Pizza,,45.4396899,-73.7353614,642 Chem. du Bord-du-Lac-Lakeshore,H9S 2B6,0
Trattoria Bellamore,4.6,45.5212251,-73.7942306,270 Blvd. Samson,H7X 2Y9,302
Ristorante Donato,4.6,45.4795183,-73.6032448,4825 Sherbrooke St W,H3Z 1G6,101
Andrea Ristorante Lachine,3.7,45.4339641,-73.691874,3194 Bd Saint-Joseph,H8S 2P4,322
Cuisine Locale Cafe,4.9,45.4675868,-73.611723,5795 Upper Lachine Rd,H4A 2B1,178
Mardin Palace,4.4,45.558509,-73.7440183,3010 Boulevard Saint-Martin O,H7T 2J2,850
Adar Supermarket,4.3,45.4609985,-73.6668486,5634 Av. Westminster,H4W 2J3,217
Tim Hortons,3.7,45.471171,-73.6477572,6500 Côte Saint Luc Rd,H4V 1G2,322
Solaris Resto-Bar,4.3,45.4869865,-73.6354687,5487 Decarie Blvd,H3W 3C6,275
Pizza Kazza,4.7,45.5937365,-73.3353666,509 Av. Jules-Choquet,J3E 1W6,288
McDonald's,3.3,45.4662435,-73.653643,7003 Côte Saint Luc Rd,H4V 1J2,1265
Manzo Pizzeria,4.4,45.4274165,-73.6391901,1033 90e Avenue,H8R 3A4,707
Chicago Pizza,3.8,45.453015,-73.646031,54 Westminster Ave N,H4X 1Z2,154
Côte St Luc BBQ,4.3,45.4972597,-73.8114329,4360-E Sources Blvd,H8Y 3B7,602
Jérusalem Express,3.7,45.4754376,-73.6659217,5800 Cavendish Blvd,H4W 2T5,49
Restaurant Lou Nissart,4.6,45.5358776,-73.5088795,260 Rue Saint-Jean,J4H 2X5,325
Restaurant O'Sharkcoal,4.4,45.341489,-73.2713648,87 Bd Saint-Luc,J2W 1E2,138
Pizza Welat,4.1,45.4678213,-73.6386758,6509 Somerled Ave,H4V 1S7,362
Fay Wong,3.8,45.465732,-73.6533975,7020 Côte Saint Luc Rd,H4V 1J3,227
Pendeli's,4.2,45.5103224,-73.6741287,1401 College St,H4L 2L5,309
Subway,3.7,45.4654945,-73.6552386,7155 Côte Saint Luc Rd,H4V 1S2,116
Mariposa,4.6,45.4789985,-73.6239793,5434 Côte Saint Luc Rd,H3X 2C5,98
Côte St Luc BBQ,4.2,45.479516,-73.624371,5403 Côte Saint Luc Rd,H3X 2C3,458
LeyLeyMtl @ Elna,4.3,45.4909543,-73.6506195,6900 Bd Décarie m240,H3X 2T8,47
Subway,3.7,45.4757768,-73.6659717,5800 Boul Cavendish E-02,H4W 2T5,23
Sushi Sama,4.2,45.4704176,-73.6491338,6606 Côte Saint Luc Rd,H4V 1G8,39
Toto Pizzeria,5,45.4918778,-73.5653558,1380 Notre-Dame St W,H8S 2C8,2
Restaurant St-Jean Pizzeria,4.3,45.2936715,-73.2561445,10 Rue Jacques-Cartier S,J3B 6S4,1125
Double 8 Sushi,4.2,45.4653833,-73.6552063,7155 Côte Saint Luc Rd,H4V 1J2,77
DELI BOYZ - Kosher,4.2,45.475526,-73.6658463,5800 Cavendish Blvd,H4W 2T5,74
L'in-time,4.6,45.4581912,-73.5675501,4619 Wellington St,H4G 1X1,264
Calzone pizza,4.5,45.4595987,-73.864506,3713 Saint-Charles Blvd,H9H 4M2,369
Coronet Pizza,4.6,45.5196677,-73.697455,1671 Rue Poirier,H4L 1J2,208
Tanoura Restaurant,4.2,45.4800119,-73.8425552,4230 Boul. Saint-Jean,H9H 3X4,145
Restaurant La Piazza,4.5,45.5129511,-73.7121246,2525 Rue des Nations,H4R 3C8,189
Delish - Breakfast & Lunch,4.3,45.4834079,-73.7905757,3237 Sources Blvd,H9B 1Z6,180
Madisons Restaurant & Bar,4.1,45.485883,-73.801349,11590 Salaberry Blvd,H9B 2R8,932
Le Vieux Four Manago,4.3,45.4573275,-73.8645412,3636 Saint-Charles Blvd,H9H 3C3,1022
Pizzeria Bros (West Island),4.6,45.4524928,-73.8566839,16952 Trans-Canada Hwy,H9H 0C5,219
Susanna Trattoria,4.6,45.4632164,-73.8699826,4563 Saint-Charles Blvd,H9H 3C7,90
Pizza Hut Dollard des Ormeaux,3.4,45.4777289,-73.8386695,4073 Boul. Saint-Jean,H9G 2R4,182
Resto-Pub,,45.4880164,-73.8490837,Boul. Saint-Jean,H9H 2A7,0
Pizza Spano,4.5,45.4908379,-73.7770956,1360 Sunnybrooke Blvd,H9B 2W5,562
Tevere Express,3.6,45.4910633,-73.8518974,4920 Boul. Saint-Jean,H9H 4B2,80
Pizza Salvatoré,4,45.4852075,-73.7963073,3343 Bd des Sources E,H9B 1Z8,342
Bistro Cavendish,4.1,45.4757776,-73.6654592,5800 Cavendish Blvd,H4W 2T5,17
Pizza Center,3.6,45.4793534,-73.5585437,1992 Wellington St,H3K 1W6,147
Pizza Hut Montreal,3.4,45.4703905,-73.6490258,6600 Côte Saint Luc Rd,H4V 1G8,177
Domino's Pizza,3.9,45.4789102,-73.6250406,5488 Côte Saint Luc Rd,H3X 2C7,425
Al Dente Trattoria,4,45.4735942,-73.6243961,5768 Monkland Ave,H4A 1E9,328
Restaurant Grigio,3.7,45.3412666,-73.2853088,1265 Rue Douglas,J2W 1C7,180
Pacini,4.3,45.3322448,-73.2802124,575 Rue Pierre-Caisse,J3A 1P1,1061
Domino's Pizza,4.1,45.4666137,-73.6555269,7155 Côte Saint Luc Rd,H4V 1J2,295
St-Luc Pizzeria Enr,4.4,45.3490583,-73.2918667,40 Rue Moreau,J2W 1H9,700
Kosher Pizza Bar,4,45.4756202,-73.6657907,5800 Cavendish Blvd,H4W 2T5,62
Restaurant Mamma Mia Pizzeria,4.4,45.4762081,-73.6399933,6070 Côte Saint Luc Rd,H3X 2G8,133
Pendeli's Pizza,4.2,45.4785648,-73.6290139,5599 Côte Saint Luc Rd,H3X 2C9,472
Trattoria Romantica,4.3,45.5201626,-73.8127123,654 Chem. du Bord-de-l'Eau,H7X 1V3,152
Restaurant Maurizio,4.1,45.4452923,-73.8527711,2738 Saint-Charles Blvd,H9H 3B6,348
Pizza Nikkos,4.3,45.4801259,-73.8404332,4279 Boul. Saint-Jean,,352
Pizza Gusta Dorval,4.4,45.4405526,-73.7304599,444 Chem. du Bord-du-Lac-Lakeshore,H9S 2A6,527
Cavallaro DDO - Pizza - Cheese Meat Market - Olive Oils - Bulk Coffee Teas - Cheese Trays Catering,4.5,45.4847131,-73.8030428,11722 Salaberry Blvd,H9B 2R8,193
Place Tevere,2.8,45.4645881,-73.8320083,6815 Trans-Canada Hwy,H9R 5J2,31
Birreria ITALI.CO,4,45.4979517,-73.7054538,3131 Boulevard Cote Vertu Ouest,H4R 1Y8,1075
DelMonaco,4.4,45.4481657,-73.855049,2968 Saint-Charles Blvd,H9H 3B7,89
Trattoria Mario,4.6,45.4701353,-73.6082217,5545 Upper Lachine Rd,H4A 2A5,211
Mundo Trattoria,4.5,45.454946,-73.859615,17003 Trans-Canada Hwy,H9H 5J1,267
Pizza Mira,4.2,45.4796573,-73.8423159,4228 A Boul. Saint-Jean,H9G 1X5,30
La Campagnola,4.5,45.4285447,-73.6311595,1708 Dollard Ave,H8N 1T8,658
Basilico Italien Express,,45.4851383,-73.8029442,11680 Salaberry Blvd,H9B 2R8,0
Bistro Amerigo,4.7,45.4700905,-73.6281285,6127 Monkland Ave,H4A 1H5,624
Gigi Pizzeria,4.4,45.4287372,-73.8264187,302 Chem. du Bord-du-Lac-Lakeshore,H9S 4L5,744
Pronto Pret A Manger,4.9,45.4757115,-73.8127331,823 Tecumseh St,H9R 4X8,62
Pastamore,4.3,45.4855403,-73.7968125,M-3343 Sources Blvd,H9B 1Z8,552
Il Fornetto,4.3,45.4331696,-73.6815857,1900 Bd Saint-Joseph,H8S 2N5,1085
Enoteca Monza Pizzeria Moderna,4.2,45.4741549,-73.8368847,3800 Boul. Saint-Jean,H9G 1X1,1273
Bar Laitier Nonna,4.8,45.447793,-73.751249,475 Av. Dumont suite 102,H9S 5W2,106
La Serenata Restaurant,4.5,45.4847618,-73.7950741,53 Brunswick Blvd,H9B 1P7,320
Riccardos Restaurant,4.5,45.4776171,-73.8385487,4071 Boul. Saint-Jean,H9G 2R4,413
2M Pizza Dorval - Online order !,4.2,45.4451585,-73.721367,419 Av. Bourke,H9S 3W8,460
Restaurant L'Academie Pointe-Claire,3.7,45.4673779,-73.8242569,6321 Trans-Canada Hwy #129,H9R 5A5,1020
Piazza Romana,3.9,45.4287296,-73.8283659,339 Chem. du Bord-du-Lac-Lakeshore,H9S 4L6,576
Del Friscos,4.3,45.4831286,-73.7939546,3237 Sources Blvd,H9B 1Z6,1163
La Verità,4.7,45.4851383,-73.8029442,11680 Salaberry Blvd,H9B 2R8,553
Scarolies Pasta Emporium,4.5,45.4684384,-73.830915,950 Boul. Saint-Jean,H9R 5N8,2291
Taormina lounge,4.5,45.4343279,-73.6867122,2530 Bd Saint-Joseph,H8S 2N9,484
Boulangerie Non Solo Pane,4.6,45.4408724,-73.7311293,455 Chem. du Bord-du-Lac-Lakeshore,,584
Pizza Dorval Cucina San Leone,4.5,45.4489038,-73.7775584,490 Bd Strathmore,H9S 2J4,130
Restaurant Bar Focaccio,4.3,45.4530106,-73.735611,490 Michel Jasmin Ave,H9P 1C3,623
Restaurant Bellissimo Dorval,4.2,45.4405475,-73.7313606,484 Chem. du Bord-du-Lac-Lakeshore,H9S 2A8,466
Natalino Restaurant,4.4,45.4409719,-73.7291284,365 Chem. du Bord-du-Lac-Lakeshore,H9S 2A5,483
Da Mangione,4.4,45.4473328,-73.7510361,475 Dumont Ave,H9S 5W2,235
Restaurant Il Miglio Express,4.5,45.4969228,-73.5557896,"111 Boulevard Robert-Bourassa, coin rue prince et, Wellington St Local 1401",H3C 2M1,96
Basmati Indian Restaurant,4.4,51.6028849,-0.6381322,43 Aylesbury End,HP9 1LU,125
The Plough,4.4,51.6455134,-0.6526377,The Hill,HP7 0PA,258
Barracuda Restaurant,4.7,51.678387,-0.60517,96 Sycamore Rd,HP6 5EN,362
Sul Posto - Sandwicherie Italienne - Smoked Meat - Salads - Catering/Traiteur,4.5,45.500116,-73.5660971,895 Rue De La Gauchetière O,H3B 4G1,20
Bello Deli,4.5,45.5007981,-73.5562005,363 Pl. d'Youville,H2Y 2B7,381
OLE Tapas,4.4,45.4039069,-73.9529865,132 Sainte Anne St,H9X 1M4,595
PIZZERIA ROSCONI,4.9,45.5075256,-73.5529765,420 Pl. Jacques-Cartier,H2Y 3B3,153
Miss Poutine,4.4,45.3912046,-73.9374363,1015 Bd Perrot,J7V 3H7,188
Bambi,4.9,45.6130871,-73.5653488,8040 Rue Jarry E,H1J 1H5,43
ICYVIBES,4.8,45.402842,-73.9500624,2B Rue Lalonde,H9X 1Z9,224
Ristorante Linguini,4.7,45.4331646,-73.9044504,18990 Trans-Canada Hwy,H9X 3P6,28
Subway,3.8,45.4471625,-73.8521212,2899 Bd Saint-Charles Unit # B01008a,H9H 3B5,87
Domino's Pizza,3.8,45.4811197,-73.8632835,15480 Pierrefonds Blvd.,H9H 4K3,226
Al Pizzetta,4,45.5060538,-73.5531247,39 Rue de la Commune E,H2Y 1H9,419
Wienstein & Gavino's,4.2,45.4975111,-73.57675,1434 Crescent St,H3G 2B6,3082
Trattoria Gio,4.1,45.5079193,-73.5537918,452 Pl. Jacques-Cartier,H2Y 3B3,625
Flying Pizza,,45.4788574,-73.568997,2527 Centre St,H3K 1J8,0
Paradiso,2.6,45.5077391,-73.552114,250 Rue Saint-Paul E,H2Y 1G9,103
Le Vin Papillon,4.6,45.4827889,-73.5755712,2519 Notre-Dame St W,H3J 1N4,803
Faccia Brutta,4.5,45.436683,-73.6125117,1701 Rue Lapierre,H8N 1P2,126
Zappy Pizza,4,45.4627308,-73.563789,11 Rue de l'Église,H4G 2M1,857
Pizzéria NO.900 - Westmount,4.2,45.4783182,-73.6023771,364 Victoria Ave,H3Z 2N4,319
Park,4.3,45.4785112,-73.6027978,378 Victoria Ave,H3Z 2N4,1000
Angela Pizzeria & Restaurant,3.5,45.4948887,-73.579957,1662 Boul. de Maisonneuve Ouest,H3H 1J7,585
Second Pizza,3.8,45.4888835,-73.5862622,"1500 Avenue Atwater, Local FF01",H3Z 1X5,42
Resto-Bar Trevi,4,45.4629625,-73.5736904,800 Rue de l'Église,H4G 2N2,307
Pizzéria NO.900 - Vieux-Montréal,4.3,45.5003678,-73.5583573,444 McGill St,H2Y 2G1,788
Vivere! Express,3,45.5017778,-73.563591,600 Rue De La Gauchetière O,H3B 4L6,6
BarBara,4.2,45.4743389,-73.5871973,4450 Notre-Dame St W,H4C 1S1,509
Bella Vita,3.3,45.5077776,-73.552247,250 Rue Saint-Paul E,H2Y 1G9,298
Subway,3,45.4036966,-73.9519643,103 Sainte Anne St,H9X 1L9,144
Pizza Dany,4.2,45.4977884,-73.5745751,1237 Rue de la Montagne,H3G 1Z2,617
Pizzédélic Monkland,4,45.475959,-73.6222029,5556 Monkland Ave,H4A 1E1,316
Veganarie - Resto Végan,5,45.5090213,-73.8056974,19H Rue du Centre Commercial,H8Y 2N9,46
Pizza Deux Frères 2 pour 1,3.6,45.5349244,-73.9010595,1900 Chem. d'Oka,J7R 1N4,301
Taverne Sur Le Square,4.3,45.4875,-73.5872222,1 Westmount Sq,H3Z 2P9,286
wow-Cakes,4.3,45.3944282,-73.9568375,73 Bd Perrot,J7V 3E7,136
Piazza Sociale Restaurant,3.5,45.5009959,-73.568808,1 Pl. Monseigneur Charbonneau,H3B 4M7,25
patisserie dolce francesco,4.5,45.4794499,-73.8653182,15714 Pierrefonds Blvd.,H9H 3P6,95
Vanellis,3.1,45.502466,-73.5713041,"Centre Eaton de Montréal, 705 Saint-Catherine St W",H3B 4G5,44
SORELLA Boutique Gourmande,4.8,45.4490875,-73.8541949,2979 Saint-Charles Blvd,H9H 3B5,51
Brigade Pizzeria Napolitaine,4.2,45.4995395,-73.5744414,1428 Stanley St,H3A 1P7,1405
Stellina,4.3,45.5016277,-73.5599184,410 Rue Saint-Jacques,H2Y 1S1,166
Restaurant Il Boccalini,4.2,45.5122301,-73.6770437,1408 De l'Église St,H4L 2H4,216
L'Academie,3.6,45.498243,-73.578266,2100 Crescent St,H3G 2B8,908
Officina. Catering,4.3,45.502636,-73.5629741,455 Av. Viger O,H2Z 2B8,83
Il Miglio,3.4,45.5034044,-73.5709355,705 Saint-Catherine St W,H3B 4G5,45
Pizzeria Moretti Griffintown,3.6,45.4936111,-73.5575,1059 Wellington St,H3C 1V6,1665
Casa Nostra,,45.4788574,-73.568997,2527 Centre St,H3K 1J8,0
Restaurant Beba,4.7,45.4648673,-73.5678126,3900 Rue Éthel,H4G 1S4,369
Aria,3.8,45.5010146,-73.5644801,700 Rue De La Gauchetière O,H3B 4L1,197
Restaurant La Focaccia,4.4,45.8064609,-74.0128553,2210 Bd du Curé-Labelle,J7Y 1T3,654
Harvey's,4,45.4483945,-73.8552981,2986 Saint-Charles Blvd,H9H 3B7,763
Restaurant Graziella,4.4,45.4995116,-73.5556176,116 McGill St,H2Y 2E5,388
LE VIEUX ST-LAURENT,4.5,45.5168261,-73.5787562,3993 St Laurent Blvd,H2W 1Y4,684
Pink's BBQ,5,45.4654927,-73.8714041,4391 Rue Rupert,H9H 3B4,36
Tim Hortons,3.2,45.3951143,-73.958401,"114, Boul. Grand L'ile-perrot",J7V 6L7,277
Subway,3.8,45.390464,-73.9644373,25 Bd Don-Quichotte Unit A1136,J7V 7X4,88
La Dolce Vita gelato cafe shop,4.6,45.4589925,-73.8661056,3776 Bd Saint-Charles N,H9H 3C3,273
BOSSA Prêt à manger,4.8,45.4604124,-73.5670967,4354 Wellington St,H4G 1W4,990
Rockaberry,4.1,45.446866,-73.8537713,2880 Saint-Charles Blvd,H9H 3B6,437
Restaurant Antipasto,4.5,46.1183594,-74.5917943,855 Rue de St Jovite,J8E 3J8,1522
Patate et Persil,4.6,45.3836385,-74.0089134,9 Av. Saint-Charles,J7V 2K3,1562
Babylon Resto lounge,4,45.4664969,-73.8734094,4869 Saint-Charles Blvd,H9H 3E4,72
Enoteca Monza Pizzeria Moderna,4,45.5017873,-73.5703278,1251 McGill College Ave,H3B 2Y4,1721
Restaurant Tadhana,4.5,45.4780799,-73.6018373,4 Somerville Ave,H3Z 1J2,64
RUSTICA,5,45.5025365,-73.5752021,1002 Sherbrooke St W,H3A 2K6,3
Bistro 1843,4.8,45.488554,-73.8756861,376 Rue Cherrier,H9C 1E7,233
"Pizzéria NO.900 - Peel, Montréal",4.3,45.5014124,-73.5754871,2049 Peel St,H3A 1T6,834
Ristorante Lupo,4.4,45.5772474,-73.3288392,1920 Rue Léonard-de-Vinci #102,J3E 1Y8,450
FCO di Fiumicino,4.3,45.5026172,-73.5628563,451 Av. Viger O,H2Z 1G6,204
Petros Westmount,4.1,45.4798798,-73.6028633,4785 Sherbrooke St W,,505
Bartollos Italia Pizza & Pasta,2.6,45.511729,-73.561855,200 St Catherine St E,H2X 1L1,8
Aqua E Farina,4.3,45.503769,-73.5539989,121 de la Commune St W,H2Y 2C7,135
CAFÉ DU PARQUET,4.6,45.5030978,-73.561569,1000 Pl. Jean-Paul-Riopelle,H2Z 2B3,181
Pizzeria Bros (Old Montreal),4.5,45.5059271,-73.5560253,13 Notre-Dame St W,H2Y 1S5,1378
Ben & Florentine,3.9,45.457476,-73.862496,3555 Saint-Charles Blvd,H9H 3C4,282
Restaurant Trebbiano,4,45.539225,-73.509575,135 Rue Saint-Charles O,J4H 1C7,450
El Pastaman,4.5,45.5130433,-73.5591933,1212 Saint Denis St,H2X 3J5,326
Subway,4.2,45.4416064,-73.8900369,3410 Jean Yves St Unit E 2,H9J 2R6,85
Luciano Ristorante,4.4,45.458512,-73.5719101,4609 Rue de Verdun,H4G 1M6,142
Jacopo,4.2,45.507727,-73.5532787,436 Pl. Jacques-Cartier,H2Y 3B3,1040
La Belle Province,3.7,45.4567399,-73.8637695,3604 Saint-Charles Blvd,H9H 3C3,318
Aki Sushi Bar,4,45.3824852,-73.9547389,450 Bd Don-Quichotte,J7V 0J9,1
Comptoir 400,4.2,45.5073892,-73.5523246,400 Pl. Jacques-Cartier,H2Y 3W1,881
Place Tevere,2.7,45.4994684,-73.5666175,"800 DE, Rue De La Gauchetière O",H5A 1K6,7
Basha Restaurant,4.6,45.4571538,-73.8646084,3632 Saint-Charles Blvd,H9H 3C3,196
Yuzu sushi Express,4.2,45.386832,-73.961028,110 Bd Don-Quichotte,J7V 6L7,5
Les Moulins La Fayette,4.4,45.3907864,-73.9619024,381 Grand Boulevard,J7V 4X3,120
Kirkland Resto Bar,4.5,45.460367,-73.86694,3874 Saint-Charles Blvd,H9H 3C6,341
Messina,4,45.5370411,-73.5120716,329 Rue Saint-Charles O,J4H 1E5,714
Cafe Presto,4,45.4988366,-73.5727847,1244 Stanley St,H3B 2S7,122
Bistro Grace,4.6,45.4525642,-73.8869802,18425 Antoine-Faucon St,H9K 1M7,320
Restaurant Siciliana,3.9,45.4989493,-73.573139,1264 Stanley St,H3B 2S7,756
Pizzéria NO.900 - Griffintown,4.2,45.4919348,-73.5653922,1378 Notre-Dame St W,H3C 1K8,567
Restaurant Tbsp.,4.1,45.5019699,-73.5618691,901 Rue du Square-Victoria,H2Z 1R1,108
Bevo Bar + Pizzeria,4.3,45.5070202,-73.5532857,410 R. Saint-Vincent,H2Y 3A5,2122
Patzzi,4.4,45.5014758,-73.5692531,1 Pl. Monseigneur Charbonneau,H3B 2B6,14
Da Vinci Restaurant / Ristorante Da Vinci,4.4,45.4956322,-73.5747077,1180 Bishop St,H3G 2E3,491
Pizza Mia,4.3,45.4795961,-73.5768235,140 Atwater Ave,H4C 2G3,145
Fiorella,4,45.5016893,-73.5736656,980 Boul. de Maisonneuve Ouest O,H3A 1M5,171
Le Serpent,4.6,45.4976508,-73.5571227,257 Rue Prince,H3C 2N4,922
Aux Vivres Westmount,4.5,45.4782444,-73.6039374,4896 Sherbrooke St W,H3Z 1H1,509
Da Giovanni,3.9,45.5115388,-73.5625699,165 St Catherine St E,H2X 1K8,960
Restaurant Vivaldi,4.4,45.3060388,-73.251512,34 Rue Saint-Jacques,J3B 2J7,346
Villa Elina,5,45.4941342,-73.6900733,21700 Trans Canada Route,J7V 8P3,2
Elefanté,3.6,45.5013634,-73.5591494,420 Notre-Dame St W,H2Y 1V3,149
Salumi Vino,4.5,45.5099721,-73.5524526,358 Notre-Dame St. East,H2Y 1C7,366
Smoke Meat Pete,4.3,45.3958138,-73.9612779,283 1er Rue,J7V 5A1,3985
Biscotti e Cucina,4.8,45.5015095,-73.5672308,,,113
Fiorellino,4.1,45.5028652,-73.5635208,470 Rue De La Gauchetière O,H2Z 1E3,1498
Bellevue Resto-Grill,3.9,45.4034522,-73.9519805,102 Sainte Anne St,H9X 1L8,366
Brotelli Pasta Bar,4.2,45.4984579,-73.571219,"Tour CIBC, 1155 René-Lévesque Blvd W",H3B 3X7,71
Restaurant Le Gourmand,4.6,45.4292411,-73.8259763,42 Avenue Ste Anne,H9S 4P8,450
Restaurant Terracina,4.4,45.5660669,-73.7285417,1660 Bd de l'Avenir,H7S 2N4,142
Pizza Pizza,3.3,45.386774,-73.962719,106 Bd Don-Quichotte Suite 14,J7V 6L7,117
Gousto Bistro,4.6,45.535525,-73.5081028,360 Rue Saint-Jean,J4H 2X6,338
Metro Pizza (Pierrefonds),3.9,45.4668635,-73.8751042,4886 Saint-Charles Blvd,H9H 3E2,278
Courtyard by Marriott Montreal West Island/Baie D’Urfe,4.3,45.4263361,-73.9162919,20000 Trans-Canada Hwy,H9X 0B3,640
Little Caesars Pizza,4.1,45.4499333,-73.8571622,3066 Saint-Charles Blvd,H9H 3B7,307
Subway,3.3,51.6103373,-0.6446796,192 Maxwell Rd,HP9 1QU,60
Chef Veganessa Inc,4.7,45.4547951,-73.8586876,"16979, Route Transcanadienne",H9H 5J1,107
Zaza,4.6,51.6659039,-0.6164061,3 Whielden St,HP7 0HT,396
The Royal Standard of England,4.5,51.6186778,-0.6686586,,HP9 1XT,1901
Mangiafoco,4.4,45.504222,-73.5546802,105 Saint-Paul St W,H2Y 1Z5,684
Nora Gray,4.3,45.4931762,-73.5685398,1391 Rue Saint-Jacques,H3C 1H2,553
Osteria mkt,4.5,45.5038213,-73.5707385,1333 Blvd Robert-Bourassa,H3A 1T9,329
Fiorellino (Notre-Dame),4.1,45.4830404,-73.5748611,2472 Notre-Dame St W,H3J 1N5,146
Adamo Pizza,4.6,45.4733879,-73.5884276,4629 Notre-Dame St W,H4C 1S5,888
Beatrice,4.4,45.4970194,-73.5810282,1504 Sherbrooke St W,H3G 1L3,1091
Trattoria Cinecitta,4.4,45.4845485,-73.6320967,5220 Decarie Blvd,H3X 3Z6,210
Gentile Pizza Parlour,4,45.4868886,-73.5869233,4134 Saint-Catherine St,H3Z 2Y5,218
Elena,4.6,45.4698292,-73.5917121,5090 Notre-Dame St W,H4C 1T1,998
Mano Cornuto,4.5,45.4951136,-73.558456,988 Ottawa St,H3C 1S3,765
Lugano's,3.9,45.567942,-73.7291649,1723 Boulevard Saint-Martin O,H7S 1N2,931
Pizza Spanos,,45.4632098,-73.8699469,4559 Saint-Charles Blvd,H9H 3C7,0
Pizza De L'ile 2 Pour 1,3.5,45.394408,-73.9578274,125 Grand Boulevard,J7V 4W9,164
Basile Pizzeria,3.8,45.4031443,-73.950558,74 Sainte Anne St,H9X 1L9,323
Pizza Hut Kirkland,4.1,45.4427039,-73.8905311,3276 Jean Yves St,H9J 2R6,239
Restaurant Dorion,4.3,45.381146,-74.0162585,297 Bd Harwood,J7V 1Y6,393
Restaurant Le Surcouf,4.7,45.4033437,-73.9493816,51 Sainte Anne St,H9X 1L5,305
Le Balnéo Restaurant and Bar,4.6,45.3867744,-73.9627197,106 Boulevard Don Quichotte Locale 18,J7V 6L7,191
Pizzeria ADESSO,4,45.4029283,-73.9479336,39 Sainte Anne St,H9X 1L4,134
La Cantinetta,5,51.5551745,-0.6156132,"Carnegie Court, 14 Beaconsfield Rd",SL2 3PQ,2
LEON,4,51.5877631,-0.6276852,"2, Burtley Wood, A355 Windsor End M40 Junction",HP9 2SE,83
Luna Rossa,4.3,51.587605,-0.553855,24 Packhorse Rd,SL9 7DA,402
Di Paolo,4.7,51.5888727,-0.5510296,22-24 Oak End Way,SL9 8BR,214
The Crazy Bear Beaconsfield,4.1,51.6017197,-0.6377995,Wycombe End,HP9 1LX,2474
China Diner,4.5,51.6104017,-0.6453515,"7 The Highway, Station Rd",HP9 1QD,278
Sajna Indian Cuisine,3.8,51.6100834,-0.6454262,"Burkes Court, Station Rd",HP9 1QR,82
Jampee Thai Restaurant,4.5,51.6126607,-0.6463922,8 Warwick Rd,HP9 2PE,105
Fego Restaurant Beaconsfield,4.5,51.6117062,-0.6471516,2 Station Rd,HP9 2PB,450
Dolce Vita,4.6,51.5885738,-0.6837746,53 The Green,HP10 0EU,355
The Beech House,4.2,51.6129563,-0.6477897,17 Penn Rd,HP9 2PN,879
Pizza Express,3.7,51.5879418,-0.6280344,"Unit 11 M40 J2, Extra Services A355, Windsor End",HP9 2SE,120
Prime Steak & Grill,4.5,51.6103193,-0.6442516,180-182 Maxwell Rd,HP9 1QX,709
Giggling Squid - Beaconsfield,4.4,51.6017413,-0.6351101,22 London End,HP9 2JH,697
Angel of Mercia,4.9,51.6105467,-0.6467832,28-30 Gregories Rd,HP9 1HQ,53
@homePizza,4.6,51.6020071,-0.6366568,3 London End,HP9 2HN,40
Bacchus,4.3,51.6127594,-0.6471564,3 Warwick Rd,HP9 2PE,108
Due Forni,4.7,51.6011172,-0.6361375,"Due Forni, 11 Windsor End",HP9 2JJ,15
Nonna's Catering MTL,4.7,45.3951132,-73.9575717,95 Grand Boulevard,J7V 4X8,46
Mama Bravo Pizza & Grill,4,45.3876584,-73.9660537,475 Grand Boulevard Local 2,J7V 4X4,557
Pizza Express,4.2,51.6016981,-0.6359138,14 London End,HP9 2JH,217
Prelibato,4.4,51.6010872,-0.6361181,11 Windsor End,HP9 2JJ,84
Restaurant El Hornello,4.4,45.3803036,-74.0190333,401 Bd Harwood #1b,J7V 7W1,449
Cugini's Pizza,4.8,45.43205,-73.8648099,275 Elm Ave,H9W 2C8,129
Restaurant Farsa,4.3,45.53,-73.9286111,2952 Chem. d'Oka,J0N 1P0,303
Maiolo Montreal,4.4,45.495393,-73.582302,1800 Sherbrooke St W,H3H 1E5,115
Gia Vin & Grill,4.7,45.4772604,-73.5932604,1025 Rue Lenoir,H4C 2Z6,190
Cavallaro,4.6,45.4456297,-73.8530825,2754 Saint-Charles Blvd,H9H 3B6,92
Trattoria Lanni,4.4,45.4066689,-74.0349373,590 Av. Saint-Charles,J7V 8H2,543
Il Pranzetto Restaurant,4.5,45.50769,-73.562073,1111 Rue Saint-Urbain,H2Z 1Y2,128
Pizzalinni,4.3,45.4570628,-73.8645948,3626 Saint-Charles Blvd,H9H 3C3,187
Restaurant Copoli,4.4,45.4816667,-73.5923332,4458 Saint-Catherine St,H3Z 1R7,172
Subway,3.6,45.4174585,-73.9186058,90 Rue Morgan Unit A01012a,H9X 3A8,66
Ristorante Quattro,4.4,45.5058682,-73.5560493,17 Notre-Dame St W,H2Y 1S5,509
Restaurant Violet Angel,4.4,45.4040964,-73.9534127,150 Sainte Anne St,H9X 1M4,375
Pizzeria Casa Rita,4.5,45.4176485,-73.8897289,550 Beaconsfield Blvd,H9W 4E2,120
Quattro Piatti,4.5,45.502018,-73.560006,747 Rue du Square-Victoria,H2X 3Y9,57
Pizzeria Geppetto Notre-Dame,4.2,45.4827271,-73.5753154,2504 Notre-Dame St W,H3J 1N5,682
Sunnee’s Restaurant,5,45.4265004,-73.9162023,20000 Trans-Canada Hwy,H9X 0A2,2
Forno West (Westmount),4.4,45.4866009,-73.5884824,1235 Greene Ave,H3Z 2A4,164
Trattoria,4.7,45.4367678,-73.8978887,19787 Sainte Marie Rd,H9J 3L8,959
Trattoria Trestevere,4.5,45.4969811,-73.5748906,1237 Crescent St,H3G 2B1,313
Le Café Crème,4.1,45.478462,-73.601789,357 Victoria Ave,H3Z 2N1,145
Paradiso,4.9,45.4779625,-73.6016534,344 Victoria Ave,H3Z 2M8,28
La Cucina Di Tony,5,45.4776066,-73.6046188,4928 b Sherbrooke St W,H3Z 1H3,15
Cafe Gentile Westmount,3.8,45.4869479,-73.5869348,4126 Saint-Catherine St,H3Z 1P4,177
Bàcaro,4,45.4852019,-73.5888084,4259 Saint-Catherine St W,H3Z 1V5,410
Vago,4.3,45.487247,-73.590662,1336 Greene Ave,H3Z 2B1,232
Toucheh Restaurant,4.6,45.4776706,-73.6026855,351 Prince Albert Ave,H3Z 2N9,321
Restaurant Finocchio,4.3,45.5314559,-73.9270935,2955 Chem. d'Oka,J0N 1P0,229
Harvey's,4.1,45.4840016,-73.8603405,14855 Pierrefonds Blvd.,H9H 4M5,576
Grill Sélect,4.4,45.4456429,-73.853089,2756 Saint-Charles Blvd,H9H 3B6,536
Toujours Mikes,3.8,45.447943,-73.85327,2945 Saint-Charles Blvd,H9H 3B5,320
Vivaldi,4.5,45.5037181,-73.8414138,13071 Boul Gouin O,H8Z 1X1,698
Restaurant Casa Mare Enrg,4.3,45.4794193,-73.8653419,15714 Pierrefonds Blvd.,H9H 3P6,261
PASTA ANDREA,4.1,45.432881,-73.679989,1718 Bd Saint-Joseph,H8S 2N2,824
