Nom,Rue,postalCode,Latitude,Longitude,reviewsCount,totalScore
Poulet Rouge Côte-des-Neiges,5520 Chem. de la Côte des Neiges,H3T 1Y9,45.4972231,-73.6249813,285,4.4
Exo Fruits,5192 Chem. de la Côte des Neiges,H3T 1X8,45.4954819,-73.620811,396,4.4
Piri Piri Côte des Neiges,5480 Chem. de la Côte des Neiges,H3T 1Y7,45.4970131,-73.6241784,613,3.9
Ketoza,5025 Rue Paré,H4P 1P4,45.498805,-73.6526032,0,
Santa Barbara,6696 Rue de Saint-Vallier,H2S 2P7,45.5361236,-73.6077774,485,4.4
Ten Restaurant,11655 Boul Gouin O,H8Y 1Y4,45.5088799,-73.8213719,271,4.4
Rejuice! - Bar à Jus /Smoothies/ Salades,5211 Rue Sherbrooke O,H4A 1T7,45.475254,-73.608176,185,4.2
Restaurant DeCasa,854 Bd Décarie,H4L 3L9,45.5121146,-73.6798215,93,4.6
OK Poké,75 Av. Shamrock,H2S 1A5,45.535105,-73.6161219,213,4.6
Le Petit Sao (île des soeurs),"Centre Commercial Le Village, 40 Pl. du Commerce #20",H3E 1J6,45.4667273,-73.5424634,420,4.3
À VOTRE SANTÉ - Epicerie Santé - Marché Bio Organic Vegane - Tea Shop - Cafe en Vrac - Cosmetics,5126 Rue Sherbrooke O,H4A 1T1,45.4758605,-73.6067585,86,3.9
Délices du jardin/Garden's delish,617 Rue St Rémi,H4E 3C6,45.4717372,-73.5928722,1,4
Yuzu sushi express Jean-Talon O,5055 Rue Jean-Talon O,H4P 1W7,45.4962648,-73.6512366,14,4.5
Bowled,5476 Chem. Queen Mary,H3X 1V6,45.4815015,-73.6306782,9,4.8
Cultures,1500 Av. McGill College,H3A 3J5,45.50234,-73.572352,18,1.9
Portions,1565 Rue de Louvain O,H4N 1G6,45.5321412,-73.662543,18,3.9
Cultures,"Place Dupuis, 845 Boul. de Maisonneuve E",H2L 4L8,45.516674,-73.560026,38,4
Cultures,"Complexe Desjardins, 150 Sainte-Catherine O",H2X 3Y2,45.507809,-73.565201,34,2.2
Restaurant Métafo,471 32e Avenue,H8P 2X3,45.4178324,-73.6110412,0,
Sushi Plus,5940 Chem. de la Côte des Neiges,H3S 1Z5,45.4998766,-73.6306229,1185,3.9
Sushi Shop,633 32e Avenue,H8T 3G6,45.440439,-73.6928111,65,3.1
Restaurant LaShish Airlie,9150 Rue Airlie,H8R 2A5,45.4214014,-73.6356348,650,4.6
Dumpling Shop,5674 Av de Monkland,H4A 1E4,45.4746153,-73.6233327,143,4
Benny&Co.,12333 Blvd. Laurentien,H4K 2Z1,45.5300647,-73.7231768,370,4
McDonald's,11680 Boul. de Pierrefonds,H8Y 3C9,45.506072,-73.8206771,1247,3.5
Sushi Plus,2101 Av Dollard,H8N 1S2,45.4329424,-73.6355735,1114,4.1
Mandys - Westmount,5033 Rue Sherbrooke O,H4A 1S8,45.4768368,-73.6061782,821,4.3
Restaurant Nouveau Félix,9143 Bd Pie-IX,H1Z 3V9,45.5801819,-73.6215875,186,3.9
Ristorante Il Cenone,6419 Boul Gouin O,H4K 1A9,45.529176,-73.7246516,184,4.1
Ono Pokii (poke) - Westmount,4914 Rue Sherbrooke O,H3Z 1H3,45.4779198,-73.6043902,280,4.6
Déli-Santé Fleury,1400 Rue Fleury E,H2C 1R8,45.5612299,-73.6570576,1,5
Wasabi Sushi,5410 Chem. Queen Mary,H3X 2K9,45.4820243,-73.6302086,197,4.5
VUA Sandwichs et Sushi,1579 R. Saint-Denis,H2X 3K3,45.5148967,-73.5621983,723,4.3
Restaurant Casa Mare Enrg,15714 Boul. de Pierrefonds,H9H 3P6,45.4794193,-73.8653419,261,4.3
Café Santé,,,45.5008289,-73.6608586,0,
Gourmet Santé,380 Rue Saint-Antoine O,H2Y 3X7,45.5025371,-73.5607568,19,2.6
Rouge Santé,8305 Chem. de la Côte de Liesse,H4T 1G5,45.4766309,-73.7052483,8,5
Archway,3683 Rue Wellington,H4G 1V1,45.4669696,-73.56676,367,4.7
Sam boustan,8000 Bd Henri Bourassa O,H4S 1V4,45.5022532,-73.7439884,0,
Fontaine Santé,100 Boulevard René-Lévesque O,H2Z 1J5,45.5073768,-73.5624666,2,3.5
Banh Mi Santé,1351 Avenue du Mont-Royal E,H2J 1Y8,45.5304947,-73.5771915,5,2.6
Le Marquis Signature santé,194 Rue Saint-Paul O,H2Y 1Z9,45.5028655,-73.5550322,184,4.5
Aux Vivres Plateau,4631 Boul. Saint-Laurent,H2T 1R2,45.5211797,-73.5883938,2719,4.5
Abe & Mary's - De La Montagne,2125 Rue de la Montagne,H3G 1Z8,45.4993124,-73.5775301,190,3.7
Muffin Plus,1500 Atwater Place Alexis Nihon,H3Z 1X5,45.489027,-73.58587,41,4
LuYuan Health Centre,15755 Boul. de Pierrefonds,H9H 3X6,45.4792427,-73.8675357,1,5
Avril Supermarché Santé,375 Av. Viger O,H2Z 0C1,45.5034796,-73.5624082,112,4
Liv salades,5350 Boul. Saint-Laurent,H2T 1S1,45.5247059,-73.5968312,60,3.8
On Mange Quoi,1717 Rue Berri,H2L 4E9,45.5167519,-73.5637182,1,5
Piri Piri Plateau,415 Avenue du Mont-Royal E,H2J 2W1,45.5242726,-73.5828183,1293,4
Piri Piri Masson,3038 Rue Masson,H1Y 1X6,45.5490887,-73.5741301,901,4
Jugo Juice,7077 Newman Blvd Unit 5410,H8N 1X1,45.447682,-73.615771,77,3.5
Jugo Juice,705 Sainte-Catherine O Unit 150Z,H3B 4G5,45.502466,-73.5713041,58,4.1
Poulet Rouge Ste-Catherine,1623 Sainte-Catherine O,H3H 1L8,45.4947574,-73.5783834,1464,4.4
Boulangerie Le Marquis,367 Rue de Castelnau E,H2R 1R1,45.5388121,-73.6178186,392,4.6
Sparta Poulet Grec,405B R. Sherbrooke E,H2L 1J9,45.5172006,-73.5676598,490,4.3
Boustan Sainte-Catherine,19 Rue Sainte-Catherine E,H2X 1K3,45.5103558,-73.5635719,1858,3.9
Restaurant Basha - Cuisine Libanaise.,777 Rue De La Gauchetière O,H3B 2M9,45.500688,-73.5655696,87,3.9
CREALUNCH | Plats cuisinés surgelés santé et faits-maison à Montréal,5000 Rue D'Iberville Suite 234,H2S 2S6,45.5400695,-73.5729858,152,4.7
Yaourti,1407 Rue Crescent,H3G 2B2,45.4975005,-73.5760669,129,4.8
Restaurant Samara,8250 Bd Maurice-Duplessis,H1E 3A3,45.6339797,-73.585144,203,4.3
Hello 123,5700 Av de Monkland,H4A 1E4,45.4743285,-73.6237128,527,4.6
Copper Branch,1251 Avenue du Mont-Royal E,H2J 1Y4,45.5294325,-73.5780517,594,4.1
KazaMaza,4629 Av du Parc,H2V 4E4,45.5178679,-73.5913192,1048,4.4
L'Express,4855 Rue Marc-Blain,H4R 3B2,45.493008,-73.731113,13,3.9
21st Century Food | Corporate Catering,4971 Rue Levy,H4R 2N9,45.4948213,-73.7364306,95,4.6
Restaurant La Piazza,2525 Rue des Nations,H4R 3C8,45.5129511,-73.7121246,189,4.5
"Le Poke Station (Décarie, VSL)",783 Bd Décarie,H4L 3L4,45.511462,-73.6779185,34,4.5
Cafe TCAN,7405 Rte Transcanadienne,H4T 1Z2,45.4899982,-73.7090897,134,4.9
phở kim,11898 Blvd. Laurentien,H4K 2V5,45.5248794,-73.7131444,104,3.9
Akai Bowl Health food smoothie and bowl of Acai,705 Sainte-Catherine O,H3B 4G5,45.5029123,-73.5716799,48,4.9
Birreria ITALI.CO,3131 Boulevard Cote Vertu Ouest,H4R 1Y8,45.4979517,-73.7054538,1072,4
"Le Nomade, prêt-à-manger",306 Rue Fleury O,H3L 1V3,45.5437285,-73.6675028,35,4.9
Kofi Crêpe,4483 R. Saint-Denis,H2J 2L2,45.524005,-73.582553,658,4.1
Veganation,9090 Av du Parc local 103,H2N 1Y8,45.5369317,-73.651471,214,4.7
Café Expressions ( Café AnaVic),"Lobby, 5885 Chem. de la Côte des Neiges",,45.5002934,-73.6301639,275,4.2
MARCHÉ RELA AFRICAIN,925 Bd Décarie,H4L 3M3,45.5133834,-73.6810131,184,4.4
Rôtisseries Au Coq,1110 Blvd. Marcel-Laurin,H4R 1J7,45.509549,-73.6893998,153,3.6
La Prep,8000 Bd Décarie,H4P 2S4,45.497548,-73.6592847,49,4.2
Restaurant Kam Do,971 Bd Décarie,H4L 3M6,45.5139629,-73.6820478,555,4.1
La Finca café & marché local,1067 Rue de Bleury,H2Z 1N1,45.5046201,-73.5629504,1237,4.7
Poulet Rouge Carrefour Angrignon,7077 Newman Blvd #1370,H8N 1X1,45.4480435,-73.6153356,281,4.3
IKEA Montreal - Restaurant,9191 Boul Cavendish,H4T 1M8,45.491986,-73.6913528,193,4.2
BIBIKO,31 R. St Viateur Est,H2T 1A5,45.5263542,-73.5987689,219,4.4
Menthe et couscous,361 Rue Émery,H2X 1J2,45.5148022,-73.5636565,1863,4.3
Agrigourmet,4605 Rue Sainte-Catherine E,H1V 1Y8,45.553768,-73.5323622,28,4.6
Falafel St. Jacques,345 Rue Saint-Jacques,H8R 1E6,45.4434472,-73.6486742,1966,4.7
Amir,3570 Bd Pitfield,H8Y 3L4,45.5038065,-73.7582344,83,4.1
Copper Branch Stanley,"1180 boul. de Maisonneuve Ouest, Stanley St",H3A 1N5,45.5000064,-73.575442,119,4.3
Restaurant Amir,3834 Boulevard Cote Vertu Ouest #100,H4R 1P8,45.4921076,-73.7085674,456,3.7
Mario’s Pizza,6245 Bd Henri Bourassa O,H4R 1C7,45.5134955,-73.7211037,222,3.9
Poulet Mankal,12174 Blvd. Marcel-Laurin,H4K 1M9,45.5272614,-73.7189675,113,4.2
Régine Café,1840 Rue Beaubien E,H2G 1L6,45.543541,-73.5959549,2968,4.7
Restaurant Crème Café,1 8e Avenue,H8P 1Y5,45.4285199,-73.5945893,234,4.1
maman,1524 Notre-Dame St W,H3C 1L1,45.4905682,-73.5666393,485,4.1
Le Petit Sao (Vieux Montréal),237 Notre-Dame St W,H2Y 1T4,45.5034096,-73.5580684,169,4.3
Le Vieux St-Laurent,3993 Boul. Saint-Laurent,H2W 1Y4,45.5168261,-73.5787562,683,4.5
Uniprix - Pharmacie Marianne Grimard-Keita et Berge Shater inc.,2561 Rue Provost,H8S 1R2,45.441456,-73.687139,18,4.2
Bubble Tea Santé,1351 Avenue du Mont-Royal E,H2J 1Y8,45.5304947,-73.5771915,1,1
Jugo Juice,700 Rue De La Gauchetière O,H3B 4L5,45.501014,-73.56448,18,3.8
Toi moi et café,244 Av. Laurier O,H2T 2N8,45.5203671,-73.5949504,823,4.3
Darbar,2027 Boul. Saint-Laurent,H2X 2T3,45.5117008,-73.5673345,965,4
Jugo Juice,"Montreal Trust, 1500 McGill College Ave Unit KA03",H3A 3J5,45.50234,-73.572352,24,3
Jugo Juice,1515 Sainte-Catherine O,H3G 2W1,45.495368,-73.577996,53,4.2
Chez Robin marché local,3819 Rue Wellington #102,H4G 1V1,45.4657078,-73.5668866,513,4.6
Bar Ahuntsic,10710 Boul. Saint-Laurent,H3L 2P7,45.5503462,-73.6713536,66,4.2
IMPAC TACO - Tacos - Resto Mexicain - Churros - Traiteur/Catering,6245 Boul Métropolitain E,H1P 1X7,45.5919922,-73.5814926,415,4.5
CHSLD de Cartierville (Manoir Cartierville),12235 Rue Grenet,H4J 2N9,45.5313808,-73.7173481,3,4
Royal Sushi 5 - Sushi Royal Beaubien,2352 Rue Beaubien E,H2G 1N2,45.547647,-73.592541,111,4.2
Monteiro - Grillades Portugaises (Côte-des-Neiges),5327 Av. Gatineau,H3T 1X1,45.4972528,-73.6215534,416,4
Livia,1468 Rue Peel,H3A 1S8,45.5005392,-73.5743181,161,3.7
Frenco,"Cooper Building, 3985 St Laurent Blvd",H2W 1Y4,45.5167566,-73.5786042,195,4.4
Café Vasco da Gama,1472 Rue Peel,H3A 1S8,45.5006345,-73.5745293,768,4.4
Poulet Rouge Masson,2917 Rue Masson,H1Y 1X5,45.5483965,-73.575067,130,4.8
Chalet Bar-B-Q,5456 Rue Sherbrooke O,H4A 1V9,45.4726992,-73.6110085,1899,4.5
Clinique Sante Bambou,7765 Rue St-Hubert,H2R 2P1,45.5448865,-73.6219906,6,3.8
ECOLLEGEY- Marché Santé / Bio / Organic / Vegan / Vegetarian - Seafood / Fromagerie - Delivery,6131 Av de Monkland,H4A 1H5,45.4700592,-73.6281819,165,4.1
Jugo Juice,"1500 Atwater Avenue SK, 06 Place Alexis Nihon",H3Z 1X5,45.489027,-73.58587,37,3.1
A&W Canada,7077 Bd Newman,H8N 1X1,45.448157,-73.6148017,210,4
Vip Nutrition Bar,1495 Rue Notre Dame,H8S 2E2,45.4348641,-73.6772206,27,4.7
Honi Honi Bar À Poké + Ramen + Bubble tea,4559 Rue Wellington,H4G 1W8,45.4587151,-73.5675389,531,4.3
Rachelle-Béry boutiques santé,480 28e Av.,H8S 3Z4,45.437245,-73.688722,20,4
Chez Dévi,1450 Rue Crescent,H3G 1R1,45.49754,-73.577043,1032,3.7
Casa Portugaise,3060 Bd Saint-Joseph,H8S 2P4,45.4336614,-73.6913321,223,4
Ô deux soeurs,780 Bd Rosemont,H2S 0B7,45.5327673,-73.5963472,145,4.2
Tapi Go!,4057 Boul. Saint-Laurent,H2W 1Y7,45.5171294,-73.5794478,39,4.7
Saint-Houblon - Restaurant Côte-des-Neiges,5414 Av. Gatineau,H3T 1X5,45.4975734,-73.6231232,3582,4.6
Quesada Burritos & Tacos,3680 Chem. de la Côte-Sainte-Catherine,H3T 1E1,45.49826,-73.6273077,523,4.2
B&J Desserts,7503 Boul. Saint-Laurent,H2R 1W9,45.5365203,-73.6223964,1,5
Café Bistro Toquoi,1525 Av. Van Horne,H2V 1L4,45.5187634,-73.616648,30,4.1
l'Eggs Oeufs du marché,7143 Rue Saint-Dominique,H2S 3B8,45.5352139,-73.6171056,530,4.3
Chez Tousignant,6956 R. Drolet,H2S 2T3,45.5360923,-73.612367,1489,4.3
Restaurant Las Palmas,632 Rue Jarry E,H2P 1V7,45.5446364,-73.6275661,161,4.5
Lakshana's Chettinad Indian Restaurant,985 Rue Jean-Talon O,H3N 1S9,45.5249723,-73.6257258,328,4.4
Sushi Nanami,340 Rue Jean-Talon E,H2S 2T6,45.5373654,-73.6151265,524,4.7
Rôtisserie Scores,8780 Boul. Saint-Laurent,H2N 1M4,45.541797,-73.643383,397,3.6
Thaï Express Lachine,"le Village Lachine, 637 32e Avenue",H8T 3G6,45.440622,-73.692812,252,3.8
Liv Salades,1444 B Sainte-Catherine O,H3G 1R3,45.4959507,-73.5766587,107,3.7
Strøm spa nordique / Montréal (Île-des-Sœurs),1001 Bd de la Forêt,H3E 1X9,45.454689,-73.5562924,2702,4
Kazo Ramen,7569 Bd Newman,H8N 1X3,45.440333,-73.6224292,150,4.7
Subway,1555 Bd Henri Bourassa O,H3M 1X7,45.5379753,-73.6791883,191,3.3
Royal Sous-Marins,10 Rue Bernard O,H2T 2J7,45.5270426,-73.6022612,139,4
Tim Hortons,2912 Rue de Salaberry,H3M 1L3,45.5362884,-73.7001508,482,3.2
Allô! Mon Coco,9197 Bd de l'Acadie,H4N 3K1,45.533353,-73.65564,1000,4.1
Bloomfield,1199 Av. Van Horne,H2V 1K1,45.5228071,-73.6131,245,4.4
Dahlia Bar Santé,1140 Boul. de Maisonneuve Ouest,H3A 1M8,45.5003117,-73.575072,0,
Andalos,350 Bd Lebeau,H4N 1R5,45.5256907,-73.6591761,973,4
Centre Santé L'Orium,5482 Chem. Queen Mary,H3X 1V6,45.4814642,-73.6307332,0,
Muffin Plus,"UQAM, 201 Av. du Président-Kennedy",H2X 3Y7,45.508804,-73.56864,11,4.2
Boustan Decarie,5150 Rue Jean-Talon O,H4P 2A7,45.4957455,-73.650902,840,4.2
Muffin Plus,1010 de la Gauchetière O Place du Canada,H3B 2N2,45.497526,-73.567193,2,3
'Olu 'Olu Poké Queen Mary,4986A Chem. Queen Mary,H3W 1X2,45.4856346,-73.6270404,298,4.8
Café Veritas,480 Boul. Saint-Laurent,H2Y 3P7,45.5059,-73.5551649,78,4.1
Palmyra,650 Av. Beaumont,H3N 1V5,45.5262908,-73.6203771,33,4.4
Ohana Sushi Vegan,330 Avenue du Mont-Royal E,H2T 1P7,45.5232756,-73.5833892,471,4.8
Ello Juice,3715 Boul. Saint-Laurent,H2X 2V7,45.5150539,-73.5746932,0,
La Prep,433 Rue Chabanel O Suite 102,H2N 2J4,45.53897,-73.654705,40,4.1
B12 burger Acadie,9805 Bd de l'Acadie,H4N 2W2,45.5358044,-73.6649659,717,4.3
Food District,306 Rue Fleury O App.1,H3L 1V3,45.5437285,-73.6675028,6,4.8
Restaurant Chez Maman,591 Boul Henri-Bourassa E,H2C 1E2,45.5558672,-73.6681481,174,4
Phở Mymy,9460 Bd de l'Acadie,H4N 1L7,45.533974,-73.660283,906,4
Eggsquis Lasalle,7401 Bd Newman,H8N 1X3,45.4406528,-73.6211134,640,4.2
Le Petit Sao (Pointe-Saint-Charles),1870 Rue Centre,H3K 1H7,45.4827747,-73.5621045,328,4.3
Muffin Plus,"Complexe Desjardins, 150 Sainte-Catherine O",H5B 1B9,45.507364,-73.563409,46,3.3
Muffin Plus,740 Notre-Dame St W,H3C 3X6,45.499391,-73.5601,8,3.3
La Maison Ho,1800 Rue Notre Dame,H8S 2E9,45.4352337,-73.6804245,217,3.6
Rôtisserie Scores,8520 Bd Newman,H8N 1Y5,45.431537,-73.631142,1394,4.1
Boustan Queen Mary,5236 Chem. Queen Mary,H3W 1X5,45.4842148,-73.6283485,222,4.2
Resto Végo St-Denis,1720 R. Saint-Denis,H2X 3K6,45.5154587,-73.5646343,1566,4.3
Caffè della Pace,1002 Av. Van Horne,H2V 1J5,45.5248515,-73.6108261,139,4.6
Frisette - Comptoir à Salades,5600 Av de Monkland,H4A 1E3,45.4754553,-73.6226843,66,4.7
Ahi Poke Jarry,434 Rue Jarry E,H2P 1V3,45.5430523,-73.6287093,240,4.8
La Prep,50 Bd Crémazie O,H2P 1A2,45.540878,-73.6410783,12,3.8
Pizza Arménienne Arouch Liège,917 Rue de Liège O,H3N 1B5,45.5305997,-73.6434295,298,4.4
Bistro 555,555 Rue Chabanel O RC-07,H2N 2L1,45.5382506,-73.6558233,19,5
Cultures,1000 Rue De La Gauchetière O,H3B 4W5,45.498175,-73.566385,19,2.2
Olly Fresco's Carrefour Industrielle Alliance,977 Saint-Catherine St W Unit#9,H3B 4W3,45.5012554,-73.572489,250,4.3
Copper Branch,"Complexe Desjardins, 150 Sainte-Catherine O",H2X 3Y2,45.50781,-73.565201,67,3.7
Chez Lien,8171 Bd Newman,H8N 1Y1,45.433952,-73.6287555,215,3.9
Le Poke Station（Lasalle）,1500 Blvd. Shevchenko,H8N 3B1,45.4309099,-73.6238334,23,4.4
Cultures,1360 Boulevard René-Lévesque O,H3G 2W4,45.495802,-73.572626,0,
Pizzeria Marinos,1580 Rue Barré,H4L 4M6,45.5244547,-73.6836481,116,4.2
Restaurant L'Oeuforie Matinale,391 Bd Henri Bourassa O,H3L 1P2,45.5447491,-73.6746284,347,4.4
Restaurant Dima,1575 Rue Dudemaine,H3M 1R2,45.5403928,-73.6873848,63,4.7
Panthère Verte,145 Avenue du Mont-Royal E,H2T 1N9,45.5216106,-73.5851816,693,4.4
MANGO TROPICAL,3466 Rue Fleury E,H1H 2R9,45.5811986,-73.6407111,60,4.1
Café La Place Commune,7669 Av. Querbes,H3N 2B7,45.530246,-73.6288463,184,4.6
Oliveraies Ktima Barakaris,6000 Rue Sherbrooke O,H4A 1X9,45.4683842,-73.6196325,287,4.7
Freshii,1102 Boul. de Maisonneuve Ouest,H3A 1M7,45.5006033,-73.5747312,213,3.7
Muffins Plus,"Carrefour Angrignon, 7077 Bd Newman",H8N 1X1,45.447696,-73.615538,13,2.8
Le Sain Bol,5095 Rue Fabre,H2J 3W3,45.5346278,-73.5824,128,4.7
MY Santé,8190 Bd Newman,H8N 1X9,45.4337358,-73.6276677,0,
restaurant gi-mo,1197 Rue Fleury E,H2C 1P9,45.5590425,-73.658803,77,4.4
Georges Pizza,844 Rue Sauvé E,H2C 1Z2,45.5548919,-73.6536817,224,4.3
Le Toasteur Villeray,767 Rue Villeray,H2R 1J2,45.5440605,-73.6212994,770,4.4
McDonald's,9375 Bd Lacordaire,H1R 2B6,45.5992373,-73.6112198,2435,3.2
Burger King,6150 Boul Henri-Bourassa E,H1G 5X3,45.6082416,-73.6143341,692,3.3
La Petite Marche,5035 R. Saint-Denis,H2J 2L9,45.5267457,-73.5886482,1223,4.1
Keto Montreal,7586 Rue St-Hubert,H2R 2N6,45.5435258,-73.6196115,58,4.9
Poulet Rouge Galeries d'Anjou,7999 Bd des Galeries d'Anjou,H1M 1W9,45.6006624,-73.5644021,205,4.3
Le Virunga,851 Rue Rachel E,H2J 2H9,45.5240844,-73.5761953,264,4.6
Poke 7+,4475 Rue Marquette,H2J 3X9,45.5321114,-73.5748097,35,4.7
Café restaurant Bélair,3391 Rue Bélair,H2A 2A6,45.5592645,-73.5942888,81,4.6
Restaurant Amir,6148 Boul Henri-Bourassa E,H1G 5X3,45.6075,-73.6136111,391,3.6
Cantinho Express,5825 Boul Henri-Bourassa E,H1G 2V1,45.6073793,-73.619331,782,4
Amir,763 Rue Saint-Zotique E,H2S 2M6,45.53734,-73.6070274,327,3.9
Poulet Poulet,186a Bd Henri Bourassa O,H3L 1N3,45.5476637,-73.6722024,6,1.5
Café Van Houtte,"Édifice FTQ, 545 Boul Crémazie E",H2M 2V1,45.546348,-73.638561,90,3.3
Benny&Co. Montréal-Nord,10550 Bd Pie-IX,H1H 2M8,45.5879762,-73.6346925,485,3.8
Restaurant Basha Jarry,4975 Rue Jarry E,H1R 1Y1,45.5805237,-73.5956236,376,4.2
Mister Paté,3914 Rue Monselet,H1H 2C2,45.5887944,-73.6389327,71,4
A&W Lacordaire,9205 Bd Lacordaire,H1R 2B6,45.5969354,-73.6088752,613,3.8
mix sandwich,Rue Fleury E #3486,H1H 2R9,45.5812777,-73.6405569,31,5
La Boîte A Lunch | Déjeuner - Dîner - Traiteur - Terrasse & Bistro,5648 Rue Hochelaga,H1N 3L7,45.5686427,-73.537878,109,4.5
Restaurant Thaïlande,88 Rue Bernard O,H2T 2J8,45.5262556,-73.6029853,645,4.3
Le Lunch Box™,8766 Rue Pascal-Gagnon,H1P 1Z3,45.6032012,-73.5912841,50,4
Dic Ann's Hamburgers,10910 Bd Pie-IX,H1H 4B3,45.5910653,-73.6379779,846,4.4
Marché d'Alimentation des Caraïbes Inc,2969 Rue Fleury E,H2B 1M3,45.5793264,-73.6445109,70,4.1
Boustan Saint Leonard,9216 Bd Lacordaire,H1R 2B7,45.5967382,-73.6096835,487,3.9
Boustan Sherbrooke E.,6366 R. Sherbrooke E,H1N 3P6,45.5802538,-73.5439325,802,4.2
GrillnGo,9482 Bd Saint-Michel,H1Z 1E3,45.5752765,-73.6355342,680,4.2
Restaurant & Poissonnerie Mediterranéenne,7735 Bd Saint-Michel,H2A 3A7,45.5624045,-73.6056398,599,4.3
Thaï Express,10734 Bd Pie-IX,H1H 4A7,45.589271,-73.636365,225,3.9
Shawarma royale,1290 Rue Jarry E,H2P 1X1,45.5495468,-73.6218597,162,4.1
Muffin Plus,"Les Galeries d'Anjou, 7999 Bd des Galeries d'Anjou",H1M 1W9,45.6003223,-73.5633445,75,3.7
Restaurant La Belle Province,10710 Bd Pie-IX,H1H 4A7,45.5890184,-73.6361124,523,4.2
Cultures,7275 R. Sherbrooke E,H1N 1E9,45.589869,-73.539313,23,4
Café à Rome,7275 R. Sherbrooke E #61,H1N 1E9,45.5915887,-73.541685,31,4.3
D'organics food and drinks,5343 Boul Henri-Bourassa E,H1G 2T1,45.6052438,-73.6258314,0,
La Panthère Verte,160 R. St Viateur Est,H2T 1A8,45.5271629,-73.5974463,937,4.4
Foodchain,1212 Av. McGill College,H3B 4J8,45.5015664,-73.5708183,357,4.4
BONYARD | Restaurant de quartier dans le Sud-Ouest de Montréal,5205 Rue Angers,H4E 4A1,45.4659132,-73.5846302,268,4.9
Janine Café-Brunch,3900 Rue Wellington,H4G 1V3,45.4648358,-73.5667176,1127,4.7
New System Restaurant,3419 Notre-Dame St W,H4C 1P3,45.4806558,-73.5792397,848,3.3
Pizza Pinoli,5524 Av de Monkland,H4A 1C7,45.4763753,-73.6218732,225,3.5
Le Poké Station (Crescent),2153 Rue Crescent,H3G 2C1,45.4986587,-73.5783619,710,4.2
Tejano BBQ burrito,511 Rue de Courcelle,H4C 3C1,45.4729837,-73.5890729,698,4.4
East Africa Restaurant,5893 Rue Sherbrooke O,H4A 1X7,45.4689961,-73.6191672,314,4.4
Restaurant le Café Fréjus,5810 Rue de Verdun,H4H 1L9,45.4492295,-73.5724152,534,4.7
Restaurant Mélisse,719 Rue William,H3C 1N9,45.4982277,-73.5579922,656,4.4
Cultures,"Tour 700 de la Gauchetière, 700 Rue De La Gauchetière O",H3B 5M2,45.501014,-73.56448,16,4.2
Lola Rosa Milton,545 Rue Milton,H2X 1W5,45.5073078,-73.5757826,1537,4.5
LOV,1232 Rue de la Montagne,H3G 1Z1,45.4974058,-73.5746344,1665,4.3
Nil Bleu,3706 R. Saint-Denis,H2X 3L7,45.518441,-73.5712123,1041,4.3
État végétal,4764 Av. Papineau,H2H 1V4,45.5342736,-73.577848,24,4.9
Le Roi du Smoked Meat,6705 Rue St-Hubert,H2S 2M7,45.5379828,-73.6066307,1533,4.1
M2move,54 Rue Prince-Arthur E,H2X 1B3,45.514423,-73.571893,7,5
Subway,1000 Rue De La Gauchetière O Rc-12,H3B 4W5,45.4981757,-73.5663859,47,2.3
Rachelle-Béry épiceries santé,7055 Boul. Saint-Laurent,H2S 3E3,45.533964,-73.616405,366,4.2
Fruiterie Roger,1832 Avenue Laurier E,H2H 1B2,45.536109,-73.57993,248,4.6
Le Cartier. Coiffure et Bistro,1562 Av. Van Horne,H2V 1L5,45.5180432,-73.6168722,37,4.8
Mehadrin Meats,387 Rue Bernard O,H2V 4B7,45.5231016,-73.6062093,118,4.6
Kutuma Hotel & Suites,3708 R. Saint-Denis,H2X 3L7,45.5184,-73.5712639,171,4.4
Marché 3 Piliers,750 Rue Gilford,H2J 1N7,45.5274082,-73.5854476,175,4.4
La Grand-Mère Poule & Shack Attakk Beaubien,2500 Rue Beaubien E,H1Y 1G2,45.5490362,-73.5912952,1763,4.2
Panda Thai,783 Avenue du Mont-Royal E,H2J 1W8,45.5259771,-73.581489,191,3.8
Restaurant Algérien Au Coin Berbère,73 Av. Duluth E,H2W 1G9,45.5177895,-73.5787475,229,4.3
Ilion,1539 Av. Van Horne,H2V 1L4,45.5186681,-73.6168149,58,4.8
Réservoir - Brasseur,9 Av. Duluth E,H2W 1G7,45.5172694,-73.5792667,1410,4.5
Café Santropol,3990 Rue Saint-Urbain,H2W 1T7,45.5155778,-73.5805058,1597,4.5
Centre de Vaccination COVID-Resto du Plateau,4450 Rue St-Hubert,H2J 2W9,45.5249074,-73.5802608,0,
Association pour la santé publique du Québec,5455 Av. de Gaspé Bureau 200,H2T 3B3,45.5273369,-73.5962666,0,
La Prep,"École supérieure de mode de Montréal, 2000 Rue Sainte-Catherine",H3H 1M7,45.4915042,-73.5816539,5,2.6
Patati Patata St-Laurent Friterie Deluxe,4177 Boul. Saint-Laurent,H2W 1Y7,45.5180533,-73.5814759,1980,4.4
La Petite Dînette,4186 R. Saint-Denis,H2W 2M5,45.5215845,-73.5780521,142,4.3
Restaurant Faros - Fruits de mer Grecs - Méditerranéen,362 Av. Fairmount O,H2V 2G5,45.519926,-73.5977389,181,4.3
Café Tuyo,370 Rue Marie-Anne Est,H2W 1B3,45.5226284,-73.5807335,400,4.6
Santé la Terre,1139 Avenue du Mont-Royal E,H2J 1X9,45.5285071,-73.5789384,14,4.9
Lulia Plats à emporter,1902 Rue Masson,H2H 1A3,45.5382502,-73.5828354,35,4.5
Bol de vie,2810 Rue Masson,H1Y 1W8,45.5470862,-73.5753309,313,4.7
Bar Sante Goji,1972 Sainte-Catherine O,H3H 1M4,45.4920257,-73.5810803,1,4
Omnivore St-Laurent,4306 Boul. Saint-Laurent,H2W 1Z3,45.5187687,-73.5836497,1277,4.6
Mimi & Jones,5149 Av du Parc,H2V 4G3,45.5201967,-73.5967414,221,4.6
Pho Sante,3550 Rue Ontario E,H1W 1R5,45.5445973,-73.5448173,2,1
LE SERPOLET - Alimentation Santé / Parapharmacie - Marché / Épicerie Organic Bio Vegan - Vitamins & Supplements,1457 Av. Van Horne,H2V 1L3,45.519599,-73.615897,91,3.8
Restaurant Al-Raouché,4953 Boul Henri-Bourassa E,H1G 2R5,45.6027102,-73.6330635,258,4.2
Kanasuk Cuisine Creole,5842 Bd Léger,H1G 1K6,45.6163496,-73.628885,54,4.2
Déjeuner Eggcetera,6180 Boul Henri-Bourassa E,H1G 5X3,45.6075,-73.6124999,391,4
Ba Cat,10539 Bd Pie-IX Local 25,H1H 4A3,45.5890062,-73.6331001,47,4.2
LOV,464 Rue McGill,H2Y 2H2,45.5006017,-73.5590705,2438,4.4
Le Petit Alep Bistro,191 Rue Jean-Talon E,H2R 1S8,45.5364482,-73.6164824,1142,4.6
Monsieur shawarma,6425 Bd Léger local D-2B,H1G 6J7,45.6238482,-73.6231208,167,4.2
Chez Lien,6780 R. Sherbrooke E,H1N 1E1,45.5845674,-73.5417824,566,4.3
Restaurant Gandhi,230 Rue Saint-Paul O,H2Y 1Z9,45.5021893,-73.5554784,952,3.9
Café de l'artisanat,3436 Rue Dandurand,H1X 1M8,45.5534939,-73.5750724,62,4.9
Restaurant et bar St-Hubert,6225 R. Sherbrooke E,H1N 1C3,45.579097,-73.5458344,1405,3.8
Subway,8492 Bd Lacordaire,H2M 1H1,45.5879274,-73.5981411,105,3.4
Piri Piri Hochelaga,3753 Rue Ontario E,H1W 1S3,45.5468093,-73.5440382,865,4
McDonald's,5090 Boul Métropolitain,H1S 2V7,45.5795874,-73.5905537,2128,2.9
Restaurant la perle antillaise(cuisine Creole),5152 Rue Beaubien E,H1T 1W1,45.5730249,-73.5702629,102,4.1
Café Buongiorno,5833 Rue Jean-Talon E,H1S 1M4,45.5855152,-73.5802969,57,4.7
Restaurant Ô Asie,7060 R. Sherbrooke E,H1N 1E7,45.5872764,-73.5399874,243,4.3
Tim Hortons,8055 Bd Saint-Michel,H1Z 3C9,45.5639107,-73.6091435,1211,3.5
Thai Express Restaurant Anjou,"Galeries d'Anjou, 7999 Bd des Galeries d'Anjou",H1M 1W9,45.600662,-73.564402,102,3.2
Subway,5872 Bd Léger Local #19,H1G 5X5,45.6171527,-73.627997,118,4
"Patrick Ste-Marie N.D., conférencier et coach en santé, fitness et alimentation",3451 Rue Sainte-Catherine E,H1W 2E3,45.5419935,-73.5396646,32,5
Fusion Express,3974 Av. Pierre-De Coubertin,H1W 1E7,45.5525405,-73.5521484,430,4.4
PODIUM - Comptoir santé et boutique,3200 Rue Viau,H1V 3J3,45.5597106,-73.5511695,0,
La Belle Province,3929 R. Sherbrooke E,H1X 3E3,45.5528838,-73.5551614,999,3.8
Subway,#7900,H1Z 3E1,45.5623706,-73.6077218,298,3.5
McDonald's,7645 Bd Saint-Michel,H2A 3M4,45.5616657,-73.6039739,3413,2.9
La Brassée,2522 Rue Beaubien E,H1Y 1G2,45.5492228,-73.5911874,243,4.6
Sushi Momo par Christian Ventura,3609 R. Saint-Denis,H2X 3L6,45.518112,-73.569495,2535,4.7
Marché Reynald,1595 Rue Jean-Talon E,H2E 1S9,45.54728,-73.607869,75,4.2
L'Olive Noire,4271 Rue Ontario E,H1V 1K4,45.552149,-73.540187,335,4
Subway,5875 Boul Henri-Bourassa E,H1G 2V1,45.607406,-73.6188845,84,3.5
Boucherie Massimo,6395 Bd Robert,H1P 1N2,45.5966204,-73.5882553,5,4.6
La Chronique,104 Av. Laurier O,H2T 2N7,45.521647,-73.5938323,245,4.4
Basha Jean-Talon E,6400 Rue Jean-Talon E,H1S 1M8,45.5914632,-73.5752685,303,4
Falafel Yoni,54 Rue Saint- Viateur O,H2T 2K8,45.5250315,-73.599402,1023,4.6
Sak's sandwicherie,7387 Bd Saint-Michel,H2A 3A1,45.5602829,-73.6010158,285,4.8
Pizzeria Marconi,2222 Rue Beaubien E,H2G 1M7,45.5465764,-73.5935009,982,4.3
Restaurant Sans Menu,3714 Rue Notre Dame E,H1W 2J2,45.5438592,-73.5350615,0,
Restaurant indien Royal King,"Inside Amiens - Salles de Réception, 8700 Boul Langelier unit 200",H1P 3C6,45.599322,-73.593431,139,3.7
O-Thym,1112 Boul. de Maisonneuve E,H2L 1Z5,45.5183731,-73.558126,890,4.6
Extra Oeufs,6945 Av. Papineau,H2G 2X4,45.5464076,-73.6033268,449,4.2
Tendresse,1259 Rue Sainte-Catherine E,H2L 2H3,45.519173,-73.5557668,540,4.7
Banh Mi Santé,3550 Rue Ontario E,H1W 1R5,45.5445973,-73.5448173,1,1
McDonald's,7685 Bd Maurice-Duplessis,H1E 5M9,45.6280538,-73.5950099,1431,3.4
Menu sur le pouce,5155 Rue Wellington,H4G 1Y2,45.4548365,-73.5678935,54,4.7
Dépanneur GH,163 Rue Murray,H3C 2C9,45.492476,-73.5585972,22,4.7
Benyahia Aissam,6835 Boul. Gouin E,H1G 6M4,45.6279622,-73.6215312,2,4
Restaurant Et Cocktail Samara,11347 Bd Rivière-des-Prairies,H1C 1P8,45.6443184,-73.5544104,207,4.5
FreshMint,3501 Av du Parc,H2X 2H8,45.5096585,-73.573697,20,4.6
Buffet Chinois Restaurant Jade,67 Rue De La Gauchetière O,H2Z 1B9,45.5074702,-73.5605652,2876,3.1
Yifang Taiwan Fruit Tea 一芳台灣水果茶,1490 Boul. de Maisonneuve Ouest,H3G 2H7,45.4964333,-73.5786762,230,4.7
Dégustez La Santé,9000 Av. de Bretagne,H1J 1V9,45.6052221,-73.5780363,0,
Shish Taouk,3245 Av. de Granby,H1N 2Z7,45.5817674,-73.5416273,30,3.8
Restaurant Déjeuner La Terrasse,5077 Av Bannantyne,H4G 1G2,45.455613,-73.5765381,285,4.2
Restaurant Ô Bol Inc,800 Rue De La Gauchetière O,H5A 1K6,45.500133,-73.5652994,2,3.5
Jugo Juice,1000 Rue De La Gauchetière O,H3B 4W5,45.498175,-73.566385,38,4.2
McDonald's,1500 McGill College Ave LOCAL #025,H3A 3J5,45.5019093,-73.5723863,313,3.2
Café Van Houtte,159 Rue Saint-Antoine O Local 117,H2Z 1H2,45.505461,-73.559363,79,3
Cora Déjeuners et dîners,1017 Rue Sainte-Catherine E,H2L 2G4,45.5172988,-73.5574926,1037,4.2
MBCo La Boulangerie de Montréal,150 Sainte-Catherine O,H2X 3Y2,45.5074494,-73.5642464,231,3.3
La Prep,"Foire Alimentaire, 1000 Rue De La Gauchetière O Local 24",H3B 4W5,45.497993,-73.566343,16,2.8
La Prep,1100 Boulevard René-Lévesque O,H3B 4N4,45.4981846,-73.569803,30,3.7
Mandy's,425 Rue Saint-Nicolas,H2Y 2P4,45.5023978,-73.5561864,1060,4.5
Frais Café - Boite a Lunch - Sandwiches Salads Déjeuner - Vegan/Vegetarian - Caterer/Traiteur,1085 Côte du Beaver Hall,H2Z 1S5,45.5026454,-73.5651551,68,4.3
Copper Branch,600 Boul. de Maisonneuve Ouest,H3A 3J2,45.5041066,-73.5711053,505,4
Rachelle-Béry épiceries santé,1150 Rue Sainte-Catherine E,H2L 2G7,45.51786,-73.55614,478,4.2
CAFÉ DU PARQUET,1000 Pl. Jean-Paul-Riopelle,H2Z 2B3,45.5030978,-73.561569,181,4.6
Juliette & Chocolat,3600 Boul. Saint-Laurent,H2X 2V4,45.5138499,-73.5727642,2392,4.2
Blackout Fitness,1620 Notre-Dame St W,H3J 1M1,45.4895646,-73.567362,100,4.7
Shabu Shabu Kagayaki,75 Rue De La Gauchetière O,H2Z 1C2,45.5072222,-73.5608333,787,4.4
Porto Mar Restaurant,201 Pl. d'Youville,H2Y 2B3,45.5024808,-73.5549174,325,4.4
Universel Déjeuners et Grillades,359 Sainte-Catherine O,H3B 1A4,45.506137,-73.567358,2106,4.1
P23 Dumplings-The Point,2543 Rue Centre,H3K 1J9,45.4787565,-73.5690924,78,4.1
Domino's Pizza,1175 Rue de l'Église,H4G 2P1,45.463649,-73.5791195,356,3.4
Toujours Mikes,12500 R. Sherbrooke E,H1B 1C9,45.649142,-73.511695,459,3.7
Muffin Plus,383 Rue Saint-Jacques,H2Y 1N9,45.502026,-73.559992,22,4.3
Saladiom Restaurant,1635 R. Saint-Denis,H2L 1Y2,45.5151066,-73.5631339,123,4.7
Dragon de Chine,4596 Rue de Verdun,H4G 1M3,45.4588034,-73.5715824,251,3.3
Harvey's,4120 Bd LaSalle,H4G 2A5,45.4623351,-73.5630617,327,3.1
Restaurant Amir Verdun,4401 Rue Wellington,H4G 1W5,45.459991,-73.5673657,443,3.5
Café Cantina,1880 Rue Centre,H3K 1H9,45.4826743,-73.5621742,489,4.4
Labo culinaire - Foodlab,1201 Boul. Saint-Laurent,H2X 1K4,45.5095371,-73.5628344,261,4.3
McDonald's,7995 Boul Henri-Bourassa E,H1E 1N9,45.6252824,-73.5824873,1331,3.3
Harvey's,7100 R. Sherbrooke E,H1N 1E7,45.5879947,-73.5396132,1189,3.6
Piri Piri Longue-Pointe,6060 R. Sherbrooke E,H1N 1C1,45.5775803,-73.545713,314,3.5
Café La Ligne Verte,2531 Rue Ontario E,H2K 1W5,45.5329086,-73.5530319,59,4.6
Juste Nouilles Inc,3181 Rue Masson,H1Y 1Y2,45.550165,-73.5739401,502,3.5
Subway,3216 Rue Masson,H1Y 1Y3,45.5504881,-73.5732355,181,3.5
Tim Hortons,7295 Bd des Galeries d'Anjou,H1M 2W2,45.5975669,-73.5625675,660,3.5
McDonald's,6415 R. Sherbrooke E,H1N 1C5,45.5808765,-73.5445959,2637,3.4
Shop Santé Saint-Léonard,"7600 boulevard Viau, Local RP 364",H1S 2P3,45.5750378,-73.5920792,64,5
Subway,8101 Bd Pie-IX,H1Z 3T5,45.5717559,-73.6026231,158,3.8
Barbec Tropical,4696 Rue Jarry E,H1R 1X3,45.57731,-73.5970094,103,4.1
Poke Honolulu Montréal,2664 Rue Beaubien E,H1Y 1G7,45.5512051,-73.5894295,208,4.7
Pizza Savoureuse,5110 Rue Beaubien E,H1T 1V7,45.5725293,-73.5709011,152,4.3
Basha Masson,"3150 rue Masson (coin, 9ième ave",,45.5498001,-73.5736715,479,3.8
Le Poke Station (Jean-Talon E),5574 Rue Jean-Talon E,H1S 1L9,45.5820793,-73.580336,91,4
Jones Café,3349 Rue Ontario E,H1W 1P8,45.5427729,-73.546401,465,4.5
Le 514,8637 Av. Chaumont,H1K 1N3,45.609933,-73.5480405,27,4.1
Tiki-Ming,"7275 rue Sherbrooke Est, 123 Place Versailles",H1N 1E9,45.592141,-73.541016,160,4.3
Viet Gril Express,8736 Rue Hochelaga,H1L 2M7,45.601718,-73.5195189,469,4.3
Subway,9201 Boul Métropolitain Suite 400,H1J 1K2,45.6188773,-73.555495,96,3.3
Village des Valeurs,6800 Rue Jean-Talon E,H1S 1N1,45.5942264,-73.5695639,883,3.9
Esthétique Marie-Chantale,6454 Rue Beaubien E,H1M 1A9,45.5866965,-73.561054,3,3.7
Aliments Mejicano Plus Inc,7545 Av. M B Jodoin,H1J 2H9,45.6093722,-73.5812275,13,4.2
Villa Madina,"Les Halles d, 7500 Bd des Galeries d'Anjou",H1M 3M4,45.598018,-73.5675359,41,4.2
EpicesKay Caribbean food nourriture,5570 Rue Jean-Talon E,H1S 1L9,45.5818925,-73.5803033,184,4.5
Way Too Good,6832 Rue Jarry E,H1P 1W3,45.5978562,-73.5770231,13,4.9
A&V Bistro Santé,8000 Boul Langelier,H1P 3K2,45.5942549,-73.5812962,21,4.7
Grillades Torino Anjou,7999 Bd des Galeries d'Anjou,H1M 1W9,45.6006624,-73.5644021,94,3.4
Subway,9325 Sherbrooke Estates,H1L 6P2,45.6100899,-73.5274618,174,3.8
Antidote Bouffe Végane,3459 Rue Ontario E,H1W 1R4,45.5438752,-73.5458206,1275,4.3
Restaurant Chez To Go,9041 Rue Notre Dame E,H1L 3M9,45.6036834,-73.5127869,297,4.5
LA CAFÉSHOP,4090 Rue Andre Laurendeau,H1Y 3N6,45.5429158,-73.5625824,71,4.3
Basha Hochelaga,8649 Rue Hochelaga #101,H1L 2M5,45.6008206,-73.5204888,298,3.8
Super Delicieux 🍛 Indian 🥟 Restaurant,9194 R. Sherbrooke E,H1L 1E5,45.6091451,-73.5267156,284,3.6
L'Œuf Alpha,2015 Bd Rosemont,H2G 1T2,45.5427106,-73.589769,154,4.8
Brûlerie St-Denis,3039 Rue Masson,H1Y 1X7,45.549157,-73.5743922,402,4.3
Pizza Masson,2585 Rue Masson,H1Y 1V7,45.545063,-73.5768717,246,3.7
Tonkin Express | Restaurant vietnamien et asiatique,8582 Rue Hochelaga,H1L 2M3,45.5999163,-73.520588,148,4
Restaurant Kien-Giang Express,2669 Rue Ontario E,H2K 1X1,45.5344125,-73.5517764,236,4.6
Zoukis,7999 Bd des Galeries d'Anjou,H1M 1W6,45.6006806,-73.563038,173,4.1
Le Marché,22 Chem. Macdonald,H3C 6A3,45.5231928,-73.5354669,1,5
Le Flamant,4043 Rue Ontario E,H1W 1T3,45.5498555,-73.5416723,258,4.7
Vincent Sous-Marins,6647 Rue de Marseille,H1N 1M1,45.581675,-73.539433,582,3.6
Les Chics plats,3900 Rue Adam,H1W 3R1,45.5471396,-73.5383962,4,5
Restaurant Montaza,12675 R. Sherbrooke E,H1A 3V9,45.6555556,-73.5127778,586,4
Restaurant Grillades & Sushi,13072 R. Sherbrooke E,H1A 3W2,45.6565074,-73.5089488,120,4.6
Restaurant La Belle Province,1300 Bd St Jean Baptiste,H1B 4A4,45.641027,-73.502073,102,3.1
Pizza Pizza,12908 R. Sherbrooke E,H1A 4Y3,45.655148,-73.508937,236,3
Restaurant Thaï Mix,1305 Bd Saint-Jean-Baptiste,H1B 4A2,45.6424365,-73.5025571,139,4.3
Chez Smoothzi,7901 Av. André Ampère,H1E 3N1,45.6347529,-73.5941822,169,4.8
Cora déjeuners - Breakfast and Lunch,12580 R. Sherbrooke E,H1B 1C9,45.6503791,-73.511135,678,4.1
Restaurant Boustan,"12825-2, Sherbrooke St E",H1A 1B9,45.656126,-73.5105427,77,4.1
