Nom,Rue,postalCode,Latitude,Longitude,reviewsCount,totalScore
Arriba Burrito,1593 R. Saint-Denis,H2X 3K3,45.5148362,-73.5625513,496,4.5
Tejano BBQ burrito,511 Rue de Courcelle,H4C 3C1,45.4729837,-73.5890729,698,4.4
Restaurant Tex Mex,2212 Rue Saint-Germain,H1W 2T7,45.5425527,-73.5502215,304,3.9
Quesada Burritos & Tacos,4078 Rue Wellington,H4G 3M6,45.463086,-73.5667439,194,3.9
Mexigrill Express,3499 Boul. Saint-Laurent,H2X 2T6,45.5133002,-73.5709429,150,3.4
M4 Burritos Concordia,1530 Boul. de Maisonneuve Ouest,H3G 1N1,45.4960622,-73.5787922,281,4
Barraca Rhumerie,1134 Avenue du Mont-Royal E,H2J 1X8,45.5283146,-73.5785428,927,4.2
Marché El Palacio,13864 R. Sherbrooke E,H1A 3Z4,45.6673474,-73.505,113,4.7
La Chilenita,130 Rue Roy E,H2W 1L9,45.51655,-73.5747027,423,4.6
Alejandro,1481 R. Atateken,H2L 3L2,45.5180752,-73.5580498,215,4.6
Supermarché Sabor Latino,6955 Rue St-Hubert,H2S 2N1,45.539548,-73.6100371,2398,4.4
Tortilleria Maya,7016 Av. Casgrain,H2S 3A2,45.5347635,-73.6150038,21,4.1
Fusion Latino,3336 Rue Ontario E,H1W 1P7,45.5426453,-73.5461982,366,4.7
Escondite,3715 Rue Wellington,H4G 1V1,45.466716,-73.5667964,0,
Pancho,6939 Bd Décarie,H3W 3E4,45.492908,-73.6487887,39,4
Mucho Burrito Fresh Mexican Grill,150 Sainte-Catherine O,H2X 3Y2,45.507822,-73.5644126,149,3
TACO TRUNP,388 Rue Saint-Zotique E,H2S 1L7,45.535198,-73.6085649,390,4.7
Calaveras,2040 Rue Beaubien E,H1G 1M4,45.545362,-73.5944615,689,4.3
EL REY DEL TACO EXPRESS - Resto Mexicain - Takeout / Delivery - Terrasse,15 Rue Saint- Viateur O,H2T 2K7,45.5255887,-73.5992921,15,4.9
Restaurant Mañana,3605 R. Saint-Denis,H2X 3L6,45.5180023,-73.5693334,223,4.3
Mr. Azteca,7349 Rue St-Hubert,H2R 2N4,45.541888,-73.6155277,956,4.3
La Selva restaurant mexicain,862 Rue Marie-Anne,H2J 2A9,45.5252666,-73.5782787,331,4.5
El Meson,1678 Bd Saint-Joseph,H8S 2N1,45.4327132,-73.6794806,1156,4.5
TACOS DON RIGO,4740 Boul. Saint-Jean,H9H 4B2,45.4878911,-73.8502231,538,4.4
Les Soeurs Grises - Bistro-Brasserie,32 Rue McGill,H2Y 3W5,45.4988882,-73.5537352,673,4.1
Brasserie des Rapides,"Place Lasalle, 7852 Champlain Blvd",H8P 1B3,45.4266917,-73.609975,1483,4.3
La Boulette,2223 Rue Beaubien E,H2G 1M8,45.5465864,-73.5937513,1454,4.5
Au Cochon Fou,7848 Bd Champlain,H8P 1B3,45.4266441,-73.6095727,156,4.1
Lola Rosa Milton,545 Rue Milton,H2X 1W5,45.5073078,-73.5757826,1537,4.5
786 Restaurant Halal,12172 Blvd. Laurentien,H4K 1M9,45.5272006,-73.7188648,95,4.1
Diablos BBQ,17 Rue Prince-Arthur E,H2X 1B2,45.5143013,-73.5724039,1065,4
Chicho's,6580 Boul. Saint-Laurent,H2S 3C6,45.5311665,-73.6108171,194,4.2
Azalea,4306 R. Saint-Denis,H2J 2K8,45.5224257,-73.5799502,62,4.9
La Dinette MTL,7066A R. Sherbrooke E,H1N 1E6,45.5874704,-73.5398617,302,4.6
Resto Los Planes,531 Rue Bélanger,H2S 1G5,45.538412,-73.610978,623,4.2
La toxica MTL,7221 Rue St-Hubert,H2R 2N2,45.5412888,-73.6141102,297,4.2
Nacho Libre,913 Rue Beaubien E,H2S 1T2,45.5367544,-73.6026255,1231,4.1
Le Tequila Bar,4401 Notre-Dame St W,H4C 1S2,45.4747969,-73.5870698,731,4.4
M4 Burritos,1773 R. Saint-Denis,H2X 3K4,45.5159602,-73.5649006,589,3.6
sushi shin,304 Mnt de l'Église,H9E 1B5,45.4866145,-73.8794144,62,4.7
El Gordo,2518 Notre-Dame St W,H3J 1N5,45.4826942,-73.5753667,953,4.1
La Cantina,2022 Rue Stanley,H3A 1R6,45.50022,-73.575782,494,4.4
Restaurant El Amigo,51 Rue Saint-Zotique E,H2S 1K7,45.5325897,-73.6113584,234,4.4
La Capital Tacos,1096 Boul. Saint-Laurent,H2Z 1J5,45.5084429,-73.5610566,1925,4.4
Tacos Victor,4280 Notre-Dame St W,H4C 1R6,45.4756842,-73.5860024,1455,4.2
Restaurant Morelia,1477 Rue Sainte-Catherine E,H2L 2H9,45.5209489,-73.5540441,165,4.1
Maria Bonita,5163 Boul. Saint-Laurent,H2T 1R9,45.5236601,-73.5938796,404,4.3
Arriba Burrito (Express) Mont-Royal.,322 Avenue du Mont-Royal E,H2T 1P7,45.5231675,-73.5834374,474,4.6
Mezcaleros Tapas & Cocktails,5834 Av du Parc,H2V 4H3,45.5238206,-73.6063743,438,4.5
Tacos et Tortas,51 Rue Rachel O,H2W 1G2,45.5174678,-73.5823901,535,4.3
3 Amigos (Centre ville),1657 Sainte-Catherine O,H3H 1L7,45.494341,-73.578945,4967,3.8
Escondite,1206 Av. Union,H3B 3A7,45.5029736,-73.5679202,2514,4.5
Restaurant La Catrina - Mile-End,5490 Boul. Saint-Laurent,H2T 1S1,45.525609,-73.598883,265,4
HABANERO ET AJI,5889 Rue Sherbrooke O,H4A 1X6,45.4690787,-73.6191058,43,4.6
Restaurant El Sabor de México,5013 Rue Wellington,H4G 1Y1,45.455909,-73.5677851,815,4.5
EL REY DEL TACO,232 Rue Jean-Talon E,H2R 1S7,45.5364197,-73.6159603,2766,4.2
3 Amigos (Quartier Latin),1621 R. Saint-Denis,H2X 3K3,45.515026,-73.562918,2892,3.9
Café Cantina,1880 Rue Centre,H3K 1H9,45.4826743,-73.5621742,489,4.4
Ta Chido Snack-bar,5611 Av du Parc,H2V 4G9,45.5228088,-73.6030067,464,4.5
Tacos Frida,4350 Notre-Dame St W,H4C 2W6,45.4751735,-73.5863031,1616,4.6
Mexico Restaurant,2474 Rue Jean-Talon E,H2E 1W3,45.553891,-73.601485,796,4.4
RESTAURANT AriZ5 - Resto Mexicain - Montreal,4350 R. Saint-Denis,H2J 2L1,45.5228389,-73.5807616,220,4
La Tamalera,226 Av. Fairmount O,H2T 2M7,45.5212417,-73.5967417,384,4.4
Cinco de mayo - Cuisine Mexicaine,4412 Notre-Dame St W,H4C 1S1,45.4745899,-73.5869695,166,4.6
Le Roi Du Taco,232 Rue Jean-Talon E,H2R 1S7,45.536443,-73.6159898,137,4.4
Restaurant Amaranto,5974 Av de Monkland,H4A 1H1,45.4713977,-73.6263939,270,4.4
Mucho Burrito,3830 Boulevard Cote Vertu Ouest #120,H4R 1P8,45.492211,-73.7084411,662,4.2
Mucho Burrito Grillades Mexicaines Fraîches,1029 Rue du Marché Central,H4N 1J8,45.5344454,-73.6593791,571,4
IMPAC TACO - Resto Mexicain - Tacos - Churros - Takeout,7091 Rue St-Hubert,H2S 2N1,45.54047,-73.612261,104,4.5
Escondite Vieux Port,12 Rue Saint-Paul O,H2Y 1Y7,45.505375,-73.553839,963,4.3
Mr Taco,8521 Boulevard Saint-Michel,,45.5501074,-73.6365724,0,
La toxica St-Hubert,6794 Rue St-Hubert,H2S 2M6,45.538212,-73.6080858,82,3.8
La Guadalupe Mexicaine,2345 Rue Ontario E,H2K 1W2,45.5309919,-73.5547279,440,4.1
Marché Andes Comptoir Gourmet - Latin American Specialties,440 Rue Bélanger,H2S 1G2,45.5377381,-73.6112127,133,4.5
Quesada Burritos & Tacos,1001 Blvd Robert-Bourassa,H3B 0A7,45.5010233,-73.564439,86,3.9
Quesada Burritos & Tacos,4011 Maisonneuve Blvd W,H3Z 3G4,45.4890206,-73.5878541,4,4
Mojito & Margarita,3127 Rue Masson,H1Y 1X9,45.5495833,-73.574164,418,4.8
Que Taco Con Queso,9186 25e Ave,H1Z 4C9,45.5820308,-73.6208013,0,
Chilanga Taqueria,1371 Rue Sainte-Catherine E,H2L 2H7,45.5202886,-73.5546575,73,4.5
Camion A Tacos Grumman,"Le Faubourg Sainte Catherine, 1616 Saint-Catherine St W",H3H 1L7,45.493982,-73.5787514,0,
IMPAC TACO - Tacos - Resto Mexicain - Churros - Traiteur/Catering,6245 Boul Métropolitain E,H1P 1X7,45.5919922,-73.5814926,415,4.5
Caifan,67 Rue Beaubien E,H2S 1R1,45.5312235,-73.6077996,404,4.8
Mancora y Papichulo Resto-Bar Peruvien - Mexicain,3388 Rue Jean-Talon E,H2A 1W8,45.5604053,-73.5967523,83,4.2
Restaurant La Estacion,895 Rue De La Gauchetière O,H3B 4G1,45.500112,-73.566522,22,3
DELI ESQUITES - Antojitos Mexicanos / Mexican Street Food - Comida Mexicana,7093 Rue St-Hubert,H2S 2N1,45.5404373,-73.612246,25,4.2
Restaurant Mañana,3863 R. Saint-Denis,H2W 2M4,45.5198887,-73.5734647,0,
Restaurant La Catrina - Vieux-Port,119 R. de la Commune O,H2Y 2C7,45.50382,-73.5539833,603,4.1
Birriería Tin Tan,3506 Notre-Dame St W,H4C 1P2,45.4802568,-73.5795542,0,
Impac Taco,Réso Montréal Souterrain,H3A 1P2,45.5007874,-73.5733738,12,4.4
Mesón,345 Rue Villeray,H2R 1G8,45.5399655,-73.623644,788,4.5
Lakalaka,4110 R. Saint-Denis,H2W 2M5,45.521039,-73.5768942,111,4.4
Noupotle,223 Rue Guy,H3G 1M8,45.4970327,-73.5791637,0,
Restaurant Don juan,300 Av. Duluth E,H2W 1H9,45.519755,-73.5766315,124,3.9
Xolo Café Resto,7297 14e Avenue,H2A 2V9,45.5620883,-73.5974976,79,4.5
Chez Momo,1660 Rue Everett,H2E 1N6,45.5489708,-73.6107652,9,3.9
BONITA’S TACO & DELI,30 Sainte-Catherine O,H2X 3V4,45.5096043,-73.5639071,23,4.1
Tacos Victor Crescent,2145 Crescent St Unit #1,H3G 2C1,45.4986102,-73.57835,67,4.6
Restaurant Lost Tios,1465 Rue Crescent,H3G 2B2,45.4980542,-73.5770671,0,
La Chalupa Resto-Montreal,1121 Rue Bélanger,H2S 1H6,45.5414489,-73.60818,52,4.7
Taco Signature,2111 Avenue du Mont-Royal E,H2H 1J9,45.5354224,-73.572417,158,4.6
Taco Tijuana,5889 Rue Sherbrooke O,H4A 1X6,45.4690603,-73.6191019,503,4.3
Quesada Burritos & Tacos,335 Rue Sainte-Catherine E,H2X 3X2,45.5133846,-73.5611164,302,4.2
El Habanero Mexican Grill,977 Sainte-Catherine O,H3B 4W3,45.50111,-73.572243,65,4.2
3 Amigos (Palais des congrès),301 Rue Saint-Antoine O,H2Z 2A7,45.5035078,-73.5605575,785,3.5
Don Taco,1853 Sainte-Catherine O,H3H 1M2,45.4931771,-73.5802808,527,3.8
PLACE JUAREZ - Tacos / Resto Mexicain - Latin Market / Food Court,7093 Rue St-Hubert,H2S 2N1,45.5404373,-73.612246,108,4.4
Tacos Tin Tan,3828 R. Saint-Denis,H2W 2M2,45.5193737,-73.5732574,788,4.5
Escondite Drummond,1224 Rue Drummond,H3G 1V7,45.49794,-73.5731971,843,4.5
Don Nopal - Paradis Montreal inc,4427 R. Saint-Denis,H2J 2L2,45.5236246,-73.5817496,371,4.3
Le Karisma Taco Bar,114 Av. Laurier O,H2T 2N7,45.5214448,-73.5939873,205,4.6
LE CENTRAL,30 Sainte-Catherine O,H2X 0C8,45.5095584,-73.5638499,1371,4.6
Super Taco,500A Rue Bélanger,H2S 1G4,45.5379657,-73.6110015,619,4.3
La Tóxica Mtl,7217 Rue St-Hubert,H2R 2N2,45.5412718,-73.614201,41,4.1
La Matraca,4607 R. Saint-Denis,H2J 2L4,45.5247333,-73.5841722,861,4.3
Quesada Burritos & Tacos,3680 Chem. de la Côte-Sainte-Catherine,H3T 1E1,45.49826,-73.6273077,523,4.2
Las Tres Conchitas,1840 Rue Beaubien E,H2G 1L6,45.543574,-73.5959456,0,
Escondite Monkland,5626 Av de Monkland,H4A 1E3,45.4752452,-73.6229555,234,4.2
Restaurant Frida,768 Av. Atwater,H4C 2G9,45.4845656,-73.5802973,0,
Versashop,8450 10e Avenue,H1Z 3B6,45.5657854,-73.6163242,48,4.4
M4 Burritos Place-des-Arts,364 Sainte-Catherine O,H3B 1A1,45.505883,-73.5670318,11,4.9
Mi Tiendita Mexicana,5404 Rue Jean-Talon E,H1S 1L6,45.5800614,-73.5811165,106,4
Monsieur Burrito,921 Avenue du Mont-Royal E,H2J,45.5268648,-73.5805359,0,
Aliments Mejicano Plus Inc,7545 Av. M B Jodoin,H1J 2H9,45.6093722,-73.5812275,13,4.2
Tulum,1 Pl. Monseigneur Charbonneau,H3B 4M7,45.5020171,-73.5681858,32,2.7
French Takos,6047 Boul Henri-Bourassa E,H1G 2V2,45.6081518,-73.6167641,205,3.9
Quesada Burritos & Tacos,1100 Rue Sanguinet,H2X 1R6,45.5111936,-73.5584502,12,2.7
Mi Corazon Food Truck,4309 Rue Hogan,H2H 2N2,45.5392455,-73.5642787,8,4.8
Pizza Prima,5457 Rue Sherbrooke O,H4A 1W1,45.4730386,-73.6116003,382,4.6
Au Tacos Plaza Viau.,8461 Bd Viau,H1R 2T6,45.5816062,-73.602508,241,3.7
TACOS NASH,6530 Rue Beaubien E,H1M 1A9,45.5879492,-73.5603033,248,4
Mon Epicerie Mexicaine,5404 Rue Jean-Talon E,H1S 1L6,45.5800551,-73.581321,201,4.3
Sabor Del Sur,3668 Rue Ontario E,H1W 1R9,45.5458151,-73.5439668,0,
La Taqueria d'Hochlag,4641 Rue Sainte-Catherine E,H1V 1Z1,45.5540185,-73.5322129,155,4.4
La Dinette À Tacos,5660 R. Sherbrooke E,H1N 1A1,45.5726419,-73.5485181,0,
