Nom,Rue,postalCode,Latitude,Longitude,reviewsCount,totalScore
Souvlaki George™,6995 Av de Monkland,H4B 1J8,45.4599081,-73.6369885,785,4.1
La Maison Grecque,450 Av. Duluth E,H2L 1A5,45.5213236,-73.5752217,888,4.2
Ouzeri,4690 R. Saint-Denis,H2J 2L3,45.525,-73.5855557,728,4.4
Resto Molyvos Previously Lezvos (Mediterranean Cuisine),4235 A Bd Décarie,H4A 3K4,45.4790945,-73.6190609,27,4.1
Restaurant Nikas,6087 Rue Sherbrooke O,H4A 1Y1,45.467855,-73.621408,285,3.7
Elounda Restaurant,1818 Boulevard Cote Vertu Ouest,H4L 2A6,45.5105642,-73.6870348,580,4.4
Oliveraies Ktima Barakaris,6000 Rue Sherbrooke O,H4A 1X9,45.4683842,-73.6196325,287,4.7
Casa Réceptions,13081 Boul Gouin O,H8Z 1X1,45.5035845,-73.8416829,185,4
Restaurant Chez La Mère,4028 Rue Masson,H1X 1T8,45.5584873,-73.5685987,1119,3.5
Le Roi du Smoked Meat,6705 Rue St-Hubert,H2S 2M7,45.5379828,-73.6066307,1533,4.1
Restaurant Deli Plus,7690 Av. Papineau,H2E 2H2,45.5508848,-73.6144967,1183,4
Nouveau Système Beaubien,323 Rue Beaubien E,H2S 1R9,45.5331441,-73.6059842,446,4.4
Le Vieux St-Laurent,3993 Boul. Saint-Laurent,H2W 1Y4,45.5168261,-73.5787562,683,4.5
Restaurant Salonica,5261 R. Saint-Denis,H2J 2L8,45.5280837,-73.5915598,279,3.1
La Ligne Rouge,Rue Jean-Talon E,H2R 1T7,45.5387502,-73.6138414,697,4.3
Restaurant Ikanos,112 Rue McGill,H2Y 2E5,45.4994848,-73.5555416,529,4.3
Athena Pizzeria,10421 Boul Gouin O,H8Y 1W6,45.5111215,-73.806902,296,4.4
Sparta Chicken (St Catherine),4024B Sainte-Catherine O,H3Z 1P2,45.4885577,-73.5851112,0,
Restaurant Au Vieux Duluth Saint-Laurent,1997 Blvd. Marcel-Laurin,H4R 1K4,45.5189037,-73.7006436,444,4
Jardin Du Souvlaki,5115 Rue de Salaberry,H4J 1J2,45.5318238,-73.7079283,0,
Casa Grecque,7218 Bd Newman,H8N 1X2,45.442273,-73.615885,1685,3.9
Ilion,5999 Av de Monkland,H4A 1H1,45.4715336,-73.6269267,12,4.9
Restaurant Limeni,5942 R. Sherbrooke O.,H4A 1X7,45.4685744,-73.6191328,0,
Sparta Poulet Grec,405B R. Sherbrooke E,H2L 1J9,45.5172006,-73.5676598,490,4.3
Restaurant Zante,1112 Rue Sherbrooke O,H3A 1G9,45.5014047,-73.5766767,291,4.4
Usine Grecque Le Village,1345 Rue Ontario E,H2L 1R8,45.5228704,-73.5615001,177,4
Souvlaki Authentique Lachine,1050 Rue Notre Dame,H8S 2C2,45.4350502,-73.673021,117,4.6
Casa Grecque,200 Rue Prince-Arthur E,H2X 1B9,45.515872,-73.570836,896,3.9
Philinos Restaurant,4806 Av du Parc,H2V 4E7,45.5181835,-73.5929208,414,4.4
Petros Griffintown,1613 Rue William,H3J 1R1,45.4889822,-73.5655532,238,4.1
Rôtisserie Panama,789 Rue Jean-Talon O,H3N 1S3,45.5263991,-73.6247803,568,4.4
Estiatorio Milos – Montréal,5357 Av du Parc,H2V 4G9,45.5217363,-73.6004138,1325,4.6
Usine Grecque,5960 Bd des Grandes-Prairies,H1P 1A5,45.6003746,-73.6096474,215,4.5
Pitarifique,4160 Boul. Saint-Laurent,H2W 1Y8,45.5177823,-73.581721,526,4.4
Arahova Souvlaki,256 Rue Saint- Viateur O,H2V 1X9,45.5226294,-73.6016414,775,3.9
Villa du Souvlaki,5347 Rue Sherbrooke O,H4A 1V2,45.4738889,-73.6097222,557,4.3
Le Jardin de Panos,521 Av. Duluth E,H2L 1A8,45.522098,-73.5747521,1606,4.2
Mythos Ouzeri Restaurant,5318 Av du Parc,H2V 4G7,45.5209561,-73.6000177,627,4.4
RODOS Restaurant & Taverna - Resto Grecque,5583 Av du Parc,H2V 4H2,45.5225792,-73.6026603,105,4.4
Fameux Gyros Elatos,550 Rue Jarry O,H3N 1G1,45.5315335,-73.6353374,463,4.4
Yia Sou Greek Grill,5375 Chem. Queen Mary,H3X 1V1,45.4825,-73.630503,1021,4.3
Restaurant Faros - Fruits de mer Grecs - Méditerranéen,362 Av. Fairmount O,H2V 2G5,45.519926,-73.5977389,181,4.3
Le Jardin Des Puits,2237 Rue Fleury E,H2B 1K5,45.5730179,-73.6498296,238,4.4
Brochetterie Parthenon,3543 Av. Van Horne,H3S 1R7,45.5013455,-73.6320971,527,4.2
Restaurant Marven's,880 Av. Ball,H3N 1J7,45.5281356,-73.6337126,3085,4.4
Nostos,9530 Bd de l'Acadie,H4N 1L8,45.534182,-73.6614761,1291,4.4
Souvlaki Bar - Saint-Laurent,3310 Boulevard Cote Vertu Ouest,H4R 1P8,45.4961146,-73.7047522,1870,4.3
Restaurant Marathon Souvlaki,5365 Rue des Jockeys,H4P 2T8,45.4948645,-73.6552559,1503,4.4
Souvlaki Authentique Pierrefonds,4933 St Jean,H9H 2A9,45.491562,-73.8504014,150,4.4
Pappou Souvlaki,4767 Bd des Sources,H8Y 3C6,45.5036621,-73.8164306,219,4.7
Restaurant Laflamme,341 Rue Cherrier,H9C 1E5,45.4898825,-73.8736124,129,3.7
Arahova Souvlaki - Decarie,7965 Bd Décarie,H4P 2H5,45.4978427,-73.6577109,314,3.7
Arahova Souvlaki Cote Des Neiges,5655 Chem. de la Côte des Neiges,H3T 2A9,45.4985996,-73.626917,128,4.2
TAKA TAKA,1689 Avenue du Mont-Royal E,H2H 1Z6,45.5327546,-73.5749307,249,4.3
Casa Grecque,5787 R. Sherbrooke E,H1N 3R5,45.574628,-73.548492,1344,4.1
ACROPOLIS PIZZA - Resto Grec / Italien,7291 Av. de la Malicorne,H1M 1H2,45.5940501,-73.5499639,423,3.6
Sophia Cuisine,8640 Av. Chaumont,H1K 1N5,45.6098984,-73.5475368,128,4.2
Kouzina Niata,221 Rue Saint- Viateur O,H2T 2L6,45.5232065,-73.6014874,98,4.9
Kojax Souflaki,"CENTRE EATON, 705 Saint-Catherine St W #1262",H3B 4G5,45.5030412,-73.5715699,142,4.1
Pita Bar,4315 Rue Ontario E,H1V 1K5,45.5528951,-73.5397241,280,4.4
Souvlaki Bar Express - Gare Centrale,895 Rue De La Gauchetière O,H3B 2M9,45.4998631,-73.5678045,46,4
Phyllo Bar Melina's,5733 Av du Parc,H2V 4H2,45.523773,-73.605013,191,4.8
Ilion,1539 Av. Van Horne,H2V 1L4,45.5186681,-73.6168149,58,4.8
Monkland Grill,6447 Av. Somerled,H4V 1S4,45.4686209,-73.6378475,310,3.9
JARDIN PETROS - Little Italy,6896 Rue Saint-Dominique,H2S 3B2,45.5335711,-73.6141504,76,4.3
Petros Taverne Grecque (Lachine),600 Bd Saint-Joseph,H8S 2M1,45.4317267,-73.6695137,33,3.7
Resto grec,219 Rue Saint- Viateur O,H2T 2L6,45.5232273,-73.6014646,0,
Petros Laurier,234 Av. Laurier O,H2T 2N8,45.5204964,-73.5948103,178,4.5
Souvlaki Bar - Saint-Léonard,6830 Rue Jean-Talon E,H1S 1N2,45.5951314,-73.572067,464,4.3
Souvlaki Authentique Ville-Marie,2550 Rue de Rouen,H2K 1M6,45.5344258,-73.5557007,124,4.5
Casa Grecque,10651 Bd Pie-IX,H1H 4A3,45.589546,-73.633711,757,4
Estiatorio Kavos,7657 Bd Décarie,H4P 2H2,45.4972202,-73.6549141,122,4.7
Thanos Kitchen,1075 Rue Mistral,H2P 1S2,45.5489003,-73.6276416,13,4.5
Arahova Souvlaki Lasalle,8051 Bd Newman,H8N 2N9,45.4353883,-73.6273479,335,3.2
Restaurant Syros,11810 Bd Langelier,H1G 3M3,45.6166457,-73.6148304,77,4.7
Deli Paulos,3365 Av. de Granby,H1N 2Z7,45.5816667,-73.5416667,454,3.9
Souvlaki Bar Express (Complexe Desjardins),1250 Rue Saint-Urbain,H2B 3B2,45.5079242,-73.5635918,40,4.5
Souvlaki Bar - Verdun,3966 Rue Wellington,H4G 1V3,45.4641705,-73.566621,173,4.1
Terrasse Thanos / Thanos Terrace,250 Rue Villeneuve O,H2V 2R1,45.518667,-73.591585,190,4.8
VILLAGE GREC SOUVLAKI - Resto Grec - Gyros Salads Poutine Steak - Delivery Livraison Takeout,654 Rue Jean-Talon O,H3N 1R7,45.527442,-73.623675,756,4.1
