Nom,Rue,postalCode,Latitude,Longitude,reviewsCount,totalScore
Vinh Hing,939 Bd Décarie,H4L 3M3,45.5135134,-73.6812339,170,4.3
Restaurant 2K Fusion,89 Rue Jean-Talon E,H2R 1S6,45.5356392,-73.6172845,252,3.2
Zone d'Asie,2106 Rue Jean-Talon E,H2E 1V3,45.5503327,-73.604593,298,4.1
Maison Shing Do 成都美食阁,910 Bd Décarie,H3L 3M4,45.512831,-73.680952,283,3.7
Atelier Asie,453 Av. Viger O,H2Z 2B8,45.502603,-73.562942,104,4
HÀ Mont-Royal,243 Avenue du Mont-Royal O,H2T 2T2,45.51775,-73.5888222,637,4.3
Man Li Restaurant,4991 Bd des Sources,H8Y 3E3,45.5078103,-73.8204775,132,3.6
Restaurant Thaïlande,88 Rue Bernard O,H2T 2J8,45.5262556,-73.6029853,645,4.3
Thaï Express Lachine,"le Village Lachine, 637 32e Avenue",H8T 3G6,45.440622,-73.692812,252,3.8
Montrose Restaurant,6550 Av. Somerled,H4V 1S9,45.4669372,-73.6387485,125,3.4
Restaurant Talay Thai,5697 Chem. de la Côte des Neiges,H3S 1Y7,45.4990385,-73.6274641,290,3.9
Pho Ong Rau,300 Rue Jarry E,H2P 1T7,45.5414288,-73.6296883,499,4.3
Sushi 426,340 Bd Henri Bourassa O,H3L 3C2,45.5454081,-73.673568,102,4.4
Les Bridés,10420 Rue Lajeunesse,H3L 2E5,45.5540019,-73.6644929,276,4.2
Le Red Tiger,1201 Boul. de Maisonneuve E,H2X 2A1,45.5192046,-73.557834,985,4.3
Thai Saigon,8774 Rue Lajeunesse,H2M 1R6,45.5467287,-73.6394135,93,4.2
Thaï Express,1995 Blvd. Marcel-Laurin,H4R 1K4,45.51889,-73.70021,121,3
La Belle Tonki,1335 Rue Beaubien E,H2G 1K7,45.5405424,-73.5994458,993,4.8
Sésame,380 Rue Saint-Jacques,H2Y 1S1,45.5019364,-73.559413,652,4.2
Tong Por Resto-Reception,12242 Blvd. Marcel-Laurin,H4K 1M9,45.5279258,-73.7214516,1011,3.9
Restaurant Kyomi Lasalle,7660 Bd Newman,H8N 1X8,45.4384922,-73.6227142,1309,4.3
Plats de Pâtes Hong Mère,3795 Rue Wellington,H4G 1V1,45.4659063,-73.5668467,418,4.3
Tiki Ming,"3131 boul Côte Vertu, 8 Place Vertu M",H4R 1Y8,45.497253,-73.704253,33,4.1
Restaurant Thanh Thảo,5145 Rue Jean-Talon E,H1S 1K8,45.577524,-73.583302,88,4.5
Restaurant Y Lan,6425 R. Saint-Denis,H2S 2R6,45.533918,-73.604488,411,4.4
La Maison Ho,1800 Rue Notre Dame,H8S 2E9,45.4352337,-73.6804245,217,3.6
Saveurs Thaï,13900 Boul. de Pierrefonds,H9A 1A8,45.492894,-73.849974,168,4.3
Restaurant Expression D'Asie Inc,595 Rue Provost,H8S 1M3,45.4418713,-73.6692161,149,3.7
Restaurant Yi Pin Xiang,735 Bd Décarie,H4L 3L3,45.5111798,-73.6774754,338,4
Wing Phat,4201 Rue Jarry E,H1R 1W9,45.5729146,-73.6017423,1899,4.4
Thai Express Restaurant Pierrefonds,"Plaza Pierrefonds, 14850 Boul. de Pierrefonds",H9H 4Y6,45.483832,-73.858677,155,3.5
Peking Garden Restaurant,4794 Boul. Saint-Jean,H9H 5G9,45.4888033,-73.8507418,386,3.6
Dumpling King,4559 Bd Saint-Charles,H9H 3C7,45.4632098,-73.8699469,150,4.4
Asie Moderne,1676 Rue Poirier,H4L 1J3,45.5193033,-73.6973964,239,4.2
Nouveau Maison Kam,11779 Boul. de Pierrefonds,H8Z 1V6,45.507426,-73.822323,236,3.7
Pho Binh,4886 Bd Saint-Charles,H9H 3E2,45.4667271,-73.8749832,558,4.4
Phở Mymy,9460 Bd de l'Acadie,H4N 1L7,45.533974,-73.660283,906,4
C-Dumpling & Pho,8567 Boul. Saint-Laurent,H2P 2M9,45.5411521,-73.6384884,129,4.7
Restaurant Chez Tau Bay,745 Rue Jean-Talon E,H2R 1T9,45.5403241,-73.613649,178,4.2
Foo Lam Restaurant Maison,9394 Bd de l'Acadie,H4N 3H1,45.5334634,-73.6588028,510,3.4
Sama fusion,945 Rue Fleury E,H2C 1P5,45.5575701,-73.6596512,286,4.3
Thaï Express/Cultures,"Marché Central, 1023 Rue du Marché Central",H4N 1J8,45.534558,-73.65973,306,3.2
Le Bay Cà Phê,5263 Boul. Saint-Laurent,H2T 1S4,45.5244958,-73.5957079,379,4.6
Sushi Shop,3830 Bd de la Côte Vertu,H4R 1P8,45.492157,-73.709819,133,3.9
Bistro Isakaya,8178 Bd Champlain,H8P 1B4,45.4251356,-73.6126479,224,4.6
Thaï Express,8780 Boul. Saint-Laurent,H2N 1M4,45.541797,-73.643383,170,3.7
Thai Express Restaurant Lasalle,7077 Boul Newman Carrefour Angrignon,H8N 1X1,45.448198,-73.6152801,64,3.4
Restaurant Noodle Factory,1018 Rue Saint-Urbain,H2Z 1K6,45.5067346,-73.5607787,1132,4.3
La Petite Dînette,4186 R. Saint-Denis,H2W 2M5,45.5215845,-73.5780521,142,4.3
Chez Tomio,5161 Av. Papineau,H2H 1W1,45.5361224,-73.5812491,203,4.3
Thai Express Restaurant Lasalle,8071 Bd Newman,H8N 2N9,45.435009,-73.62768,141,3.4
Kam Shing Van Horne Restaurant,4771 Av. Van Horne,H3W 1H8,45.4947932,-73.637542,660,4.3
Thaï Express,5259 Rue Sherbrooke O,H4A 1V1,45.474673,-73.608659,233,3.4
Pekin Garden Restaurant,5255 Chem. Queen Mary,H3W 1Y3,45.484244,-73.629012,374,3.6
Chopstix Restaurant,325 Boul Henri-Bourassa E,H3L 1C2,45.5534063,-73.6694844,106,3.6
Qing Hua - Raviolis Chinois (Quartier Chinois et Boul. Saint-Laurent),1019 Boul. Saint-Laurent,H2Z 1J4,45.508143,-73.559573,1883,4.2
Sammi & Soup Dumpling CDN,5188 Av. Gatineau,H3T 1W9,45.4961831,-73.6199107,78,4.7
MajesThé Bistro Bar,2077 Blvd Robert-Bourassa,H3A 2M3,45.5048275,-73.5727648,530,4.3
Sammi & Soupe Dumpling,1909 Sainte-Catherine O,H3H 2E8,45.4926923,-73.5807852,2435,4.4
Thammada,1205 Av. Bernard,H2V 1V5,45.5205192,-73.6087322,340,4.5
Chez Chen,1618 Av. Lincoln,H3H 2L8,45.4958409,-73.5803556,278,4.2
Thaï Express,5660 Chem. de la Côte des Neiges,H3T 1Z2,45.49798,-73.626823,200,3.1
Buffet Chinois Mandarin,2101 Av Dollard,H8N 1S2,45.432696,-73.6341248,644,2.8
"Happy Lamb Hot Pot, Montréal 快乐小羊",50 Rue De La Gauchetière O,H2Z 1C1,45.5075497,-73.5602406,1378,4.1
Pho Maisonneuve,948 Boul. de Maisonneuve E,H2L 1Z1,45.5174403,-73.5588836,176,3.9
Bangkok Express,5645 Av de Monkland,H4A 1E2,45.4753247,-73.6233058,645,3.9
Hoàng Oanh Sandwich Vietnamien,7178 R. Saint-Denis,H2R 2E2,45.5382729,-73.6150659,200,4.5
Dumpling Shop,5674 Av de Monkland,H4A 1E4,45.4746153,-73.6233327,143,4
Amigo Restaurant,1027 Boul. Saint-Laurent 2nd floor,H2Z 1J4,45.5082343,-73.5596082,430,4.4
Dak Hing Barbecue,4705 Av. Van Horne,H3W 1H8,45.4952421,-73.6371092,211,4.7
Tiki-Ming,"Carrefour Angrignon, 7077 Newman Blvd F-10",H8N 1X1,45.447696,-73.615538,43,1.6
Restaurant Itamea,1283 Rue Beaubien E,H2S 1V1,45.539729,-73.599901,283,4
Panda Thai,783 Avenue du Mont-Royal E,H2J 1W8,45.5259771,-73.581489,191,3.8
Wok Cafe,1845 Sainte-Catherine O,H3H 1M2,45.4932398,-73.5801484,898,4
Super Noodles,5397 Chem. de la Côte St Luc,H3X 2C3,45.4796105,-73.6241843,140,3.9
Chez Ping Restaurant,6222 Bd Monk,H4E 3H7,45.4565497,-73.5951153,197,4
Kum Mon Restaurant,6565 Chem. de la Côte des Neiges,H3S 2A5,45.5024307,-73.6350453,208,3.4
Pho 88 Restaurant,5136 Bd Décarie,H3X 2H9,45.4836111,-73.63,762,4.1
Jatoba,1184 R. du Square-Phillips,H3B 3C8,45.5032786,-73.567343,1081,4.5
Restaurant Étoile Rouge,6707 Boul. Saint-Laurent,H2S 3C8,45.5320208,-73.6121576,357,4.1
Café Asia,1828 Avenue du Mont-Royal E,H2H 1J1,45.5332279,-73.5741484,224,3.6
Tao Restaurant,4242 Bd Décarie,H4A 3K3,45.4788312,-73.6193884,108,3.8
MAYHEM SAVEURS ASIATIQUES,"H2j2l2, 4433 Saint Denis St",H2J 2L2,45.5236775,-73.5818662,143,4.7
Sésame,305 Sainte-Catherine O,H2X 2A3,45.5067299,-73.5668181,1215,4
Thaï Express,5510 Rue Jean-Talon O,H4P 2T5,45.492213,-73.655338,247,3.6
Tampopo,4449 Rue de Mentana,H2J 3B4,45.526886,-73.579531,571,4.1
Chez Lien,8171 Bd Newman,H8N 1Y1,45.433952,-73.6287555,215,3.9
Sésame,141 Av. Atwater,H3J 2Z6,45.4795936,-73.575661,473,4
Jardin Du Cerf,1162 Boul. Saint-Laurent,H2X 2S5,45.508857,-73.562068,341,4.3
Gia Ba,5766 Av de Monkland,H4A 1E9,45.4735786,-73.6243941,244,4.2
Restaurant Lyla,431 Rue Jean-Talon O,H3N 1R3,45.5294332,-73.6229661,578,4.3
Fang Chi,3967 Rue Saint-Antoine O,H4C 1B7,45.479945,-73.587611,210,4.1
Mei Le Café Chinois,5309 Boul. Saint-Laurent,H2T 1A5,45.5246803,-73.5960054,282,4.4
Chef Foo,4715 Av. Van Horne,H3W 1H8,45.4952778,-73.6372222,148,4.2
Le Taklamakan,7401 Newman Blvd A35,H8N 1X3,45.4407972,-73.6214825,199,4.5
Oriental Fusion,"Sous-Sol, 7373 Bd Décarie",H4P 2G8,45.4946291,-73.6518564,109,3.8
East Pan Asiatique Cuisine et Bar,"1250, Boulevard Robert-Bourassa, Street Level",H3B 3B8,45.5027778,-73.5694444,288,4.3
Café Saigon,1280 Rue Saint-André,H2L 3S9,45.5160556,-73.5576028,796,4.4
Chez Ping,7401 Bd Newman,H8N 1X3,45.4424284,-73.6221739,319,3.8
Restaurant Hoai Huong,5485 Av. Victoria,H3W 2P9,45.4915927,-73.6309427,720,4.4
Restaurant La Citronnelle,1386 Rue Fleury E,H2C 1R5,45.560842,-73.657387,473,4
Restaurant Fu Jia,937 Bd Décarie,H4L 3M3,45.5135032,-73.6812108,187,4.3
Cuisine à Vapeur (Steam Cuisine) 蒸品,1993 Blvd. Marcel-Laurin,H4R 1K4,45.5186624,-73.7002282,17,3.9
Maeli - Maison de Nouilles,740 Boulevard Cote Vertu Ouest,H4L 5C8,45.5200966,-73.6742607,35,3.8
Phở Thành Nam Quang,740 Boulevard Cote Vertu Ouest Local 120,H4L 5C8,45.5199813,-73.6746139,355,4.2
Bistro Sawadika,1800 Boulevard Cote Vertu Ouest,H4L 2A6,45.5103483,-73.6866901,755,4.2
Mui Mui Montréal,149 Rue Jean-Talon O,H2R 2W9,45.5331438,-73.6198701,189,4.8
Pho Moderne,886 Bd Décarie,H4K 1H9,45.5124192,-73.6801797,460,4
KAM SHING Restaurant,6730 Chem. de la Côte des Neiges,H3S 2B2,45.5032173,-73.6381055,743,4.1
Tô Comptoir Asiatique,212 Rue Milton,H2X 1V6,45.5105327,-73.5726065,53,4.9
Restaurant Kam Do,971 Bd Décarie,H4L 3M6,45.5139629,-73.6820478,555,4.1
Thai Express Restaurant Saint Laurent,3131 Boulevard Cote Vertu Ouest,H4R 1Y8,45.497253,-73.704253,53,2.6
Kim Chi - Délice Coréen,3131 Boul Cote-Vertu Place Vertu,H4R 1Y8,45.497777,-73.705555,192,4.6
Restaurant Delicieux&Beau Thé,5665 Chem. de la Côte des Neiges,H3T 1Y8,45.4986403,-73.6269892,297,3.7
Restaurant Sen Vàng,5690 Av. Victoria,,45.4920201,-73.632757,320,4.6
Nouille Orientale,2774 Rue de Salaberry,H3M 1L3,45.5367221,-73.6976946,128,4.1
Restaurant Oriental Ngan Dinh,5540a Chem. de la Côte des Neiges,H3T 1Y9,45.4973981,-73.6251676,153,3.9
Restaurant kimfu,6254 Chem. de la Côte des Neiges,H3S 2A3,45.5012987,-73.6335572,129,3.5
phở kim,11898 Blvd. Laurentien,H4K 2V5,45.5248794,-73.7131444,104,3.9
Le Cristal Chinois,12230 Blvd. Laurentien,H4K 1M9,45.5277122,-73.7209422,67,3.8
Harmonie Orientale,1615 Av Dollard,H8N 1T3,45.4282555,-73.6294058,170,4
Restaurant Emeraude de Bangkok,413 Av. Bourke,H9S 3W8,45.4451975,-73.7213556,506,4.2
Sushi Shop,4147 Bd LaSalle,H4G 2A6,45.462367,-73.563556,33,4.8
Thai Express Restaurant Montréal,1000 Rue De La Gauchetière O,H3B 4W5,45.498175,-73.566385,62,2.8
JIAO,399 Notre-Dame St W,H2Y 1V2,45.5016064,-73.5593091,358,4.1
Thai Express Restaurant Montréal,1581 R. Saint-Denis,H2X 3K3,45.514896,-73.562198,184,3.1
Sushi Shop Île-des-Soeurs,"Les Halles de L Iles, 7 Pl. du Commerce",H3E 2B5,45.468633,-73.543111,79,3.2
Sushi Hoshimi,6573 Av. Somerled,H4V 1S9,45.467129,-73.639065,172,4.5
Fisshu,537 Sainte-Catherine O,H3B 1B2,45.5045242,-73.5687255,3753,4.2
Thaï Express,1570 Boul. de Maisonneuve Ouest,H3G 1N1,45.495919,-73.578919,224,2.9
Tiki-Ming,"1500 Avenue McGill College A-027, Place Montreal Trust",H3A 3J5,45.50234,-73.5723531,24,3.4
Chef Lee,1901 Sainte-Catherine O,H3H 1M3,45.492845,-73.5807318,289,4.4
Thaï Express,"Place Alexis Nihon, 1500 Av. Atwater",H3Z 1X5,45.489505,-73.585265,65,3.3
Qing Hua Dumpling - (Maisonneuve),1675 Boul. de Maisonneuve Ouest,H3H 1J6,45.4949188,-73.5803364,1289,4.2
Thaï Express,"Carrefour Industrielle Alliance, 977 Sainte-Catherine O",H3B 4W3,45.50111,-73.572242,27,3
Sushi Newman,7763 Bd Newman,H8N 1X7,45.4379729,-73.6248796,261,4.1
Tiki-Ming,705 Sainte-Catherine O,H3B 4G5,45.502538,-73.571326,73,2.4
Sushi Shop,8061 Bd Newman,H8N 2N9,45.43532,-73.627173,270,4.2
Thai Express Restaurant Montréal,11 Avenue du Mont-Royal O,H2T 2R9,45.519945,-73.586697,93,2.7
ND Sushi,9717 Boul. Saint-Laurent,H3L 2N4,45.546456,-73.6575259,136,4.5
Restaurant Mikado,399 Av. Laurier O,H2V 2K3,45.5189601,-73.5967566,452,4.4
Thaï Express,"Louis Boheme, 1504 Rue de Bleury",H3A 2J2,45.506831,-73.568767,278,3.8
APPAYON - Cuisine Bangladeshi,520 Av. Ogilvy,H3N 1M8,45.528879,-73.6251844,356,4.3
Sushi shop,9252 Bd de l'Acadie,H4N 3C5,45.532662,-73.6561879,107,4
P23 Dumplings-Outremont,1346 Av. Van Horne,H2V 1K8,45.5207131,-73.6143469,117,4.5
Buffet Chinois Restaurant Jade,67 Rue De La Gauchetière O,H2Z 1B9,45.5074702,-73.5605652,2876,3.1
Sep Lai,2601 Rue Centre,H3K 1K2,45.4784533,-73.569599,118,4.4
Umi Sushi,38 Pl. du Commerce,H3E 1T8,45.4675885,-73.5415991,167,3.9
Soba Restaurant,5227 Rue Sherbrooke O,H4A 1T7,45.475,-73.6083332,555,4.3
Aka-Fuji Restaurant,3872 Rue Wellington,H4G 1V2,45.4652542,-73.5666539,231,4.5
Urumqi Ozgu 🥟 Uyghur 🍜 Restaurant,1617 Av Dollard,H8N 1T7,45.4283025,-73.6294909,129,4.5
Les Street Monkeys,3625 Rue Wellington,H4G 1T9,45.4676819,-73.5666978,1098,4.6
Marché Inter-Asia,4335 Rue Wellington,H4G 1W3,45.460471,-73.5673521,316,4.2
Zenbu Sushi,5751 Boul Gouin O,H4J 1E2,45.5326321,-73.7192707,309,4.4
Takumi Sushi,405A R. Sherbrooke E,H2L 1J9,45.517186,-73.5675984,1555,4.1
Buffet Chinois Mandarin,7373 Boul Langelier,H1S 1V7,45.5921027,-73.5712055,978,2.8
Itamea sushi,1898 Rue Beaubien E,H2G 1L9,45.5441246,-73.5954869,412,4.1
Sushi Bonsa,4818 R. Saint-Denis,H2J 2L6,45.5253299,-73.5862438,200,4.6
Tora Sushi,150 Rue Beaubien E,H2S 1R2,45.5314328,-73.6070468,150,4.2
Sake Grillades,5125 Boul. Saint-Laurent,H2T 1R9,45.5233892,-73.5932305,182,4.4
Manchu WOK,"Le Galeries D'Ajou, 7999 Boulevard des Galeries d'Anjou #F004",H1M 1W9,45.600662,-73.564402,56,3.1
Sushi shop,1751 Rue Fleury E,H2C 1T3,45.567282,-73.654104,215,4.1
Tiki-Ming,"7275 rue Sherbrooke Est, 123 Place Versailles",H1N 1E9,45.592141,-73.541016,160,4.3
Freres Restaurant,3892 Rue Ontario E,H1W 1S6,45.5481859,-73.5424591,346,3.7
DonDonYa,1433A R. Bishop,H3G 2E4,45.4971832,-73.5772503,382,4.7
Bistro CÔ ÚT - Montréal,3807 Rue Saint-André,H2L 3V9,45.5218748,-73.5702607,386,4.7
Restaurant Mon Nan,43 Rue de la Gauchetière E,H2X 1P4,45.5085792,-73.5597671,1314,4.2
Lime Griffintown,1510 Notre-Dame St W,H3C 1L1,45.4906012,-73.5663795,344,4.6
Thaï Sep,1900 Rue Jean-Talon E,H2E 1T6,45.5486111,-73.6061111,274,4.5
Saumon Sushi,8519 Boul. Saint-Laurent,H2P 2M9,45.5409809,-73.6377935,169,4.7
Restaurant Keung Kee,70 Rue De La Gauchetière O,H2Z 1C1,45.507253,-73.560407,1094,3.9
Petit Marché végé,7057 R. Saint-Denis,H2S 2S5,45.537987,-73.613323,219,4.7
Maison de Sushi,31 Rue Fleury O,H3L 1S7,45.5481347,-73.6652559,124,4.3
Marché Hung Phat,7099 R. Saint-Denis,H2S 2S5,45.5381895,-73.6137984,580,4.7
Pho An-Nam,"metro Papineau, 1830 Rue Sainte-Catherine E",H2K 2H3,45.5229284,-73.5519057,232,3.8
La Maison de Mademoiselle Dumpling,6381 Rue St-Hubert,H2S 2L9,45.535955,-73.602344,999,4.6
Thai Express Restaurant Montréal,2910 Rue de Salaberry,H3M 1L3,45.536317,-73.70021,178,3.4
Pho Mymy,408 Rue Gilford,H2J 1N2,45.5256578,-73.5860241,203,3.9
Nouilles Etc,6666 R. Sherbrooke E,,45.5831872,-73.5424461,729,4.1
Maison Thaï,1351 Avenue du Mont-Royal E,H2J 1Y8,45.5304947,-73.5771915,341,3.6
Fu Lam Express Jean Talon,6410 Rue Jean-Talon E,H1S 1M8,45.5913928,-73.5750064,1511,3.6
Thaï Express,"5040 Rue Jean-Talon E, Rue Michelet",H1S 1K6,45.575402,-73.582827,329,3.3
Eko Sushi,3502 Notre-Dame St W,H4C 1P4,45.480269,-73.579506,283,4.5
Sushiman,7077 Bd Newman,H8N 1X1,45.447339,-73.617185,118,3.6
Tonkin Express | Restaurant vietnamien et asiatique,8582 Rue Hochelaga,H1L 2M3,45.5999163,-73.520588,148,4
Restaurant Pho Nam Inc,3250 Boul Crémazie E,H2A 3N9,45.5629035,-73.6053541,381,4.3
Restaurant la Mer Jaune,5832 Bd Léger,H1G 1K6,45.6160405,-73.629097,193,3.5
Fung Shing Restaurant,1102 Boul. Saint-Laurent,H2Z 1J5,45.5084469,-73.561151,360,4.1
Kanbai,1110 Rue Clark,H2Z 1K3,45.5080822,-73.5614973,699,4.3
Cuisine AuntDai,1448 Rue St Mathieu,H3H 2H9,45.4943194,-73.5803435,723,4.5
Asie Express,4949 Boul Métropolitain E,H1R 1Z6,45.5787447,-73.5930618,1,3
Restaurant Pho Ngon,3205 Boul Crémazie E,H1Z 4M5,45.5622907,-73.6078301,1227,4.4
Maneki Comptoir Asiat',3121 Rue Hochelaga,H1W 1G3,45.5420356,-73.5546207,445,4
CAFEDEN,6576 Boul. Saint-Laurent,H2S 3C6,45.5311629,-73.6107867,148,4.7
Salut Asie,6361 R. Sherbrooke E,H1N 1C4,45.5802673,-73.5450463,323,4.2
Restaurant Shekz,7272 Bd Maurice-Duplessis,H1E 4A7,45.6234916,-73.6011289,185,4.2
TRAN Cantine Vietnamienne,4690 Notre-Dame St W,H4C 1S6,45.4727902,-73.588592,660,4.5
Kokoro Sushi & Tapas,1150 Rue Sauvé O,H4N 0C6,45.536294,-73.6651491,359,4.5
Inochi Express,7381 Boul. Saint-Laurent,H2R 1W7,45.5358649,-73.6204921,209,4.5
Phở Nam Quan,3562 Rue Jarry E,H1Z 2G3,45.5665722,-73.6068084,525,4.4
Fusion Express,3974 Av. Pierre-De Coubertin,H1W 1E7,45.5525405,-73.5521484,430,4.4
Le Petit Sao (Pointe-Saint-Charles),1870 Rue Centre,H3K 1H7,45.4827747,-73.5621045,328,4.3
Sushi 426,426 Rue Villeray,H2R 1H3,45.5411976,-73.6225375,258,4.3
Duy Anh,7961 Bd Saint-Michel,H1Z 3C9,45.5633893,-73.6081714,208,4
Jardin des Délices,3537 Rue Rachel E,H1W 1A8,45.5495567,-73.5582733,184,4.5
Restaurant Pho Mont Royal,1459 Avenue du Mont-Royal E,H2J 1Y9,45.5311406,-73.5764545,410,4
An Choi Plaza,6553 Rue St-Hubert,H2S 2M5,45.5366659,-73.60391,0,
Szechuan et Nouilles,355 Rue Bernard O,H2V 1T6,45.5235686,-73.6057951,126,3.5
Le Caractère Chinois,1870 Rue Gauthier,H2K 1A3,45.5302264,-73.5665652,75,4.4
La Maison Egg Roll,3741 Rue Wellington,H4G 1V1,45.4664138,-73.566813,143,3.4
Restaurant Pho Bac 01,4707 Rue Wellington,H4G 1X2,45.4577082,-73.5676101,364,3.9
Chef Tang,4123 Rue de Verdun,H4G 1L2,45.4627079,-73.5715767,293,4.2
Restaurant Ô Asie,7060 R. Sherbrooke E,H1N 1E7,45.5872764,-73.5399874,243,4.3
Restaurant Nouilles Impériales,12000 Bd Armand-Bombardier,H1E 1W3,45.6316174,-73.5901522,250,3.2
Fondue Kim Long,3250 Boul Crémazie E,H2A 3N9,45.562774,-73.6054732,251,4.2
Restaurant Phoenix Oriental,7230 Bd Maurice-Duplessis,H1E 4A7,45.6230432,-73.602393,269,4.2
Restaurant Nouveau Kum Mon Inc,5047 Boul Henri-Bourassa E,H1G 2S1,45.6031219,-73.6313366,117,4.1
Restaurant Kim Hour,7682 Bd Saint-Michel,H2A 3A5,45.5616501,-73.6052225,439,4.1
Pho Fleury,1031 Rue Fleury E,H2C 1P8,45.558189,-73.659329,70,4.3
Hương Xưa Restaurant,7061 Rue Jarry E,H1J 1G3,45.6010811,-73.5767203,354,4.5
La Paz Batchoy MTL,4735 Av. Van Horne,H3W 1H8,45.4950906,-73.6372361,4,5
Thaï Express,10734 Bd Pie-IX,H1H 4A7,45.589271,-73.636365,225,3.9
Pho Lien,5703B Chem. de la Côte des Neiges,H3S 1Y7,45.4989641,-73.6276097,1850,4.4
Nouilles Star,1871 Sainte-Catherine O,H3H 1M2,45.4929995,-73.580451,1037,4.2
Sushi Plus,2101 Av Dollard,H8N 1S2,45.4329424,-73.6355735,1114,4.1
Restaurant FamiLi,7215 Rue St-Hubert,H2R 2N2,45.5412296,-73.6140892,159,3.9
Pho 99 Chabanel,9347 Boul. Saint-Laurent,H2N 1P6,45.5447808,-73.6517133,120,4.2
Banh Mi Saigon Jarry,696 Rue Jarry E,H2P 1V9,45.545336,-73.6269976,350,4.6
Restaurant Pho DO,676 Rue Jarry E,H2P 1V9,45.5451341,-73.6271686,214,4.8
Banh Mi Thinh,8084 Rue Lajeunesse,H2R 2J6,45.543457,-73.6281122,80,4.3
Bols d'Asie & Queen Tea,7058 Rue St-Hubert,H2S 2M9,45.5399954,-73.6118721,15,4.7
La Merveille du Vietnam,1283 Rue Beaubien E,H2S 1V1,45.5397567,-73.5999146,173,3
Restaurant Rizière,4495 Boul. Saint-Laurent,H2W 1Z8,45.520141,-73.5862005,354,4.8
Suisen Sushi - Pho Lam Ici,2641 Rue Masson,H1Y 1W1,45.5457551,-73.5765226,207,4.1
Juste Nouilles Inc,3181 Rue Masson,H1Y 1Y2,45.550165,-73.5739401,502,3.5
Viet Express,4536 Rue Wellington,H4G 1W7,45.4588786,-73.5672225,218,4
Thaï Express,"Le Campanille, 38 Pl. du Commerce",H3E 1T8,45.467473,-73.541526,154,3.9
Dragon de Chine,4596 Rue de Verdun,H4G 1M3,45.4588034,-73.5715824,251,3.3
Kokochi Izakaya,5145 Rue Wellington,H4G 1Y2,45.4549125,-73.567969,211,4.1
Le Petit Sao (île des soeurs),"Centre Commercial Le Village, 40 Pl. du Commerce #20",H3E 1J6,45.4667273,-73.5424634,420,4.3
Restaurant Kim Jian,3270 Rue Jean-Talon E,H2A 1W3,45.5592404,-73.5976793,68,3.9
Restaurant Ho Guom,2605 Rue Jean-Talon E,H2A 1V1,45.5552862,-73.6008659,603,4.3
Pho Lam,8485 Bd Saint-Michel,H1Z 3E7,45.567216,-73.616604,114,4.6
Épicerie Banh Mi Linh,2151 Rue Fleury E,H2B 1J9,45.5718118,-73.6507975,130,4.4
Restaurant Li Wah,10815 Bd Pie-IX,H1H 3Y2,45.590551,-73.636596,133,3.6
Restaurant Kim,7624 Rue Centrale,H8P 1K9,45.4317781,-73.5975126,4,5
SushiTime,4707 Rue de Charleroi,H1H 1V1,45.5965481,-73.6321081,38,4.3
Bol de ramen.,1714 Rue Fleury E,H2C 1T2,45.5662296,-73.6542107,130,3.9
Excellent hot pot,2036 Rue Lapierre,H8N 2S2,45.4365799,-73.6150305,74,4.1
Mr. Dumpling,5045 Rue Wellington,H3G 1Y1,45.4556418,-73.5677819,318,4.5
Deli Lee,2050 Rue Lapierre,H8N 2L1,45.4368142,-73.615837,4,5
Nasu Thé,3120 Rue Denis Papin,H1Z 1W6,45.5672834,-73.6228465,10,4.5
Restaurant Nam Do,7087 R. Saint-Denis,H2S 2S5,45.5381296,-73.6136401,195,4.3
Tchang Kiang by Yangtze,6066 Rue Sherbrooke O,H4A 1Y1,45.467883,-73.6205399,272,3.9
Restaurant Thai Son,7093 R. Saint-Denis,H2S 2S5,45.538163,-73.613757,159,4.2
Pho Hao,6230 Chem. de la Côte des Neiges,H3S 2A1,45.5009518,-73.6327717,518,4.1
Restaurant Doan,1356 Av. Van Horne,H2V 1K5,45.5206929,-73.6144717,99,4.4
Chez LK,5000 Chem. Queen Mary,H3W 1W9,45.4855565,-73.627295,32,4.9
Gio Cha,237 Rue Jean-Talon O,H2R 2X6,45.5320405,-73.620931,0,
Bánh Mì Soleil de Saigon,1227 Avenue du Mont-Royal E,H2J 1Y2,45.5291095,-73.578354,119,4.7
Aux Sept Bonheurs,4201 Bd Rosemont,H1T 2C7,45.5615633,-73.5733713,157,3.7
Restaurant My Tien,18 Rue Jean-Talon O,H2R 2W5,45.5342528,-73.6184398,96,4.4
O Fuzion,2862 Bd Rosemont,H1Y 1L7,45.5500472,-73.5829601,162,3.9
Le Mekong,921 Avenue du Mont-Royal E,H2J 1X3,45.5268438,-73.5804779,303,4.5
Pho Mai,4549 Rue Jarry E,H1R 1X6,45.5762841,-73.599011,131,4.4
Restaurant Nguyen Phi,6260 Chem. de la Côte des Neiges,H3S 2A3,45.5012969,-73.6336206,621,4.5
Restaurant Dragon Magnifique,5444 Rue Jean-Talon E,H1S 1L6,45.5804811,-73.581014,385,4.4
Fleur d'Asie,2481 Rue Fleury E,H2B 1L4,45.5752936,-73.6480048,123,4.3
Hoshi Dong Que,1210 Bd Rosemont,H2S 2A5,45.5360012,-73.5938056,372,4.3
Banh Mi Madame Ly,766 Rue Beaubien E,H2S 1S7,45.5355978,-73.6033948,485,4.5
Kasaisuta Fusion,929 Rue Saint-Zotique E,H2S 1M9,45.5384571,-73.6060342,188,4.5
Restaurant Go Cong,1310 Rue Bélanger,H2G 1A1,45.5432294,-73.6060993,27,4.8
Banh Mi Co Kieu,2569A Rue Jean-Talon E,H2A 1T8,45.554665,-73.6013386,199,4.9
Wok Hei,7481 Av. De Lorimier,H2E 2P4,45.5525198,-73.60968,52,5
Bun Viet,1975 Rue Beaubien E,H2G 1M2,45.5447056,-73.5953826,202,4.3
Pho Tay Ho,6414 R. Saint-Denis,H2S 2R7,45.5336596,-73.6046458,1480,4.4
Pho Thanh Long,103 Rue Sainte-Catherine E,H2X 1K5,45.511171,-73.563013,676,4.3
Sushi shop,1053 Av. Bernard,H2V 1V1,45.522252,-73.6070649,55,3.6
Thai Express Restaurant Montréal,"Tour Intact, Blvd Robert-Bourassa",H3A 2A5,45.503964,-73.572286,123,4.1
Restaurant Hansang,5136 Av du Parc,H2V 4G5,45.5197108,-73.5967383,330,4.7
BIBIKO,31 R. St Viateur Est,H2T 1A5,45.5263542,-73.5987689,219,4.4
Dumplings Imagine,16 Rue Rachel E,H2W 1C5,45.5183457,-73.5812288,241,4.2
Thai Express Restaurant Montréal,4497 R. Saint-Denis,H2J 2L2,45.524025,-73.582669,186,2.5
Ichi Sushi,102 Avenue du Mont-Royal O,H2T 2T1,45.5187183,-73.587453,361,4.3
Côba Sushi,1124 Av. Laurier O,H2V 2L4,45.5170867,-73.5978208,364,4.4
Harbin Dumpling,4801 Boul. Saint-Laurent,H2T 1R6,45.5216,-73.5893745,1031,4.5
Marché Asiatique Montréal,,,45.5087957,-73.5611181,6,2.7
Nouilles de Lan Zhou,1006 Boul. Saint-Laurent,H2Z 9Y9,45.5077382,-73.5596307,2554,4.5
Phở Đô thị,6272 Rue St-Hubert,H2S 2M2,45.535027,-73.6009859,318,4.5
Pho Ngoc Tuan,4647 Rue Jarry E,H1R 1X6,45.5770634,-73.5983323,180,4
Phở Khánh Hoà,5110 Rue Jean-Talon E,H1S 1K7,45.5767485,-73.58302,235,4.5
Restaurant Phuket,4673 Rue Jarry E,H1R 1X6,45.5773927,-73.5980496,646,4.3
Gourmet D`Asie Express,5110 Rue Jean-Talon E,H1S 1K8,45.5768472,-73.5828374,1,5
Sun Heng Chinese Food,6349 Bd Léger,,45.6227454,-73.6238268,292,4
Thai Express Restaurant Anjou,"Galeries d'Anjou, 7999 Bd des Galeries d'Anjou",H1M 1W9,45.600662,-73.564402,102,3.2
Marché Kei Phat,4215 Rue Jarry E,H1R 1W9,45.573095,-73.601415,229,4
Thai Express Restaurant Anjou,"Halles d'Anjou, 7500 Bd des Galeries d'Anjou",H1M 3M4,45.598018,-73.5675359,20,3.3
Beni Hana Cuisine Japonaise,5666 R. Sherbrooke E,H1N 1A1,45.5725,-73.5486999,1361,4.4
Pho Hoa Long,10660 Bd Pie-IX,H1H 4A6,45.5889203,-73.6357409,38,4.1
Kim Phat Marché d'Asie - Jarry,3733 Rue Jarry E,H1Z 2G1,45.5692711,-73.6055221,2939,4.1
Akita,6985 Rue Jarry E,H1P 3B5,45.5998717,-73.5775619,160,4.4
Soupe & Roll,5865 Rue Hochelaga,H1N 1X2,45.5721452,-73.5368129,171,3.9
Chez O,5849 R. Sherbrooke E,H1M 2N2,45.575574,-73.5478947,280,4.3
Souping Sushi,7468 Boul Langelier,H1S 3B7,45.5915546,-73.574092,190,4.8
Hoan Lan,5833 Bd Léger,H1G 1K7,45.6171737,-73.6295281,92,4.4
Restaurant Chez To Go,9041 Rue Notre Dame E,H1L 3M9,45.6036834,-73.5127869,297,4.5
Viet Gril Express,8736 Rue Hochelaga,H1L 2M7,45.601718,-73.5195189,469,4.3
Phở Long Phụng,6503 Rue Beaubien E,H1M 1B1,45.5873777,-73.5616169,300,4.5
Chez Lien,6780 R. Sherbrooke E,H1N 1E1,45.5845674,-73.5417824,566,4.3
Restaurant Kim San,8731 R. Sherbrooke E,H1L 1C2,45.604837,-73.5304038,201,3.9
Sushi Quynh Anh,7771 Bd Roi-René,H1K 3G9,45.61299,-73.5560373,71,4.9
Le Goût du Vietnam,1389 Rue Sainte-Catherine E,H2L 2H7,45.5204751,-73.5545183,255,3.9
Mỹ Cảnh,1086 Boul. Saint-Laurent,H2Z 1J5,45.5083597,-73.5609195,556,4.3
Restaurant Cuisine Cantonaise,84 Rue De La Gauchetière O,H2Z 1C1,45.5071037,-73.5606216,372,3.7
Szechuan,400 Notre-Dame St W,H2Y 1V3,45.5015733,-73.5590174,283,4.5
Au 14,14 Rue Prince Arthur O,H2X 1S3,45.5135693,-73.5726786,190,4.4
Pho Bac,1016 Boul. Saint-Laurent,H2Z 1J3,45.5078836,-73.5598317,1517,4.4
Nouilles du HuaiNan 淮南牛肉面,2065b R. Bishop,H3G 2E8,45.4977938,-73.5785821,29,4.3
LE CENTRAL,30 Sainte-Catherine O,H2X 0C8,45.5095584,-73.5638499,1371,4.6
Le Lotus Bleu,988 Boul. Saint-Laurent,H2Z 9Y9,45.5076999,-73.5592908,424,4.3
Fantasie,1355 Rue Sainte-Catherine E,H2L 2H7,45.5201559,-73.5547972,128,3.8
Les Sables d'Or,6381 Bd Roi-René,H1K 3G4,45.609329,-73.5476517,92,4.4
银记肠粉 Yin Ji Chang Fen,1861 Sainte-Catherine O,H3H 1M2,45.4930924,-73.5803182,383,4.3
Nouille De Riz Yunnan - Rice Noodle - Ramen - Chinese Noodle Shop,1625 Boul. de Maisonneuve Ouest suite102,H3H 2N4,45.495491,-73.5797883,161,4.2
Restaurant Kam Ho,1448 Rue Mackay,H3G 2H6,45.4963176,-73.578297,5,2.8
Thai Express Restaurant Montréal,"Les Halles de la Gare, 895 Rue De La Gauchetière O",H3B 4G1,45.500112,-73.566522,0,
Restaurant PM,1809 Sainte-Catherine O,H3H 1M2,45.493737,-73.5796397,855,4
Restaurant I AM Pho,1444 Rue St Mathieu,H3H 2H9,45.494288,-73.580311,801,4.4
HÀ Vieux-Montréal,600 Rue William,H3C 1N6,45.4997314,-73.5562062,669,4.2
Restaurant Sushi Momoyama,977 Sainte-Catherine O,H3B 4W3,45.5010482,-73.5722406,63,4
Q & K,1620 Av. Lincoln,H3H 1G9,45.4957406,-73.5804717,74,4.4
KINKA IZAKAYA MONTREAL,1624 Sainte-Catherine O,H3H 2S7,45.494056,-73.57853,1421,4.2
Mai Xiang Yuan Dumpling Chinatown,1082 Boul. Saint-Laurent,H2Z 1J5,45.5082653,-73.560729,1131,4.1
Thai Express Restaurant Montreal,"Tour CIBC, 1155 René-Lévesque Blvd W",H3B 3Z4,45.49861,-73.570934,22,3.9
Restaurant Kazu,1844 Sainte-Catherine O,H3H 1M1,45.493037,-73.579836,1996,4.6
Thaï Express,"Complexe Desjardins, 5 Complexe Desjardins",H5B 1B8,45.50803,-73.563893,72,3.1
Petit Poisson Dumpling,1813 Sainte-Catherine O,H3H 1M2,45.493637,-73.579681,437,4.2
Ethan,72 Rue De La Gauchetière O,H2Z 1B9,45.507239,-73.560352,640,3
Thaï Express,"Galerie du Parc, 3550 Park Ave",H2X 3P9,45.510102,-73.575315,205,3.2
La Canting,1720 Rue Saint-Patrick,H3K 1A7,45.4849577,-73.563613,180,4.6
Thai Express Restaurant Montréal,705 Sainte-Catherine O,H3B 4G5,45.502466,-73.5713041,98,2.6
Chez Chili,1050b Rue Clark,H2Z 1K3,45.5076218,-73.5603825,1270,4.5
Beijing Restaurant,92 Rue De La Gauchetière O,H2Z 1C1,45.5069299,-73.56056,1344,4.1
Sakura,1216 Rue Stanley,H3B 2S7,45.4986228,-73.5724182,176,4.1
Vie Et Nam,"Gare Centrale, 895 Rue De La Gauchetière O",H3B 2M4,45.500112,-73.566522,11,3.9
Thaï Express,833 Boul. de Maisonneuve E,H2L 1Y7,45.516562,-73.560079,177,3.5
Ryu,1474 Rue Peel,H3A 1S8,45.5006293,-73.5745813,731,4.3
Raviolis Impression- Impression Dumplings,368 Sainte-Catherine O,H3B 1A1,45.5058368,-73.5670583,116,4.3
Cristal No.41 - Pho - Vietnamese - Tea,1068 Boul. Saint-Laurent,H2Z 1J5,45.5082016,-73.56047,152,4.2
P23 Dumplings-The Point,2543 Rue Centre,H3K 1J9,45.4787565,-73.5690924,78,4.1
Mei,1425 Rue Mackay,H3G 2H6,45.4962457,-73.5774404,251,3.7
La Binerie Mont-Royal - Déjeuner - Brunch - Diner,4167 R. Saint-Denis,H2W 2M7,45.5217603,-73.5776943,784,4.5
Le Petit Sao (Vieux Montréal),237 Notre-Dame St W,H2Y 1T4,45.5034096,-73.5580684,169,4.3
Thaiphon,2025 Av. Union,H3A 2C1,45.5051095,-73.5714391,176,3.5
Restaurant Ruby Rouge,1008 Rue Clark,H2Z 1J9,45.507321,-73.5598156,1055,3.6
Restaurant Thaï Mix,1305 Bd Saint-Jean-Baptiste,H1B 4A2,45.6424365,-73.5025571,139,4.3
Restaurant Lai Do,13999 Rue Notre Dame E,H1A 1T8,45.6673951,-73.4947154,120,3.2
Restaurant Guan,315 Rue Peel,H3C 3R9,45.494569,-73.560367,264,4.7
Restaurant Shifu,1460 Rue Mackay,H3G 2H7,45.4964298,-73.5785254,32,4.9
Fondue Chinoise Express,1610 Sainte-Catherine O #411,H3H 2S2,45.4942309,-73.5782501,37,4.4
Shushu Thai Bar À Nouille + Riz,2455 Notre-Dame St W,H3J 1N6,45.4832963,-73.5748461,60,5
Resto La Cible,1665 Boul. de Maisonneuve Ouest,H3H 1J6,45.49489,-73.580462,96,3.2
Satay Brothers Resto 3721 Notre-Dame,3721 Notre-Dame St W,H4C 1P8,45.4793169,-73.5818739,2280,4.5
Restaurant Le Nouveau Paradis,13035 R. Sherbrooke E,H1A 1B9,45.657327,-73.510175,267,4
Sandwichs Asiatique,3537 Rue Ontario E,H1W 1R6,45.5445885,-73.5452462,48,4.9
Thaï Express,12882 R. Sherbrooke E,H1A 4Y3,45.654907,-73.508971,251,3.7
Phở Hùng,3222 Rue Beaubien E,H1Y 1H7,45.5546489,-73.5863313,189,4.4
SANDWICH PAR ICI,3645 R. Sherbrooke E,H1W 1E5,45.5487817,-73.5553921,142,4.8
Thai Express Restaurant Montréal,"Place Versailles, 7275 Sherbrooke St E",H1N 1E9,45.589869,-73.539313,131,3
Restaurant Grillades & Sushi,13072 R. Sherbrooke E,H1A 3W2,45.6565074,-73.5089488,120,4.6
Restaurant Kien-Giang Express,2669 Rue Ontario E,H2K 1X1,45.5344125,-73.5517764,236,4.6
Sushi Plus Yitika,4075 Rue Sainte-Catherine E,H1W 2G8,45.5483338,-73.5357234,54,3.8
Noobox Palais des Congrès (PDC),159 Rue Saint-Antoine O Suite 118,H2Z 2A7,45.5054611,-73.5593637,56,3.4
Tiki-Ming,"845 rue Ste-Catherine East, 203 Place Dupuis R",H2L 4L8,45.515874,-73.559605,40,3.6
La maison de Banh Mi,1263 Rue Sainte-Catherine E,H2L 2H3,45.519159,-73.555769,247,4.2
Nori Sushi,2967 R. Sherbrooke E,H1W 1B2,45.5415111,-73.5604472,178,4.6
Pho Bang New York,1001 Boul. Saint-Laurent,H2Z 1J4,45.5079516,-73.5593332,2376,4.3
Kasa Sushi,2190 Avenue du Mont-Royal E,H2H 1K3,45.5362968,-73.5711617,187,4.1
Aki Sushi St-Joseph,3600 Bd Saint-Joseph E,H1X 1W6,45.5518313,-73.5644241,32,4
Phở Việt,1663 R. Atateken,H2L 3L4,45.5188842,-73.5599357,329,4.4
Sushi Shop,"Marché Atwater, 138 Av. Atwater",H4C 2G3,45.4796524,-73.5772393,128,4
